No errors
No warnings
183 ms
data source=metars
4538 results
raw_text,station_id,observation_time,latitude,longitude,temp_c,dewpoint_c,wind_dir_degrees,wind_speed_kt,wind_gust_kt,visibility_statute_mi,altim_in_hg,sea_level_pressure_mb,corrected,auto,auto_station,maintenance_indicator_on,no_signal,lightning_sensor_off,freezing_rain_sensor_off,present_weather_sensor_off,wx_string,sky_cover,cloud_base_ft_agl,sky_cover,cloud_base_ft_agl,sky_cover,cloud_base_ft_agl,sky_cover,cloud_base_ft_agl,flight_category,three_hr_pressure_tendency_mb,maxT_c,minT_c,maxT24hr_c,minT24hr_c,precip_in,pcp3hr_in,pcp6hr_in,pcp24hr_in,snow_in,vert_vis_ft,metar_type,elevation_m
KADW 180758Z 27005KT 10SM BKN048 02/M06 A3008 RMK AO2A SLP191 T00221056,KADW,2014-12-18T07:58:00Z,38.82,-76.87,2.2,-5.6,270,5,,10.0,30.079725,1019.1,,,TRUE,,,,,,,BKN,4800,,,,,,,VFR,,,,,,,,,,,,METAR,86.0
ROTM 180758Z 03012KT 9999 SCT040 BKN070 15/07 A3033 RMK SLP258 T01500072,ROTM,2014-12-18T07:58:00Z,26.27,127.75,15.0,7.2,30,12,,6.21,30.33071,1025.8,,,,,,,,,,SCT,4000,BKN,7000,,,,,VFR,,,,,,,,,,,,METAR,75.0
KFTG 180758Z AUTO 00000KT 10SM SCT046 OVC050 00/M01 A2997 RMK AO2,KFTG,2014-12-18T07:58:00Z,39.78,-104.55,0.0,-1.0,0,0,,10.0,29.970472,,,TRUE,TRUE,,,,,,,SCT,4600,OVC,5000,,,,,VFR,,,,,,,,,,,,METAR,1675.0
K5SM 180758Z AUTO 00000KT 7SM -SN BKN002 OVC007 A3002 RMK AO2,K5SM,2014-12-18T07:58:00Z,39.43,-107.38,,,0,0,,7.0,30.02067,,,TRUE,TRUE,,,,,,-SN,BKN,200,OVC,700,,,,,LIFR,,,,,,,,,,,,METAR,3232.0
KMYP 180757Z AUTO OVC002 M09/M11 A3007 RMK AO2 PWINO,KMYP,2014-12-18T07:57:00Z,38.48,-106.32,-9.0,-11.0,,,,,30.070866,,,TRUE,TRUE,,,,,TRUE,,OVC,200,,,,,,,,,,,,,,,,,,,METAR,3667.0
DIAP 180757Z VRB02KT 6000 BKN011 27/26 Q1011 NOSIG,DIAP,2014-12-18T07:57:00Z,5.25,-3.92,27.0,26.0,0,2,,3.73,29.852362,,,,,,TRUE,,,,,BKN,1100,,,,,,,MVFR,,,,,,,,,,,,METAR,8.0
CZVL 180757Z AUTO 19003KT 160V240 1SM R26/P6000FT/D BR OVC002 M07/M08 A2983 RMK SLP141,CZVL,2014-12-18T07:57:00Z,53.67,-113.85,-7.0,-8.0,190,3,,1.0,29.828741,1014.1,,TRUE,,,,,,,BR,OVC,200,,,,,,,LIFR,,,,,,,,,,,,SPECI,686.0
CYVO 180757Z AUTO 33010KT 5SM -SN FEW012 BKN034 OVC060 M08/M10 A2995 RMK SLP167,CYVO,2014-12-18T07:57:00Z,48.07,-77.77,-8.0,-10.0,330,10,,5.0,29.949802,1016.7,,TRUE,,,,,,,-SN,FEW,1200,BKN,3400,OVC,6000,,,MVFR,,,,,,,,,,,,SPECI,337.0
CYWE 180757Z AUTO 12008KT 9SM -SN OVC007 M16/M18 A2967 RMK SLP089,CYWE,2014-12-18T07:57:00Z,64.18,-114.08,-16.0,-18.0,120,8,,9.0,29.66929,1008.9,,TRUE,,,,,,,-SN,OVC,700,,,,,,,IFR,,,,,,,,,,,,SPECI,371.0
KSLH 180757Z AUTO 36007G14KT 10SM OVC016 M04/M06 A3017 RMK AO2 T10451063,KSLH,2014-12-18T07:57:00Z,45.65,-84.52,-4.5,-6.3,360,7,14,10.0,30.171259,,,TRUE,TRUE,,,,,,,OVC,1600,,,,,,,MVFR,,,,,,,,,,,,METAR,195.0
KDVP 180756Z AUTO 00000KT 10SM SCT070 M14/M15 A3026 RMK AO2 T11431151,KDVP,2014-12-18T07:56:00Z,43.98,-95.78,-14.3,-15.1,0,0,,10.0,30.259842,,,TRUE,TRUE,,,,,,,SCT,7000,,,,,,,VFR,,,,,,,,,,,,METAR,495.0
CYXS 180756Z AUTO 01003KT 1 3/4SM -SN SCT003 OVC012 M02/M02 A2980 RMK SLP128,CYXS,2014-12-18T07:56:00Z,53.9,-122.68,-2.0,-2.0,10,3,,1.75,29.799213,1012.8,,TRUE,,,,,,,-SN,SCT,300,OVC,1200,,,,,IFR,,,,,,,,,,,,SPECI,691.0
CWLY 180756Z AUTO VRB02KT 3/4SM BR FEW014 BKN020 OVC027 00/M00 A2993 RMK SLP143,CWLY,2014-12-18T07:56:00Z,50.22,-121.58,0.0,0.0,0,2,,0.75,29.929134,1014.3,,TRUE,,,,,,,BR,FEW,1400,BKN,2000,OVC,2700,,,LIFR,,,,,,,,,,,,SPECI,229.0
KNUW 180756Z 11006KT 10SM -RA SCT012 SCT024 BKN055 08/06 A2992 RMK AO2 SLP134 P0001 T00830056 401060056 $ ,KNUW,2014-12-18T07:56:00Z,48.35,-122.65,8.3,5.6,110,6,,10.0,29.920275,1013.4,,,TRUE,TRUE,,,,,-RA,SCT,1200,SCT,2400,BKN,5500,,,VFR,,,,10.6,5.6,0.01,,,,,,METAR,14.0
KNBC 180756Z AUTO 00000KT 10SM CLR 07/04 A3011 RMK AO2 SLP196 T00670044 ,KNBC,2014-12-18T07:56:00Z,32.47,-80.72,6.7,4.4,0,0,,10.0,30.109253,1019.6,,TRUE,TRUE,,,,,,,CLR,,,,,,,,VFR,,,,,,,,,,,,METAR,12.0
KNCA 180756Z AUTO 29005KT 10SM CLR 05/04 A3009 RMK AO2 SLP192 T00500039 ,KNCA,2014-12-18T07:56:00Z,34.72,-77.45,5.0,3.9,290,5,,10.0,30.088583,1019.2,,TRUE,TRUE,,,,,,,CLR,,,,,,,,VFR,,,,,,,,,,,,METAR,8.0
KSPD 180756Z AUTO 32012KT M03/M04 A3000 RMK AO1 SLP166 T10331039 ,KSPD,2014-12-18T07:56:00Z,37.28,-102.62,-3.3,-3.9,320,12,,,30.0,1016.6,,TRUE,TRUE,,,,,,,,,,,,,,,,,,,,,,,,,,,METAR,1335.0
KGNR 180756Z AUTO 34008G16KT M01/M02 A2955 RMK AO1 SLP021 P0003 T10111022 ,KGNR,2014-12-18T07:56:00Z,45.47,-69.55,-1.1,-2.2,340,8,16,,29.551182,1002.1,,TRUE,TRUE,,,,,,,,,,,,,,,,,,,,,0.03,,,,,,METAR,427.0
KNTU 180756Z 35009KT 10SM CLR 06/M01 A3008 RMK AO2 SLP188 T00561006 $ ,KNTU,2014-12-18T07:56:00Z,36.82,-76.02,5.6,-0.6,350,9,,10.0,30.079725,1018.8,,,TRUE,TRUE,,,,,,CLR,,,,,,,,VFR,,,,,,,,,,,,METAR,7.0
KP60 180756Z AUTO 00000KT M07/M09 A3000 RMK AO1 SLP191 T10721089 ,KP60,2014-12-18T07:56:00Z,44.55,-110.42,-7.2,-8.9,0,0,,,30.0,1019.1,,TRUE,TRUE,,,,,,,,,,,,,,,,,,,,,,,,,,,METAR,2388.0
KGNA 180756Z AUTO 34005KT M13/M17 A3035 RMK AO1 SLP299 T11281167 ,KGNA,2014-12-18T07:56:00Z,47.75,-90.35,-12.8,-16.7,340,5,,,30.351377,1029.9,,TRUE,TRUE,,,,,,,,,,,,,,,,,,,,,,,,,,,METAR,185.0
KAQV 180756Z AUTO 00000KT 10SM OVC025 11/06 A3014 RMK AO2 SLP208 T01060061 ,KAQV,2014-12-18T07:56:00Z,31.4,-93.3,10.6,6.1,0,0,,10.0,30.138779,1020.8,,TRUE,TRUE,,,,,,,OVC,2500,,,,,,,MVFR,,,,,,,,,,,,METAR,111.0
KNYG 180756Z AUTO 34006KT 10SM CLR 03/M06 A3013 RMK AO2 SLP203 T00281061 $ ,KNYG,2014-12-18T07:56:00Z,38.5,-77.28,2.8,-6.1,340,6,,10.0,30.129921,1020.3,,TRUE,TRUE,TRUE,,,,,,CLR,,,,,,,,VFR,,,,,,,,,,,,METAR,4.0
KNMM 180756Z AUTO 34003KT 10SM CLR 03/02 A3023 RMK AO2 SLP248 T00280017 ,KNMM,2014-12-18T07:56:00Z,32.53,-88.57,2.8,1.7,340,3,,10.0,30.230314,1024.8,,TRUE,TRUE,,,,,,,CLR,,,,,,,,VFR,,,,,,,,,,,,METAR,97.0
KNGP 180756Z AUTO 16006KT 10SM BKN026 BKN031 21/19 A3003 RMK AO2 SLP168 T02060194 ,KNGP,2014-12-18T07:56:00Z,27.68,-97.27,20.6,19.4,160,6,,10.0,30.029528,1016.8,,TRUE,TRUE,,,,,,,BKN,2600,BKN,3100,,,,,MVFR,,,,,,,,,,,,METAR,6.0
KNID 180756Z AUTO 31003KT 10SM CLR 03/02 A3008 RMK AO2 SLP192 T00330017 401220033 $ ,KNID,2014-12-18T07:56:00Z,35.67,-117.67,3.3,1.7,310,3,,10.0,30.079725,1019.2,,TRUE,TRUE,TRUE,,,,,,CLR,,,,,,,,VFR,,,,12.2,3.3,,,,,,,METAR,696.0
K2WX 180756Z AUTO 16006KT M05/M07 A2990 RMK AO1 SLP172 T10501067 ,K2WX,2014-12-18T07:56:00Z,45.6,-103.55,-5.0,-6.7,160,6,,,29.899607,1017.2,,TRUE,TRUE,,,,,,,,,,,,,,,,,,,,,,,,,,,METAR,915.0
KNSE 180756Z AUTO 34003KT CLR 06/03 A3018 RMK AO2 SLP208 T00560033 $ ,KNSE,2014-12-18T07:56:00Z,30.73,-87.02,5.6,3.3,340,3,,,30.180119,1020.8,,TRUE,TRUE,TRUE,,,,,,CLR,,,,,,,,,,,,,,,,,,,,METAR,61.0
KP28 180756Z AUTO 11003KT M01/M01 A3012 RMK AO1 SLP212 P0001 T10061006 ,KP28,2014-12-18T07:56:00Z,37.28,-98.55,-0.6,-0.6,110,3,,,30.121063,1021.2,,TRUE,TRUE,,,,,,,,,,,,,,,,,,,,,0.01,,,,,,METAR,469.0
K8D3 180756Z AUTO 00000KT M17/M19 A3027 RMK AO1 SLP294 T11721194 ,K8D3,2014-12-18T07:56:00Z,45.67,-96.98,-17.2,-19.4,0,0,,,30.268702,1029.4,,TRUE,TRUE,,,,,,,,,,,,,,,,,,,,,,,,,,,METAR,354.0
KNLC 180756Z 12004KT 7SM -RA SCT035 BKN065 OVC085 09/08 A3014 RMK AO2 RAB22 SLP207 P0000 T00940083 401440089 $ ,KNLC,2014-12-18T07:56:00Z,36.32,-119.95,9.4,8.3,120,4,,7.0,30.138779,1020.7,,,TRUE,TRUE,,,,,-RA,SCT,3500,BKN,6500,OVC,8500,,,VFR,,,,14.4,8.9,0.0050,,,,,,METAR,72.0
KNXP 180756Z AUTO 27006KT 10SM BKN041 08/07 A3017 RMK AO2 SLP202 T00830067 401220044 $ ,KNXP,2014-12-18T07:56:00Z,34.28,-116.17,8.3,6.7,270,6,,10.0,30.171259,1020.2,,TRUE,TRUE,TRUE,,,,,,BKN,4100,,,,,,,VFR,,,,12.2,4.4,,,,,,,METAR,626.0
KSXT 180756Z AUTO 14010KT 1/4SM FG FEW007 OVC016 02/02 A2993 RMK AO2 SLP149 T00220022 400390017 ,KSXT,2014-12-18T07:56:00Z,42.6,-123.37,2.2,2.2,140,10,,0.25,29.929134,1014.9,,TRUE,TRUE,,,,,,FG,FEW,700,OVC,1600,,,,,LIFR,,,,3.9,1.7,,,,,,,METAR,1170.0
K79J 180756Z AUTO 00000KT 10SM CLR 07/03 A3017 RMK AO2 SLP214 T00670033 ,K79J,2014-12-18T07:56:00Z,31.32,-86.4,6.7,3.3,0,0,,10.0,30.171259,1021.4,,TRUE,TRUE,,,,,,,CLR,,,,,,,,VFR,,,,,,,,,,,,METAR,94.0
KNTD 180756Z AUTO 03004KT 10SM CLR 11/08 A3011 RMK AO2 SLP196 T01110078 401890106 $ ,KNTD,2014-12-18T07:56:00Z,34.12,-119.12,11.1,7.8,30,4,,10.0,30.109253,1019.6,,TRUE,TRUE,TRUE,,,,,,CLR,,,,,,,,VFR,,,,18.9,10.6,,,,,,,METAR,4.0
KNDZ 180756Z AUTO 35003KT 10SM CLR 05/03 A3018 RMK AO2 SLP208 T00500028 ,KNDZ,2014-12-18T07:56:00Z,30.7,-87.02,5.0,2.8,350,3,,10.0,30.180119,1020.8,,TRUE,TRUE,,,,,,,CLR,,,,,,,,VFR,,,,,,,,,,,,METAR,54.0
KNPA 180756Z AUTO 00000KT 10SM CLR 06/04 A3018 RMK AO2 SLP220 T00560044 $ ,KNPA,2014-12-18T07:56:00Z,30.35,-87.32,5.6,4.4,0,0,,10.0,30.180119,1022.0,,TRUE,TRUE,TRUE,,,,,,CLR,,,,,,,,VFR,,,,,,,,,,,,METAR,9.0
KNFL 180756Z AUTO 07003KT 10SM BKN085 01/M03 A3003 RMK AO2 SLP138 T00111028 401110011 ,KNFL,2014-12-18T07:56:00Z,39.42,-118.7,1.1,-2.8,70,3,,10.0,30.029528,1013.8,,TRUE,TRUE,,,,,,,BKN,8500,,,,,,,VFR,,,,11.1,1.1,,,,,,,METAR,1199.0
KALK 180756Z AUTO 00000KT 9SM -RA FEW003 BKN021 OVC031 05/04 A3015 RMK AO2 RAB24 SLP166 P0000 T00500044 TSNO ,KALK,2014-12-18T07:56:00Z,31.6,-110.43,5.0,4.4,0,0,,9.0,30.15059,1016.6,,TRUE,TRUE,,,TRUE,,,-RA,FEW,300,BKN,2100,OVC,3100,,,MVFR,,,,,,0.0050,,,,,,METAR,1453.0
KNRS 180756Z AUTO 09006KT FEW050 12/09 A3013 RMK AO2 SLP203 T01170089 401890106 PNO $ ,KNRS,2014-12-18T07:56:00Z,32.57,-117.12,11.7,8.9,90,6,,,30.129921,1020.3,,TRUE,TRUE,TRUE,,,,,,FEW,5000,,,,,,,,,,,18.9,10.6,,,,,,,METAR,7.0
PHBK 180756Z AUTO 11003KT 10SM BKN050 23/19 A3017 RMK AO2 SLP217 T02280189 ,PHBK,2014-12-18T07:56:00Z,22.03,-159.78,22.8,18.9,110,3,,10.0,30.171259,1021.7,,TRUE,TRUE,,,,,,,BKN,5000,,,,,,,VFR,,,,,,,,,,,,METAR,8.0
PFYU 180756Z 00000KT 5SM CLR M22/M25 A2973 RMK AO1,PFYU,2014-12-18T07:56:00Z,66.57,-145.27,-22.0,-25.0,0,0,,5.0,29.731298,,,,TRUE,,,,,,,CLR,,,,,,,,MVFR,,,,,,,,,,,,METAR,131.0
KBZN 180756Z AUTO 16003KT 10SM CLR M11/M13 A2999 RMK AO2 SLP208 T11111133,KBZN,2014-12-18T07:56:00Z,45.78,-111.17,-11.1,-13.3,160,3,,10.0,29.991142,1020.8,,TRUE,TRUE,,,,,,,CLR,,,,,,,,VFR,,,,,,,,,,,,METAR,1361.0
PAZK 180756Z 00000KT 1/4SM OVC002 M11/M12 A2953 RMK AO1,PAZK,2014-12-18T07:56:00Z,61.93,-147.17,-11.0,-12.0,0,0,,0.25,29.530512,,,,TRUE,,,,,,,OVC,200,,,,,,,LIFR,,,,,,,,,,,,METAR,1003.0
PAWS 180756Z AUTO 00000KT 10SM CLR M05/M11 A2958 RMK AO1,PAWS,2014-12-18T07:56:00Z,61.57,-149.53,-5.0,-11.0,0,0,,10.0,29.58071,,,TRUE,TRUE,,,,,,,CLR,,,,,,,,VFR,,,,,,,,,,,,METAR,107.0
PAWN 180756Z AUTO 01006KT 10SM OVC005 M11/M13 A2968 RMK AO1,PAWN,2014-12-18T07:56:00Z,67.57,-162.98,-11.0,-13.0,10,6,,10.0,29.681103,,,TRUE,TRUE,,,,,,,OVC,500,,,,,,,IFR,,,,,,,,,,,,METAR,30.0
PAWG 180756Z 08010KT 10SM SCT060 BKN090 03/M02 A2972 RMK AO1 WEA:NONE LAST MJ,PAWG,2014-12-18T07:56:00Z,56.48,-132.37,3.0,-2.0,80,10,,10.0,29.719488,,,,TRUE,,,,,,,SCT,6000,BKN,9000,,,,,VFR,,,,,,,,,,,,METAR,11.0
PAVD 180756Z 00000KT 10SM 00/M03 A2965 RMK AO1,PAVD,2014-12-18T07:56:00Z,61.13,-146.25,0.0,-3.0,0,0,,10.0,29.648623,,,,TRUE,,,,,,,,,,,,,,,,,,,,,,,,,,,METAR,37.0
PAUN 180756Z AUTO 08014KT 10SM CLR M07/M09 A2962 RMK AO1,PAUN,2014-12-18T07:56:00Z,63.88,-160.8,-7.0,-9.0,80,14,,10.0,29.619095,,,TRUE,TRUE,,,,,,,CLR,,,,,,,,VFR,,,,,,,,,,,,METAR,6.0
PATG 180756Z AUTO 02009KT 10SM CLR M03/M06 A2944 RMK AO1,PATG,2014-12-18T07:56:00Z,59.05,-160.38,-3.0,-6.0,20,9,,10.0,29.438976,,,TRUE,TRUE,,,,,,,CLR,,,,,,,,VFR,,,,,,,,,,,,METAR,4.0
PASX 180756Z AUTO 00000KT 10SM FEW004 M02/M04 A2954 RMK AO1,PASX,2014-12-18T07:56:00Z,60.48,-151.03,-2.0,-4.0,0,0,,10.0,29.53937,,,TRUE,TRUE,,,,,,,FEW,400,,,,,,,VFR,,,,,,,,,,,,METAR,32.0
PASM 180756Z AUTO 08017G24KT 10SM CLR M08/M11 A2951 RMK AO1,PASM,2014-12-18T07:56:00Z,62.07,-163.3,-8.0,-11.0,80,17,24,10.0,29.509842,,,TRUE,TRUE,,,,,,,CLR,,,,,,,,VFR,,,,,,,,,,,,METAR,92.0
PASK 180756Z AUTO 06009KT 9SM FEW028 OVC065 M08/M09 A2970 RMK AO1,PASK,2014-12-18T07:56:00Z,66.6,-160.0,-8.0,-9.0,60,9,,9.0,29.698818,,,TRUE,TRUE,,,,,,,FEW,2800,OVC,6500,,,,,VFR,,,,,,,,,,,,METAR,8.0
PASD 180756Z AUTO 35012KT 10SM SCT017 OVC024 03/02 A2928 RMK AO1 P0001,PASD,2014-12-18T07:56:00Z,55.33,-160.5,3.0,2.0,350,12,,10.0,29.279528,,,TRUE,TRUE,,,,,,,SCT,1700,OVC,2400,,,,,MVFR,,,,,,0.01,,,,,,METAR,7.0
PASA 180756Z AUTO 10019KT 10SM SCT028 BKN040 OVC100 M02/M03 A2945 RMK AO1,PASA,2014-12-18T07:56:00Z,63.68,-170.5,-2.0,-3.0,100,19,,10.0,29.450787,,,TRUE,TRUE,,,,,,,SCT,2800,BKN,4000,OVC,10000,,,VFR,,,,,,,,,,,,METAR,16.0
PARC 180756Z AUTO 00000KT 10SM OVC011 M18/M18 A2952 RMK AO1,PARC,2014-12-18T07:56:00Z,68.12,-145.58,-18.0,-18.0,0,0,,10.0,29.518702,,,TRUE,TRUE,,,,,,,OVC,1100,,,,,,,MVFR,,,,,,,,,,,,METAR,636.0
PAPH 180756Z AUTO 00000KT 10SM BKN060 OVC065 M01/M04 A2934 RMK AO1,PAPH,2014-12-18T07:56:00Z,56.95,-158.62,-1.0,-4.0,0,0,,10.0,29.338583,,,TRUE,TRUE,,,,,,,BKN,6000,OVC,6500,,,,,VFR,,,,,,,,,,,,METAR,29.0
PAPG 180756Z 00000KT 10SM BKN042 OVC050 01/M03 A2968 RMK AO1,PAPG,2014-12-18T07:56:00Z,56.82,-132.97,1.0,-3.0,0,0,,10.0,29.681103,,,,TRUE,,,,,,,BKN,4200,OVC,5000,,,,,VFR,,,,,,,,,,,,METAR,15.0
PANV 180756Z AUTO 03005KT 4SM OVC003 M07/M09 A2960 RMK AO1,PANV,2014-12-18T07:56:00Z,62.65,-160.18,-7.0,-9.0,30,5,,4.0,29.601377,,,TRUE,TRUE,,,,,,,OVC,300,,,,,,,LIFR,,,,,,,,,,,,METAR,99.0
PANI 180756Z AUTO 00000KT 10SM CLR M09/M11 A2957 RMK AO1,PANI,2014-12-18T07:56:00Z,61.58,-159.53,-9.0,-11.0,0,0,,10.0,29.568897,,,TRUE,TRUE,,,,,,,CLR,,,,,,,,VFR,,,,,,,,,,,,METAR,26.0
PAMY 180756Z AUTO 15013KT 10SM SCT008 BKN090 M02/M06 A2940 RMK AO1,PAMY,2014-12-18T07:56:00Z,60.37,-166.27,-2.0,-6.0,150,13,,10.0,29.40059,,,TRUE,TRUE,,,,,,,SCT,800,BKN,9000,,,,,VFR,,,,,,,,,,,,METAR,13.0
PAMM 180756Z AUTO 09012G21KT 10SM SCT040 BKN070 OVC095 06/M02 A2967 RMK AO1,PAMM,2014-12-18T07:56:00Z,55.13,-131.58,6.0,-2.0,90,12,21,10.0,29.66929,,,TRUE,TRUE,,,,,,,SCT,4000,BKN,7000,OVC,9500,,,VFR,,,,,,,,,,,,METAR,1.0
PAMH 180756Z AUTO 00000KT 10SM M10/M12 A2965 RMK AO1,PAMH,2014-12-18T07:56:00Z,63.9,-152.32,-10.0,-12.0,0,0,,10.0,29.648623,,,TRUE,TRUE,,,,,,,,,,,,,,,,,,,,,,,,,,,METAR,214.0
PAMD 180756Z 08022G28KT 10SM FEW018 BKN026 OVC065 06/03 A2950 RMK AO1,PAMD,2014-12-18T07:56:00Z,59.43,-146.3,6.0,3.0,80,22,28,10.0,29.500984,,,,TRUE,,,,,,,FEW,1800,BKN,2600,OVC,6500,,,MVFR,,,,,,,,,,,,METAR,14.0
PAKP 180756Z AUTO 00000KT 10SM CLR M22/M28 A2954 RMK AO1,PAKP,2014-12-18T07:56:00Z,68.13,-151.73,-22.0,-28.0,0,0,,10.0,29.53937,,,TRUE,TRUE,,,,,,,CLR,,,,,,,,VFR,,,,,,,,,,,,METAR,642.0
PAKK 180756Z AUTO 05005KT 10SM CLR M04/M10 A2961 RMK AO1,PAKK,2014-12-18T07:56:00Z,64.93,-161.15,-4.0,-10.0,50,5,,10.0,29.610237,,,TRUE,TRUE,,,,,,,CLR,,,,,,,,VFR,,,,,,,,,,,,METAR,47.0
PAJZ 180756Z AUTO 30005KT 10SM CLR M05/M08 A2953 RMK AO2 TSNO T10501083 SLP993 $,PAJZ,2014-12-18T07:56:00Z,59.73,-157.27,-5.0,-8.3,300,5,,10.0,29.530512,999.3,,TRUE,TRUE,TRUE,,TRUE,,,,CLR,,,,,,,,VFR,,,,,,,,,,,,METAR,82.0
PAJC 180756Z AUTO 06010G20KT 10SM OVC023 04/M01 A2929 RMK AO1 P0003,PAJC,2014-12-18T07:56:00Z,56.32,-158.37,4.0,-1.0,60,10,20,10.0,29.291338,,,TRUE,TRUE,,,,,,,OVC,2300,,,,,,,MVFR,,,,,,0.03,,,,,,METAR,15.0
PAIN 180756Z AUTO 00000KT 10SM CLR M13/M14 A2958 RMK AO1,PAIN,2014-12-18T07:56:00Z,63.73,-148.92,-13.0,-14.0,0,0,,10.0,29.58071,,,TRUE,TRUE,,,,,,,CLR,,,,,,,,VFR,,,,,,,,,,,,METAR,524.0
PAII 180756Z AUTO 04004KT 10SM M03/M05 A2939 RMK AO1,PAII,2014-12-18T07:56:00Z,58.18,-157.38,-3.0,-5.0,40,4,,10.0,29.388779,,,TRUE,TRUE,,,,,,,,,,,,,,,,,,,,,,,,,,,METAR,30.0
PAHY 180756Z AUTO 10SM OVC032 06/M01 A2959 RMK AO1 P0002,PAHY,2014-12-18T07:56:00Z,55.2,-132.83,6.0,-1.0,,,,10.0,29.589567,,,TRUE,TRUE,,,,,,,OVC,3200,,,,,,,VFR,,,,,,0.02,,,,,,METAR,1.0
PAHP 180756Z AUTO 10017KT 10SM CLR M08/M10 A2948 RMK AO1,PAHP,2014-12-18T07:56:00Z,61.53,-166.15,-8.0,-10.0,100,17,,10.0,29.480314,,,TRUE,TRUE,,,,,,,CLR,,,,,,,,VFR,,,,,,,,,,,,METAR,5.0
PAHL 180756Z AUTO 00000KT 3SM OVC004 M08/M10 A2971 RMK AO1,PAHL,2014-12-18T07:56:00Z,65.7,-156.35,-8.0,-10.0,0,0,,3.0,29.71063,,,TRUE,TRUE,,,,,,,OVC,400,,,,,,,LIFR,,,,,,,,,,,,METAR,65.0
PAGS 180756Z AUTO 02003KT 10SM SCT049 BKN110 M02/M03 A2966 RMK AO1 PNO,PAGS,2014-12-18T07:56:00Z,58.42,-135.73,-2.0,-3.0,20,3,,10.0,29.660433,,,TRUE,TRUE,,,,,,,SCT,4900,BKN,11000,,,,,VFR,,,,,,,,,,,,METAR,9.0
PAGM 180756Z AUTO 05020KT 3SM 00/ A2944 RMK AO1,PAGM,2014-12-18T07:56:00Z,63.77,-171.73,0.0,,50,20,,3.0,29.438976,,,TRUE,TRUE,,,,,,,,,,,,,,,,,,,,,,,,,,,METAR,8.0
PAGL 180756Z AUTO 00000KT 10SM CLR M04/M07 A2967 RMK AO1,PAGL,2014-12-18T07:56:00Z,64.55,-163.03,-4.0,-7.0,0,0,,10.0,29.66929,,,TRUE,TRUE,,,,,,,CLR,,,,,,,,VFR,,,,,,,,,,,,METAR,8.0
PAFM 180756Z AUTO 01004KT 10SM OVC017 M09/M12 A2972 RMK AO1,PAFM,2014-12-18T07:56:00Z,67.1,-157.85,-9.0,-12.0,10,4,,10.0,29.719488,,,TRUE,TRUE,,,,,,,OVC,1700,,,,,,,MVFR,,,,,,,,,,,,METAR,88.0
PAFE 180756Z AUTO 08003KT 10SM BKN030 OVC038 03/M01 A2968 RMK AO1,PAFE,2014-12-18T07:56:00Z,56.97,-133.92,3.0,-1.0,80,3,,10.0,29.681103,,,TRUE,TRUE,,,,,,,BKN,3000,OVC,3800,,,,,MVFR,,,,,,,,,,,,METAR,9.0
PAEM 180756Z AUTO 09005KT 10SM CLR M07/M11 A2954 RMK AO1,PAEM,2014-12-18T07:56:00Z,62.77,-164.52,-7.0,-11.0,90,5,,10.0,29.53937,,,TRUE,TRUE,,,,,,,CLR,,,,,,,,VFR,,,,,,,,,,,,METAR,3.0
PADL 180756Z 33010KT 10SM BKN016 M04/M04 A2945 RMK AO1,PADL,2014-12-18T07:56:00Z,59.05,-158.52,-4.0,-4.0,330,10,,10.0,29.450787,,,,TRUE,,,,,,,BKN,1600,,,,,,,MVFR,,,,,,,,,,,,METAR,26.0
PADK 180756Z AUTO 00000KT 10SM CLR M07/M08 A2938 RMK AO1,PADK,2014-12-18T07:56:00Z,51.88,-176.65,-7.0,-8.0,0,0,,10.0,29.379921,,,TRUE,TRUE,,,,,,,CLR,,,,,,,,VFR,,,,,,,,,,,,METAR,4.0
PABV 180756Z AUTO 00000KT 10SM CLR M08/M09 A2960 RMK AO1,PABV,2014-12-18T07:56:00Z,61.42,-149.52,-8.0,-9.0,0,0,,10.0,29.601377,,,TRUE,TRUE,,,,,,,CLR,,,,,,,,VFR,,,,,,,,,,,,METAR,29.0
PABL 180756Z AUTO 16005KT 10SM OVC055 M07/M09 A2969 RMK AO1,PABL,2014-12-18T07:56:00Z,65.98,-161.15,-7.0,-9.0,160,5,,10.0,29.68996,,,TRUE,TRUE,,,,,,,OVC,5500,,,,,,,VFR,,,,,,,,,,,,METAR,7.0
PAAK 180756Z 00000KT 10SM CLR M03/M06 A2940 RMK AO1,PAAK,2014-12-18T07:56:00Z,52.22,-174.2,-3.0,-6.0,0,0,,10.0,29.40059,,,,TRUE,,,,,,,CLR,,,,,,,,VFR,,,,,,,,,,,,METAR,17.0
KNOG 180756Z AUTO 00000KT 10SM BKN017 OVC060 19/19 A3003 RMK AO2 SLP149 T01940189 $ ,KNOG,2014-12-18T07:56:00Z,27.9,-98.05,19.4,18.9,0,0,,10.0,30.029528,1014.9,,TRUE,TRUE,TRUE,,,,,,BKN,1700,OVC,6000,,,,,MVFR,,,,,,,,,,,,METAR,78.0
PHSF 180756Z AUTO 12002KT 10SM CLR 09/04 A3045 RMK AO2 SLP204 T00850044 $,PHSF,2014-12-18T07:56:00Z,19.77,-155.55,8.5,4.4,120,2,,10.0,30.448818,1020.4,,TRUE,TRUE,TRUE,,,,,,CLR,,,,,,,,VFR,,,,,,,,,,,,METAR,1887.0
MUGM 180756Z 34006KT 9999 FEW090 23/21 A3002 RMK SLP164 T02280206,MUGM,2014-12-18T07:56:00Z,19.9,-75.2,22.8,20.6,340,6,,6.21,30.02067,1016.4,,,,,,,,,,FEW,9000,,,,,,,VFR,,,,,,,,,,,,METAR,17.0
KSXS 180756Z AUTO 34002KT 10SM BKN230 05/04 A3019 RMK AO2 SLP226 T00510036,KSXS,2014-12-18T07:56:00Z,31.37,-85.85,5.1,3.6,340,2,,10.0,30.188976,1022.6,,TRUE,TRUE,,,,,,,BKN,23000,,,,,,,VFR,,,,,,,,,,,,METAR,122.0
KSRC 180756Z AUTO 04005KT 7SM -RA OVC005 02/02 A3027 RMK AO2 CIG 004V008 SLP258 P0006 T00220017 FZRANO TSNO,KSRC,2014-12-18T07:56:00Z,35.22,-91.73,2.2,1.7,40,5,,7.0,30.268702,1025.8,,TRUE,TRUE,,,TRUE,TRUE,,-RA,OVC,500,,,,,,,IFR,,,,,,0.06,,,,,,METAR,80.0
KQFS 180756Z AUTO VRB06G12KT 9999 CLR 00/M19 A3048 RMK AO2 SLPNO T00021195,KQFS,2014-12-18T07:56:00Z,100.65,-1000.65,0.2,-19.5,0,6,12,6.21,30.481298,,,TRUE,TRUE,,,,,,,CLR,,,,,,,,VFR,,,,,,,,,,,,METAR,999.0
CWUW 180756Z AUTO 06010KT 9SM FEW041 FEW073 FEW095 M22/ A2953,CWUW,2014-12-18T07:56:00Z,68.65,-71.17,-22.0,,60,10,,9.0,29.530512,,,TRUE,,,,,,,,FEW,4100,FEW,7300,FEW,9500,,,VFR,,,,,,,,,,,,SPECI,527.0
KHND 180756Z 21007KT 10SM OVC070 08/05 A3010 RMK AO2 SLP195 T00830050 401170056,KHND,2014-12-18T07:56:00Z,35.98,-115.13,8.3,5.0,210,7,,10.0,30.100393,1019.5,,,TRUE,,,,,,,OVC,7000,,,,,,,VFR,,,,11.7,5.6,,,,,,,METAR,749.0
KETH 180756Z AUTO 00000KT 10SM CLR M17/M18 A3031 RMK AO2,KETH,2014-12-18T07:56:00Z,45.78,-96.55,-17.0,-18.0,0,0,,10.0,30.31004,,,TRUE,TRUE,,,,,,,CLR,,,,,,,,VFR,,,,,,,,,,,,METAR,313.0
KCOQ 180756Z AUTO 00000KT 5SM -SN OVC015 M08/M09 A3029 RMK AO2,KCOQ,2014-12-18T07:56:00Z,46.7,-92.5,-8.0,-9.0,0,0,,5.0,30.28937,,,TRUE,TRUE,,,,,,-SN,OVC,1500,,,,,,,MVFR,,,,,,,,,,,,METAR,390.0
KAUM 180756Z AUTO 00000KT 7SM CLR M11/M12 A3028 RMK AO2,KAUM,2014-12-18T07:56:00Z,43.67,-92.92,-11.0,-12.0,0,0,,7.0,30.280512,,,TRUE,TRUE,,,,,,,CLR,,,,,,,,VFR,,,,,,,,,,,,METAR,375.0
K4I3 180756Z AUTO 31010G15KT 10SM OVC021 M03/M06 A3021 RMK AO2,K4I3,2014-12-18T07:56:00Z,40.33,-82.53,-3.0,-6.0,310,10,15,10.0,30.209646,,,TRUE,TRUE,,,,,,,OVC,2100,,,,,,,MVFR,,,,,,,,,,,,METAR,363.0
CYBN 180756Z AUTO 31005KT 280V340 3SM OVC009 OVC041 OVC088 OVC096 M02/M02 A3000,CYBN,2014-12-18T07:56:00Z,44.27,-79.92,-2.0,-2.0,310,5,,3.0,30.0,,,TRUE,,,,,,,,OVC,900,OVC,4100,OVC,8800,OVC,9600,IFR,,,,,,,,,,,,SPECI,223.0
CYQZ 180756Z AUTO 00000KT 2 1/4SM -SN BKN005 BKN008 BKN033 OVC044 M01/ A2982 RMK VIS VRB 1 1/4-3 SLP127,CYQZ,2014-12-18T07:56:00Z,53.02,-122.52,-1.0,,0,0,,2.25,29.819881,1012.7,,TRUE,,,,,,,-SN,BKN,500,BKN,800,BKN,3300,OVC,4400,IFR,,,,,,,,,,,,SPECI,545.0
KCPW 180756Z AUTO 1/4SM +SN OVC002 M10/M10 A3001 RMK AO2 P0001,KCPW,2014-12-18T07:56:00Z,37.45,-106.8,-10.0,-10.0,,,,0.25,30.008858,,,TRUE,TRUE,,,,,,+SN,OVC,200,,,,,,,LIFR,,,,,,0.01,,,,,,METAR,3584.0
KXVG 180756Z AUTO 00000KT 10SM CLR M18/M19 A3028 RMK AO2,KXVG,2014-12-18T07:56:00Z,46.98,-94.2,-18.0,-19.0,0,0,,10.0,30.280512,,,TRUE,TRUE,,,,,,,CLR,,,,,,,,VFR,,,,,,,,,,,,METAR,407.0
KLYV 180756Z AUTO 09003KT 10SM OVC070 M08/M11 A3026 RMK AO2,KLYV,2014-12-18T07:56:00Z,43.62,-96.22,-8.0,-11.0,90,3,,10.0,30.259842,,,TRUE,TRUE,,,,,,,OVC,7000,,,,,,,VFR,,,,,,,,,,,,METAR,436.0
KI69 180756Z AUTO 04004KT 10SM OVC016 M02/M05 A3028 RMK AO1,KI69,2014-12-18T07:56:00Z,39.08,-84.22,-2.0,-5.0,40,4,,10.0,30.280512,,,TRUE,TRUE,,,,,,,OVC,1600,,,,,,,MVFR,,,,,,,,,,,,METAR,255.0
KMEZ 180755Z AUTO 09005KT 7SM OVC005 03/02 A3016 RMK AO2,KMEZ,2014-12-18T07:55:00Z,34.55,-94.2,3.0,2.0,90,5,,7.0,30.159449,,,TRUE,TRUE,,,,,,,OVC,500,,,,,,,IFR,,,,,,,,,,,,METAR,329.0
KMBL 180755Z AUTO 33005KT 9SM FEW008 BKN014 OVC025 M01/M03 A3021 RMK AO1,KMBL,2014-12-18T07:55:00Z,44.27,-86.25,-1.0,-3.0,330,5,,9.0,30.209646,,,TRUE,TRUE,,,,,,,FEW,800,BKN,1400,OVC,2500,,,MVFR,,,,,,,,,,,,METAR,189.0
KMJX 180755Z AUTO 29014G18KT 10SM SCT042 OVC060 03/M05 A2996 RMK AO1,KMJX,2014-12-18T07:55:00Z,39.93,-74.3,3.0,-5.0,290,14,18,10.0,29.958662,,,TRUE,TRUE,,,,,,,SCT,4200,OVC,6000,,,,,VFR,,,,,,,,,,,,METAR,25.0
KMKT 180755Z AUTO 00000KT 10SM SCT019 M09/M13 A3030 RMK AO1,KMKT,2014-12-18T07:55:00Z,44.22,-93.92,-9.0,-13.0,0,0,,10.0,30.301182,,,TRUE,TRUE,,,,,,,SCT,1900,,,,,,,VFR,,,,,,,,,,,,METAR,311.0
KMKY 180755Z AUTO 06005KT 10SM FEW044 BKN055 16/14 A3014 RMK AO1,KMKY,2014-12-18T07:55:00Z,26.0,-81.67,16.0,14.0,60,5,,10.0,30.138779,,,TRUE,TRUE,,,,,,,FEW,4400,BKN,5500,,,,,VFR,,,,,,,,,,,,METAR,2.0
KMMI 180755Z AUTO 00000KT 10SM CLR M02/M03 A3022 RMK,KMMI,2014-12-18T07:55:00Z,35.4,-84.57,-2.0,-3.0,0,0,,10.0,30.221457,,,TRUE,,,,,,,,CLR,,,,,,,,VFR,,,,,,,,,,,,METAR,266.0
KMML 180755Z AUTO 00000KT 10SM CLR M17/M20 A3028 RMK AO1,KMML,2014-12-18T07:55:00Z,44.45,-95.82,-17.0,-20.0,0,0,,10.0,30.280512,,,TRUE,TRUE,,,,,,,CLR,,,,,,,,VFR,,,,,,,,,,,,METAR,359.0
KMNM 180755Z AUTO 01006KT 10SM OVC018 M03/M06 A3025 RMK AO1,KMNM,2014-12-18T07:55:00Z,45.12,-87.62,-3.0,-6.0,10,6,,10.0,30.250984,,,TRUE,TRUE,,,,,,,OVC,1800,,,,,,,MVFR,,,,,,,,,,,,METAR,191.0
KMRF 180755Z AUTO 02003KT 10SM CLR M01/M05 A3015 RMK AO1,KMRF,2014-12-18T07:55:00Z,30.37,-104.02,-1.0,-5.0,20,3,,10.0,30.15059,,,TRUE,TRUE,,,,,,,CLR,,,,,,,,VFR,,,,,,,,,,,,METAR,1481.0
KMSV 180755Z AUTO 29014G22KT 8SM SCT021 OVC028 M01/M04 A2987 RMK AO1,KMSV,2014-12-18T07:55:00Z,41.7,-74.78,-1.0,-4.0,290,14,22,8.0,29.870079,,,TRUE,TRUE,,,,,,,SCT,2100,OVC,2800,,,,,MVFR,,,,,,,,,,,,METAR,428.0
KN03 180755Z AUTO 27011G17KT 10SM BKN016 OVC023 00/M02 A2995 RMK AO2,KN03,2014-12-18T07:55:00Z,42.6,-76.22,0.0,-2.0,270,11,17,10.0,29.949802,,,TRUE,TRUE,,,,,,,BKN,1600,OVC,2300,,,,,MVFR,,,,,,,,,,,,METAR,366.0
KLUX 180755Z AUTO 01005KT 10SM CLR 01/01 A3009 RMK AO2,KLUX,2014-12-18T07:55:00Z,34.5,-81.95,1.0,1.0,10,5,,10.0,30.088583,,,TRUE,TRUE,,,,,,,CLR,,,,,,,,VFR,,,,,,,,,,,,METAR,213.0
KHVS 180755Z AUTO 00000KT 10SM CLR 06/06 A3008 RMK AO2,KHVS,2014-12-18T07:55:00Z,34.4,-80.12,6.0,6.0,0,0,,10.0,30.079725,,,TRUE,TRUE,,,,,,,CLR,,,,,,,,VFR,,,,,,,,,,,,METAR,111.0
KHOB 180755Z AUTO 26009KT 10SM CLR 07/00 A3006 RMK AO2,KHOB,2014-12-18T07:55:00Z,32.67,-103.22,7.0,0.0,260,9,,10.0,30.059055,,,TRUE,TRUE,,,,,,,CLR,,,,,,,,VFR,,,,,,,,,,,,METAR,1115.0
KJFX 180755Z AUTO 35003KT 9SM CLR 03/02 A3023 RMK A02 P-128,KJFX,2014-12-18T07:55:00Z,33.9,-87.32,3.0,2.0,350,3,,9.0,30.230314,,,TRUE,TRUE,,,,,,,CLR,,,,,,,,VFR,,,,,,,,,,,,METAR,148.0
KIMM 180755Z AUTO 00000KT 8SM OVC008 14/ A3016 RMK A01 P000,KIMM,2014-12-18T07:55:00Z,26.43,-81.4,14.0,,0,0,,8.0,30.159449,,,TRUE,TRUE,,,,,,,OVC,800,,,,,,,IFR,,,,,,,,,,,,METAR,12.0
KGGE 180755Z AUTO 00000KT 10SM CLR A3009 RMK AO2,KGGE,2014-12-18T07:55:00Z,33.32,-79.32,,,0,0,,10.0,30.088583,,,TRUE,TRUE,,,,,,,CLR,,,,,,,,VFR,,,,,,,,,,,,METAR,12.0
KCQW 180755Z AUTO 00000KT 2 1/2SM BR CLR 01/01 A3010 RMK AO2,KCQW,2014-12-18T07:55:00Z,34.72,-79.95,1.0,1.0,0,0,,2.5,30.100393,,,TRUE,TRUE,,,,,,BR,CLR,,,,,,,,IFR,,,,,,,,,,,,METAR,73.0
KBOW 180755Z AUTO 00000KT 10SM CLR 07/07 A3015 RMK AO2,KBOW,2014-12-18T07:55:00Z,27.93,-81.77,7.0,7.0,0,0,,10.0,30.15059,,,TRUE,TRUE,,,,,,,CLR,,,,,,,,VFR,,,,,,,,,,,,METAR,39.0
KBBP 180755Z AUTO 00000KT 10SM CLR 02/02 A3009 RMK AO2,KBBP,2014-12-18T07:55:00Z,34.62,-79.73,2.0,2.0,0,0,,10.0,30.088583,,,TRUE,TRUE,,,,,,,CLR,,,,,,,,VFR,,,,,,,,,,,,METAR,45.0
KCKI 180755Z AUTO 00000KT 10SM CLR 02/02 A3010 RMK AO2,KCKI,2014-12-18T07:55:00Z,33.72,-79.85,2.0,2.0,0,0,,10.0,30.100393,,,TRUE,TRUE,,,,,,,CLR,,,,,,,,VFR,,,,,,,,,,,,METAR,21.0
KE80 180755Z AUTO 26005KT 10SM CLR M01/M02 A3012 RMK AO2 T10071020,KE80,2014-12-18T07:55:00Z,34.65,-106.83,-0.7,-2.0,260,5,,10.0,30.121063,,,TRUE,TRUE,,,,,,,CLR,,,,,,,,VFR,,,,,,,,,,,,METAR,1582.0
KALM 180755Z AUTO 18004KT 10SM -RA FEW037 OVC070 07/00 A3012 RMK AO2,KALM,2014-12-18T07:55:00Z,32.82,-105.97,7.0,0.0,180,4,,10.0,30.121063,,,TRUE,TRUE,,,,,,-RA,FEW,3700,OVC,7000,,,,,VFR,,,,,,,,,,,,METAR,1279.0
KAEG 180755Z AUTO 22005KT 10SM SCT060 M01/M03 A3010 RMK AO2 T10101027,KAEG,2014-12-18T07:55:00Z,35.13,-106.8,-1.0,-2.7,220,5,,10.0,30.100393,,,TRUE,TRUE,,,,,,,SCT,6000,,,,,,,VFR,,,,,,,,,,,,METAR,1779.0
K42J 180755Z AUTO 36003KT 8SM CLR 06/06 A3014 RMK AO1 TSNO,K42J,2014-12-18T07:55:00Z,29.85,-82.05,6.0,6.0,360,3,,8.0,30.138779,,,TRUE,TRUE,,,TRUE,,,,CLR,,,,,,,,VFR,,,,,,,,,,,,METAR,60.0
YWGT 180755Z AUTO 27015G27KT //// // ////// 23/04 Q1007,YWGT,2014-12-18T07:55:00Z,-36.42,146.3,23.0,4.0,270,15,27,,29.734253,,,TRUE,,,,,,,,,,,,,,,,,,,,,,,,,,,,SPECI,153.0
YBBN 180755Z 23021KT 9000 TSRA FEW008 BKN045CB BKN100 28/19 Q1008 FM0900 35010KT 9999 -SHRA SCT050 TEMPO 0755/0930 VRB20G50KT 1000 +TSRAGR BKN015 SCT050CB,YBBN,2014-12-18T07:55:00Z,-27.38,153.13,28.0,19.0,230,21,,5.59,29.763779,,,,,,,,,,TSRA,FEW,800,BKN,4500,BKN,10000,,,VFR,,,,,,,,,,,,SPECI,5.0
CYVL 180755Z AUTO 15003KT 9SM -SN OVC020 M16/M17 A2964 RMK SLP071,CYVL,2014-12-18T07:55:00Z,67.02,-126.13,-16.0,-17.0,150,3,,9.0,29.639763,1007.1,,TRUE,,,,,,,-SN,OVC,2000,,,,,,,MVFR,,,,,,,,,,,,SPECI,259.0
KMVN 180755Z AUTO 05004KT 10SM OVC110 M02/M06 A3030 RMK AO1,KMVN,2014-12-18T07:55:00Z,38.32,-88.87,-2.0,-6.0,50,4,,10.0,30.301182,,,TRUE,TRUE,,,,,,,OVC,11000,,,,,,,VFR,,,,,,,,,,,,METAR,146.0
KMYR 180755Z AUTO 00000KT 10SM CLR 04/02 A3009 RMK AO1,KMYR,2014-12-18T07:55:00Z,33.67,-78.92,4.0,2.0,0,0,,10.0,30.088583,,,TRUE,TRUE,,,,,,,CLR,,,,,,,,VFR,,,,,,,,,,,,METAR,8.0
KOAJ 180755Z AUTO 00000KT 10SM CLR 02/00 A3010 RMK AO1,KOAJ,2014-12-18T07:55:00Z,34.82,-77.62,2.0,0.0,0,0,,10.0,30.100393,,,TRUE,TRUE,,,,,,,CLR,,,,,,,,VFR,,,,,,,,,,,,METAR,29.0
KOCF 180755Z AUTO 00000KT 10SM CLR 04/02 A3016 RMK AO1,KOCF,2014-12-18T07:55:00Z,29.17,-82.22,4.0,2.0,0,0,,10.0,30.159449,,,TRUE,TRUE,,,,,,,CLR,,,,,,,,VFR,,,,,,,,,,,,METAR,27.0
KOCH 180755Z AUTO 00000KT 10SM OVC020 09/07 A3013 RMK AO1,KOCH,2014-12-18T07:55:00Z,31.57,-94.72,9.0,7.0,0,0,,10.0,30.129921,,,TRUE,TRUE,,,,,,,OVC,2000,,,,,,,MVFR,,,,,,,,,,,,METAR,108.0
KOKK 180755Z AUTO 25005KT 10SM OVC026 M03/M08 A3028 RMK AO1,KOKK,2014-12-18T07:55:00Z,40.53,-86.07,-3.0,-8.0,250,5,,10.0,30.280512,,,TRUE,TRUE,,,,,,,OVC,2600,,,,,,,MVFR,,,,,,,,,,,,METAR,253.0
KOLU 180755Z AUTO 10005KT 10SM SCT050 BKN055 M04/M09 A3022 RMK AO1,KOLU,2014-12-18T07:55:00Z,41.45,-97.32,-4.0,-9.0,100,5,,10.0,30.221457,,,TRUE,TRUE,,,,,,,SCT,5000,BKN,5500,,,,,VFR,,,,,,,,,,,,METAR,440.0
KVBT 180755Z AUTO 13005KT 10SM OVC026 03/01 A3015 RMK AO1,KVBT,2014-12-18T07:55:00Z,36.35,-94.22,3.0,1.0,130,5,,10.0,30.15059,,,TRUE,TRUE,,,,,,,OVC,2600,,,,,,,MVFR,,,,,,,,,,,,METAR,395.0
KVIS 180755Z AUTO 00000KT 5SM OVC100 08/05 A3015 RMK AO1,KVIS,2014-12-18T07:55:00Z,36.32,-119.4,8.0,5.0,0,0,,5.0,30.15059,,,TRUE,TRUE,,,,,,,OVC,10000,,,,,,,MVFR,,,,,,,,,,,,METAR,89.0
KVSH 180755Z AUTO 15003KT 10SM CLR 13/06 A3017 RMK AO1,KVSH,2014-12-18T07:55:00Z,29.95,-90.07,13.0,6.0,150,3,,10.0,30.171259,,,TRUE,TRUE,,,,,,,CLR,,,,,,,,VFR,,,,,,,,,,,,METAR,0.0
KWVL 180755Z 34007KT 9SM BKN006 OVC018 01/M01 A2958 RMK AO1 P0001,KWVL,2014-12-18T07:55:00Z,44.52,-69.67,1.0,-1.0,340,7,,9.0,29.58071,,,,TRUE,,,,,,,BKN,600,OVC,1800,,,,,IFR,,,,,,0.01,,,,,,METAR,101.0
KORS 180755Z AUTO 00000KT 9SM OVC042 06/06 A2989 RMK AO2,KORS,2014-12-18T07:55:00Z,48.7,-122.92,6.0,6.0,0,0,,9.0,29.890747,,,TRUE,TRUE,,,,,,,OVC,4200,,,,,,,VFR,,,,,,,,,,,,METAR,9.0
KPVF 180755Z AUTO 15006KT 10SM BKN034 BKN045 OVC065 05/03 A3011 RMK AO1,KPVF,2014-12-18T07:55:00Z,38.72,-120.75,5.0,3.0,150,6,,10.0,30.109253,,,TRUE,TRUE,,,,,,,BKN,3400,BKN,4500,OVC,6500,,,VFR,,,,,,,,,,,,METAR,789.0
KLPC 180755Z AUTO 09005KT 10SM BKN070 OVC080 09/06 A3014 RMK AO1,KLPC,2014-12-18T07:55:00Z,34.67,-120.47,9.0,6.0,90,5,,10.0,30.138779,,,TRUE,TRUE,,,,,,,BKN,7000,OVC,8000,,,,,VFR,,,,,,,,,,,,METAR,27.0
KLMO 180755Z AUTO 00000KT 10SM CLR M04/M06 A3000 RMK AO2 T10441056,KLMO,2014-12-18T07:55:00Z,40.17,-105.17,-4.4,-5.6,0,0,,10.0,30.0,,,TRUE,TRUE,,,,,,,CLR,,,,,,,,VFR,,,,,,,,,,,,METAR,1541.0
KLKV 180755Z 17007KT 10SM FEW020 SCT028 OVC038 01/M01 A3002 RMK AO1,KLKV,2014-12-18T07:55:00Z,42.17,-120.4,1.0,-1.0,170,7,,10.0,30.02067,,,,TRUE,,,,,,,FEW,2000,SCT,2800,OVC,3800,,,VFR,,,,,,,,,,,,METAR,1441.0
KLGD 180755Z AUTO 20014G18KT 10SM BKN031 OVC042 05/M02 A2997 RMK AO1,KLGD,2014-12-18T07:55:00Z,45.27,-118.0,5.0,-2.0,200,14,18,10.0,29.970472,,,TRUE,TRUE,,,,,,,BKN,3100,OVC,4200,,,,,VFR,,,,,,,,,,,,METAR,827.0
KLEW 180755Z AUTO 00000KT 6SM SCT017 BKN031 OVC042 02/00 A2962 RMK AO1 P0002,KLEW,2014-12-18T07:55:00Z,44.03,-70.27,2.0,0.0,0,0,,6.0,29.619095,,,TRUE,TRUE,,,,,,,SCT,1700,BKN,3100,OVC,4200,,,VFR,,,,,,0.02,,,,,,METAR,88.0
KLCI 180755Z AUTO 23007KT 10SM SCT018 BKN036 OVC050 03/00 A2965 RMK AO1,KLCI,2014-12-18T07:55:00Z,43.57,-71.42,3.0,0.0,230,7,,10.0,29.648623,,,TRUE,TRUE,,,,,,,SCT,1800,BKN,3600,OVC,5000,,,VFR,,,,,,,,,,,,METAR,166.0
KLBL 180755Z AUTO 13004KT 3SM OVC003 02/00 A3004 RMK AO1 P0001,KLBL,2014-12-18T07:55:00Z,37.03,-100.97,2.0,0.0,130,4,,3.0,30.041338,,,TRUE,TRUE,,,,,,,OVC,300,,,,,,,LIFR,,,,,,0.01,,,,,,METAR,879.0
KKLS 180755Z 15007KT 10SM SCT033 OVC040 07/06 A3000 RMK AO1,KKLS,2014-12-18T07:55:00Z,46.12,-122.9,7.0,6.0,150,7,,10.0,30.0,,,,TRUE,,,,,,,SCT,3300,OVC,4000,,,,,VFR,,,,,,,,,,,,METAR,5.0
KJHW 180755Z 27011G14KT 10SM BKN016 OVC023 M03/M07 A3004 RMK AO1,KJHW,2014-12-18T07:55:00Z,42.13,-79.27,-3.0,-7.0,270,11,14,10.0,30.041338,,,,TRUE,,,,,,,BKN,1600,OVC,2300,,,,,MVFR,,,,,,,,,,,,METAR,525.0
KJAC 180755Z AUTO 36008KT 10SM BKN044 M10/M11 A3002 RMK AO1,KJAC,2014-12-18T07:55:00Z,43.62,-110.73,-10.0,-11.0,360,8,,10.0,30.02067,,,TRUE,TRUE,,,,,,,BKN,4400,,,,,,,VFR,,,,,,,,,,,,METAR,1961.0
KIWD 180755Z AUTO 00000KT 10SM OVC014 M05/M06 A3025 RMK AO1,KIWD,2014-12-18T07:55:00Z,46.52,-90.12,-5.0,-6.0,0,0,,10.0,30.250984,,,TRUE,TRUE,,,,,,,OVC,1400,,,,,,,MVFR,,,,,,,,,,,,METAR,375.0
KILE 180755Z AUTO 06005KT 1 3/4SM OVC002 08/05 A3008 RMK AO1,KILE,2014-12-18T07:55:00Z,31.07,-97.67,8.0,5.0,60,5,,1.75,30.079725,,,TRUE,TRUE,,,,,,,OVC,200,,,,,,,LIFR,,,,,,,,,,,,METAR,258.0
KIDI 180755Z AUTO 29009G15KT 10SM BKN030 BKN035 OVC042 M02/M06 A3015 RMK A01,KIDI,2014-12-18T07:55:00Z,40.62,-79.08,-2.0,-6.0,290,9,15,10.0,30.15059,,,TRUE,TRUE,,,,,,,BKN,3000,BKN,3500,OVC,4200,,,MVFR,,,,,,,,,,,,METAR,429.0
KI67 180755Z AUTO 02006KT 10SM OVC016 M02/M06 A3030 RMK AO1,KI67,2014-12-18T07:55:00Z,39.25,-84.78,-2.0,-6.0,20,6,,10.0,30.301182,,,TRUE,TRUE,,,,,,,OVC,1600,,,,,,,MVFR,,,,,,,,,,,,METAR,178.0
KHYW 180755Z AUTO 00000KT 7SM CLR 01/01 A3009 RMK AO2,KHYW,2014-12-18T07:55:00Z,33.83,-79.12,1.0,1.0,0,0,,7.0,30.088583,,,TRUE,TRUE,,,,,,,CLR,,,,,,,,VFR,,,,,,,,,,,,METAR,11.0
KHYS 180755Z AUTO 06006KT 4SM SCT029 OVC070 M03/M08 A3011 RMK AO1,KHYS,2014-12-18T07:55:00Z,38.85,-99.27,-3.0,-8.0,60,6,,4.0,30.109253,,,TRUE,TRUE,,,,,,,SCT,2900,OVC,7000,,,,,MVFR,,,,,,,,,,,,METAR,609.0
KHYI 180755Z 03011KT 3SM FEW002 OVC110 11/09 A3008 RMK AO1,KHYI,2014-12-18T07:55:00Z,29.88,-97.87,11.0,9.0,30,11,,3.0,30.079725,,,,TRUE,,,,,,,FEW,200,OVC,11000,,,,,MVFR,,,,,,,,,,,,METAR,182.0
KHXD 180755Z AUTO 24003KT 10SM CLR 06/06 A3013 RMK AO2 P0000,KHXD,2014-12-18T07:55:00Z,32.22,-80.7,6.0,6.0,240,3,,10.0,30.129921,,,TRUE,TRUE,,,,,,,CLR,,,,,,,,VFR,,,,,,0.0050,,,,,,METAR,6.0
KHNB 180755Z AUTO 35003KT 10SM SCT016 M02/M06 A3031 RMK AO1,KHNB,2014-12-18T07:55:00Z,38.25,-86.95,-2.0,-6.0,350,3,,10.0,30.31004,,,TRUE,TRUE,,,,,,,SCT,1600,,,,,,,VFR,,,,,,,,,,,,METAR,161.0
KHEZ 180755Z AUTO 00000KT 10SM OVC095 08/05 A3020 RMK AO1,KHEZ,2014-12-18T07:55:00Z,31.62,-91.3,8.0,5.0,0,0,,10.0,30.200787,,,TRUE,TRUE,,,,,,,OVC,9500,,,,,,,VFR,,,,,,,,,,,,METAR,83.0
KHEF 180755Z 32011G16KT 10SM CLR 02/M06 A3011 RMK AO1,KHEF,2014-12-18T07:55:00Z,38.72,-77.52,2.0,-6.0,320,11,16,10.0,30.109253,,,,TRUE,,,,,,,CLR,,,,,,,,VFR,,,,,,,,,,,,METAR,59.0
KHDN 180755Z AUTO 00000KT 3SM OVC006 M03/M05 A3004 RMK AO1,KHDN,2014-12-18T07:55:00Z,40.47,-107.22,-3.0,-5.0,0,0,,3.0,30.041338,,,TRUE,TRUE,,,,,,,OVC,600,,,,,,,IFR,,,,,,,,,,,,METAR,2012.0
KGXY 180755Z AUTO 25003KT 10SM CLR M08/M12 A2998 RMK AO1,KGXY,2014-12-18T07:55:00Z,40.42,-104.62,-8.0,-12.0,250,3,,10.0,29.97933,,,TRUE,TRUE,,,,,,,CLR,,,,,,,,VFR,,,,,,,,,,,,METAR,1420.0
KGWR 180755Z AUTO 10SM FEW095 M12/M12 A3026 RMK A01 P000,KGWR,2014-12-18T07:55:00Z,46.22,-97.65,-12.0,-12.0,,,,10.0,30.259842,,,TRUE,TRUE,,,,,,,FEW,9500,,,,,,,VFR,,,,,,,,,,,,METAR,386.0
KYKN 180755Z AUTO 00000KT 10SM OVC070 M07/M09 A3024 RMK AO1,KYKN,2014-12-18T07:55:00Z,42.92,-97.37,-7.0,-9.0,0,0,,10.0,30.239174,,,TRUE,TRUE,,,,,,,OVC,7000,,,,,,,VFR,,,,,,,,,,,,METAR,398.0
KWWD 180755Z AUTO 30006G15KT 10SM BKN042 03/M04 A3001 RMK AO1,KWWD,2014-12-18T07:55:00Z,39.02,-74.92,3.0,-4.0,300,6,15,10.0,30.008858,,,TRUE,TRUE,,,,,,,BKN,4200,,,,,,,VFR,,,,,,,,,,,,METAR,7.0
KNBG 180755Z AUTO 09004KT 10SM CLR 09/07 A3016 RMK AO2 SLP211 T00890067 $ ,KNBG,2014-12-18T07:55:00Z,29.82,-90.02,8.9,6.7,90,4,,10.0,30.159449,1021.1,,TRUE,TRUE,TRUE,,,,,,CLR,,,,,,,,VFR,,,,,,,,,,,,METAR,1.0
KNKX 180755Z 09004KT 10SM SCT042 11/07 A3012 RMK AO2 SLP197 T01110072 401780111 $ ,KNKX,2014-12-18T07:55:00Z,32.87,-117.13,11.1,7.2,90,4,,10.0,30.121063,1019.7,,,TRUE,TRUE,,,,,,SCT,4200,,,,,,,VFR,,,,17.8,11.1,,,,,,,METAR,146.0
TXKF 180755Z 30013KT 9999 FEW023 SCT050 BKN300 20/17 Q1016 ,TXKF,2014-12-18T07:55:00Z,32.37,-64.68,20.0,17.0,300,13,,6.21,30.0,,,,,,,,,,,FEW,2300,SCT,5000,BKN,30000,,,VFR,,,,,,,,,,,,METAR,6.0
KLXY 180755Z AUTO 02004KT 4SM BR OVC004 08/07 A3013 RMK AO2 P0001 T00750071,KLXY,2014-12-18T07:55:00Z,31.63,-96.52,7.5,7.1,20,4,,4.0,30.129921,,,TRUE,TRUE,,,,,,BR,OVC,400,,,,,,,LIFR,,,,,,0.01,,,,,,METAR,166.0
KLLJ 180755Z AUTO 00000KT 10SM FEW014 SCT100 M11/M12 A3005 RMK AO2 SLP222 I1000 T11061117,KLLJ,2014-12-18T07:55:00Z,44.52,-114.22,-10.6,-11.7,0,0,,10.0,30.050198,1022.2,,TRUE,TRUE,,,,,,,FEW,1400,SCT,10000,,,,,VFR,,,,,,,,,,,,METAR,1536.0
KLIC 180755Z AUTO 36004KT 10SM BKN080 OVC095 M07/M08 A2998 RMK AO2 SLP180 T10721083,KLIC,2014-12-18T07:55:00Z,39.27,-103.67,-7.2,-8.3,360,4,,10.0,29.97933,1018.0,,TRUE,TRUE,,,,,,,BKN,8000,OVC,9500,,,,,VFR,,,,,,,,,,,,METAR,1630.0
KJVL 180755Z AUTO 00000KT 10SM CLR M07/M09 A3028 RMK AO2,KJVL,2014-12-18T07:55:00Z,42.62,-89.05,-7.0,-9.0,0,0,,10.0,30.280512,,,TRUE,TRUE,,,,,,,CLR,,,,,,,,VFR,,,,,,,,,,,,METAR,246.0
KJSO 180755Z AUTO 06004KT 1 3/4SM BR OVC001 07/07 A3014 RMK AO2 T00770075,KJSO,2014-12-18T07:55:00Z,31.87,-95.22,7.7,7.5,60,4,,1.75,30.138779,,,TRUE,TRUE,,,,,,BR,OVC,100,,,,,,,LIFR,,,,,,,,,,,,METAR,206.0
KJKA 180755Z AUTO 00000KT 10SM CLR 05/04 A3018 RMK AO2 T00480040,KJKA,2014-12-18T07:55:00Z,30.28,-87.67,4.8,4.0,0,0,,10.0,30.180119,,,TRUE,TRUE,,,,,,,CLR,,,,,,,,VFR,,,,,,,,,,,,METAR,5.0
KIRK 180755Z AUTO 08005KT 10SM OVC085 M03/M06 A3027 RMK AO2 SLP265 T10331061,KIRK,2014-12-18T07:55:00Z,40.1,-92.55,-3.3,-6.1,80,5,,10.0,30.268702,1026.5,,TRUE,TRUE,,,,,,,OVC,8500,,,,,,,VFR,,,,,,,,,,,,METAR,293.0
KINL 180755Z AUTO 00000KT 10SM CLR M18/M21 A3032 RMK AO2 SLP297 T11781206,KINL,2014-12-18T07:55:00Z,48.57,-93.4,-17.8,-20.6,0,0,,10.0,30.318897,1029.7,,TRUE,TRUE,,,,,,,CLR,,,,,,,,VFR,,,,,,,,,,,,METAR,360.0
KINF 180755Z AUTO 00000KT 10SM CLR 04/04 A3017 RMK AO2,KINF,2014-12-18T07:55:00Z,28.8,-82.32,4.0,4.0,0,0,,10.0,30.171259,,,TRUE,TRUE,,,,,,,CLR,,,,,,,,VFR,,,,,,,,,,,,METAR,15.0
KI39 180755Z AUTO 00000KT 10SM OVC014 M03/M04 A3026 RMK AO2,KI39,2014-12-18T07:55:00Z,37.63,-84.33,-3.0,-4.0,0,0,,10.0,30.259842,,,TRUE,TRUE,,,,,,,OVC,1400,,,,,,,MVFR,,,,,,,,,,,,METAR,306.0
KHZE 180755Z AUTO 17011KT 10SM FEW031 BKN044 OVC075 M08/M11 A3011 RMK AO2,KHZE,2014-12-18T07:55:00Z,47.28,-101.58,-8.0,-11.0,170,11,,10.0,30.109253,,,TRUE,TRUE,,,,,,,FEW,3100,BKN,4400,OVC,7500,,,VFR,,,,,,,,,,,,METAR,553.0
KHON 180755Z AUTO 13006KT 10SM OVC015 M09/M12 A3022 RMK AO2 SLP261 T10941117,KHON,2014-12-18T07:55:00Z,44.38,-98.23,-9.4,-11.7,130,6,,10.0,30.221457,1026.1,,TRUE,TRUE,,,,,,,OVC,1500,,,,,,,MVFR,,,,,,,,,,,,METAR,390.0
KHAE 180755Z AUTO 00000KT 10SM OVC090 M02/M06 A3028 RMK AO2,KHAE,2014-12-18T07:55:00Z,39.73,-91.45,-2.0,-6.0,0,0,,10.0,30.280512,,,TRUE,TRUE,,,,,,,OVC,9000,,,,,,,VFR,,,,,,,,,,,,METAR,234.0
KGPM 180755Z AUTO 08004KT 7SM OVC006 06/06 A3014 RMK AO2 T00600060,KGPM,2014-12-18T07:55:00Z,32.7,-97.05,6.0,6.0,80,4,,7.0,30.138779,,,TRUE,TRUE,,,,,,,OVC,600,,,,,,,IFR,,,,,,,,,,,,METAR,180.0
KGNF 180755Z AUTO 00000KT 10SM OVC085 05/02 A3026 RMK AO2,KGNF,2014-12-18T07:55:00Z,33.83,-89.8,5.0,2.0,0,0,,10.0,30.259842,,,TRUE,TRUE,,,,,,,OVC,8500,,,,,,,VFR,,,,,,,,,,,,METAR,63.0
KFYM 180755Z AUTO 10SM OVC090 01/M02 A3020 RMK,KFYM,2014-12-18T07:55:00Z,35.07,-86.57,1.0,-2.0,,,,10.0,30.200787,,,TRUE,,,,,,,,OVC,9000,,,,,,,VFR,,,,,,,,,,,,METAR,300.0
KFKR 180755Z AUTO 25004KT 10SM OVC021 M04/M07 A3029 RMK AO2 T10371069,KFKR,2014-12-18T07:55:00Z,40.27,-86.57,-3.7,-6.9,250,4,,10.0,30.28937,,,TRUE,TRUE,,,,,,,OVC,2100,,,,,,,MVFR,,,,,,,,,,,,METAR,262.0
KEQA 180755Z AUTO 09007KT 3SM -SN SCT024 OVC032 00/M01 A3014 RMK AO2,KEQA,2014-12-18T07:55:00Z,37.78,-96.82,0.0,-1.0,90,7,,3.0,30.138779,,,TRUE,TRUE,,,,,,-SN,SCT,2400,OVC,3200,,,,,MVFR,,,,,,,,,,,,METAR,420.0
KEBG 180755Z AUTO 00000KT 10SM SCT015 SCT022 OVC041 22/20 A3002 RMK AO2 T02200195,KEBG,2014-12-18T07:55:00Z,26.45,-98.13,22.0,19.5,0,0,,10.0,30.02067,,,TRUE,TRUE,,,,,,,SCT,1500,SCT,2200,OVC,4100,,,VFR,,,,,,,,,,,,METAR,24.0
KDNS 180755Z AUTO 09005KT 10SM SCT060 BKN070 OVC080 M04/M07 A3023 RMK AO2,KDNS,2014-12-18T07:55:00Z,41.97,-95.37,-4.0,-7.0,90,5,,10.0,30.230314,,,TRUE,TRUE,,,,,,,SCT,6000,BKN,7000,OVC,8000,,,VFR,,,,,,,,,,,,METAR,388.0
KDLH 180755Z 34004KT 8SM -SN OVC010 M08/M11 A3028 RMK AO2 SLP284 P0000 T10781106,KDLH,2014-12-18T07:55:00Z,46.85,-92.2,-7.8,-10.6,340,4,,8.0,30.280512,1028.4,,,TRUE,,,,,,-SN,OVC,1000,,,,,,,MVFR,,,,,,0.0050,,,,,,METAR,435.0
KCXP 180755Z AUTO 00000KT 10SM BKN060 OVC080 01/M05 A3005 RMK AO2,KCXP,2014-12-18T07:55:00Z,39.18,-119.73,1.0,-5.0,0,0,,10.0,30.050198,,,TRUE,TRUE,,,,,,,BKN,6000,OVC,8000,,,,,VFR,,,,,,,,,,,,METAR,1435.0
KCWA 180755Z AUTO 34004KT 10SM OVC013 M04/M05 A3026 RMK AO2,KCWA,2014-12-18T07:55:00Z,44.78,-89.67,-4.0,-5.0,340,4,,10.0,30.259842,,,TRUE,TRUE,,,,,,,OVC,1300,,,,,,,MVFR,,,,,,,,,,,,METAR,389.0
KCNK 180755Z AUTO 10004KT 1/4SM +SN FZFG VV006 M04/M04 A3018 RMK AO2 SLP236 P0012 T10391044,KCNK,2014-12-18T07:55:00Z,39.55,-97.65,-3.9,-4.4,100,4,,0.25,30.180119,1023.6,,TRUE,TRUE,,,,,,+SN FZFG,OVX,0,,,,,,,LIFR,,,,,,0.12,,,,,600,METAR,447.0
KCLK 180755Z AUTO 15005KT 3/4SM BR OVC002 03/02 A3008 RMK AO2,KCLK,2014-12-18T07:55:00Z,35.53,-98.93,3.0,2.0,150,5,,0.75,30.079725,,,TRUE,TRUE,,,,,,BR,OVC,200,,,,,,,LIFR,,,,,,,,,,,,METAR,492.0
KCLI 180755Z AUTO 30005KT 10SM OVC018 M03/M06 A3028 RMK AO2,KCLI,2014-12-18T07:55:00Z,44.62,-88.73,-3.0,-6.0,300,5,,10.0,30.280512,,,TRUE,TRUE,,,,,,,OVC,1800,,,,,,,MVFR,,,,,,,,,,,,METAR,250.0
KCDH 180755Z AUTO 3SM -RA FEW001 BKN006 OVC042 04/02 A3024 RMK AO2 P0003,KCDH,2014-12-18T07:55:00Z,33.62,-92.77,4.0,2.0,,,,3.0,30.239174,,,TRUE,TRUE,,,,,,-RA,FEW,100,BKN,600,OVC,4200,,,IFR,,,,,,0.03,,,,,,METAR,35.0
KCAO 180755Z AUTO 17004KT 10SM CLR M05/M06 A2997 RMK AO2 SLP165 T10501061,KCAO,2014-12-18T07:55:00Z,36.45,-103.15,-5.0,-6.1,170,4,,10.0,29.970472,1016.5,,TRUE,TRUE,,,,,,,CLR,,,,,,,,VFR,,,,,,,,,,,,METAR,1514.0
KBKS 180755Z AUTO 11003KT 7SM SCT025 OVC050 21/19 A3002 RMK AO1 T02080187,KBKS,2014-12-18T07:55:00Z,27.2,-98.12,20.8,18.7,110,3,,7.0,30.02067,,,TRUE,TRUE,,,,,,,SCT,2500,OVC,5000,,,,,VFR,,,,,,,,,,,,METAR,34.0
KBKN 180755Z AUTO 10005KT 5SM BR OVC004 01/01 A3013 RMK AO2,KBKN,2014-12-18T07:55:00Z,36.75,-97.35,1.0,1.0,100,5,,5.0,30.129921,,,TRUE,TRUE,,,,,,BR,OVC,400,,,,,,,LIFR,,,,,,,,,,,,METAR,314.0
KBCK 180755Z AUTO 00000KT 10SM OVC016 M06/M10 A3029 RMK AO2 T10611100,KBCK,2014-12-18T07:55:00Z,44.25,-90.85,-6.1,-10.0,0,0,,10.0,30.28937,,,TRUE,TRUE,,,,,,,OVC,1600,,,,,,,MVFR,,,,,,,,,,,,METAR,255.0
KANJ 180755Z AUTO 32004KT 10SM CLR M09/M12 A3018 RMK AO2 PRESRR SLP230 T10891122,KANJ,2014-12-18T07:55:00Z,46.47,-84.37,-8.9,-12.2,320,4,,10.0,30.180119,1023.0,,TRUE,TRUE,,,,,,,CLR,,,,,,,,VFR,,,,,,,,,,,,METAR,218.0
KAAT 180755Z AUTO 00000KT 5SM BR FEW026 OVC047 02/01 A3002 RMK AO2 UPB0658E19 SLP168 P0000 T00220011 400780006,KAAT,2014-12-18T07:55:00Z,41.48,-120.57,2.2,1.1,0,0,,5.0,30.02067,1016.8,,TRUE,TRUE,,,,,,BR,FEW,2600,OVC,4700,,,,,MVFR,,,,7.8,0.6,0.0050,,,,,,METAR,1331.0
K2D5 180755Z AUTO 11004KT 10SM M14/M15 A3024 RMK AO2,K2D5,2014-12-18T07:55:00Z,46.17,-98.08,-14.0,-15.0,110,4,,10.0,30.239174,,,TRUE,TRUE,,,,,,,,,,,,,,,,,,,,,,,,,,,METAR,407.0
K06D 180755Z AUTO 19007KT 10SM CLR M14/M15 A3016 RMK AO2,K06D,2014-12-18T07:55:00Z,48.88,-99.62,-14.0,-15.0,190,7,,10.0,30.159449,,,TRUE,TRUE,,,,,,,CLR,,,,,,,,VFR,,,,,,,,,,,,METAR,556.0
KZPH 180755Z AUTO 00000KT 5SM BR CLR 05/05 A3017 RMK AO2,KZPH,2014-12-18T07:55:00Z,28.23,-82.15,5.0,5.0,0,0,,5.0,30.171259,,,TRUE,TRUE,,,,,,BR,CLR,,,,,,,,MVFR,,,,,,,,,,,,METAR,26.0
KSZT 180755Z AUTO 00000KT 4SM -SN SCT003 OVC009 00/00 A2998 RMK AO2,KSZT,2014-12-18T07:55:00Z,48.3,-116.57,0.0,0.0,0,0,,4.0,29.97933,,,TRUE,TRUE,,,,,,-SN,SCT,300,OVC,900,,,,,IFR,,,,,,,,,,,,METAR,648.0
KSUA 180755Z AUTO 28005KT 10SM CLR 13/12 A3014 RMK AO2,KSUA,2014-12-18T07:55:00Z,27.18,-80.22,13.0,12.0,280,5,,10.0,30.138779,,,TRUE,TRUE,,,,,,,CLR,,,,,,,,VFR,,,,,,,,,,,,METAR,6.0
KSRB 180755Z AUTO 00000KT 10SM FEW110 M01/M01 A3023 RMK,KSRB,2014-12-18T07:55:00Z,36.05,-85.53,-1.0,-1.0,0,0,,10.0,30.230314,,,TRUE,,,,,,,,FEW,11000,,,,,,,VFR,,,,,,,,,,,,METAR,313.0
KSOW 180755Z AUTO 22004KT 10SM CLR M02/M03 A3013 RMK AO2,KSOW,2014-12-18T07:55:00Z,34.27,-110.0,-2.0,-3.0,220,4,,10.0,30.129921,,,TRUE,TRUE,,,,,,,CLR,,,,,,,,VFR,,,,,,,,,,,,METAR,1954.0
KSNC 180755Z AUTO 27005KT 10SM BKN033 03/00 A2981 RMK AO2,KSNC,2014-12-18T07:55:00Z,41.38,-72.5,3.0,0.0,270,5,,10.0,29.811024,,,TRUE,TRUE,,,,,,,BKN,3300,,,,,,,VFR,,,,,,,,,,,,METAR,127.0
KSCK 180755Z AUTO 12008KT 10SM -RA OVC065 11/09 A3010 RMK AO2 RAB23 SLP190 P0001 T01060089 401560078,KSCK,2014-12-18T07:55:00Z,37.88,-121.22,10.6,8.9,120,8,,10.0,30.100393,1019.0,,TRUE,TRUE,,,,,,-RA,OVC,6500,,,,,,,VFR,,,,15.6,7.8,0.01,,,,,,METAR,10.0
KS25 180755Z AUTO 16007KT 10SM OVC009 M07/M08 A3002 RMK AO2,KS25,2014-12-18T07:55:00Z,47.8,-103.25,-7.0,-8.0,160,7,,10.0,30.02067,,,TRUE,TRUE,,,,,,,OVC,900,,,,,,,IFR,,,,,,,,,,,,METAR,644.0
KRQO 180755Z AUTO 17008KT OVC001 03/03 A3009 RMK AO2 PWINO,KRQO,2014-12-18T07:55:00Z,35.47,-98.0,3.0,3.0,170,8,,,30.088583,,,TRUE,TRUE,,,,,TRUE,,OVC,100,,,,,,,,,,,,,,,,,,,METAR,432.0
KRPD 180755Z AUTO 34003KT 10SM OVC014 M06/M08 A3031 RMK AO2 T10601085,KRPD,2014-12-18T07:55:00Z,45.42,-91.77,-6.0,-8.5,340,3,,10.0,30.31004,,,TRUE,TRUE,,,,,,,OVC,1400,,,,,,,MVFR,,,,,,,,,,,,METAR,338.0
KRNV 180755Z AUTO 02008KT 10SM OVC080 05/04 A3027 RMK AO2 T00520035,KRNV,2014-12-18T07:55:00Z,33.77,-90.75,5.2,3.5,20,8,,10.0,30.268702,,,TRUE,TRUE,,,,,,,OVC,8000,,,,,,,VFR,,,,,,,,,,,,METAR,41.0
KRNO 180755Z 00000KT 10SM SCT075 SCT200 02/M02 A3005 RMK AO2 SLP167 T00221022 400941006,KRNO,2014-12-18T07:55:00Z,39.5,-119.77,2.2,-2.2,0,0,,10.0,30.050198,1016.7,,,TRUE,,,,,,,SCT,7500,SCT,20000,,,,,VFR,,,,9.4,-0.6,,,,,,,METAR,1342.0
KRCM 180755Z AUTO 04003KT 5SM -SN BKN004 BKN018 OVC030 M01/M02 A3024 RMK AO2 P0001,KRCM,2014-12-18T07:55:00Z,38.78,-93.8,-1.0,-2.0,40,3,,5.0,30.239174,,,TRUE,TRUE,,,,,,-SN,BKN,400,BKN,1800,OVC,3000,,,LIFR,,,,,,0.01,,,,,,METAR,244.0
KPVJ 180755Z AUTO 17006KT 5SM BR OVC003 03/03 A3013 RMK AO2 T00290025,KPVJ,2014-12-18T07:55:00Z,34.72,-97.22,2.9,2.5,170,6,,5.0,30.129921,,,TRUE,TRUE,,,,,,BR,OVC,300,,,,,,,LIFR,,,,,,,,,,,,METAR,295.0
KPHP 180755Z AUTO 05005KT 10SM OVC016 M05/M07 A3006 RMK AO2 SLP205 T10501067,KPHP,2014-12-18T07:55:00Z,44.05,-101.6,-5.0,-6.7,50,5,,10.0,30.059055,1020.5,,TRUE,TRUE,,,,,,,OVC,1600,,,,,,,MVFR,,,,,,,,,,,,METAR,672.0
KPCM 180755Z AUTO 33003KT 10SM CLR 08/ A3017 RMK AO2,KPCM,2014-12-18T07:55:00Z,28.0,-82.17,8.0,,330,3,,10.0,30.171259,,,TRUE,TRUE,,,,,,,CLR,,,,,,,,VFR,,,,,,,,,,,,METAR,47.0
KPBH 180755Z AUTO 03003KT 10SM OVC010 M06/M08 A3026 RMK AO2 T10651080,KPBH,2014-12-18T07:55:00Z,45.7,-90.4,-6.5,-8.0,30,3,,10.0,30.259842,,,TRUE,TRUE,,,,,,,OVC,1000,,,,,,,MVFR,,,,,,,,,,,,METAR,449.0
KMQB 180755Z AUTO 00000KT 10SM CLR M06/M07 A3032 RMK AO2 T10621070,KMQB,2014-12-18T07:55:00Z,40.52,-90.65,-6.2,-7.0,0,0,,10.0,30.318897,,,TRUE,TRUE,,,,,,,CLR,,,,,,,,VFR,,,,,,,,,,,,METAR,215.0
KMKN 180755Z AUTO 15004KT 1SM BR OVC002 07/07 A3009 RMK AO2 T00700070,KMKN,2014-12-18T07:55:00Z,31.92,-98.6,7.0,7.0,150,4,,1.0,30.088583,,,TRUE,TRUE,,,,,,BR,OVC,200,,,,,,,LIFR,,,,,,,,,,,,METAR,423.0
KMFV 180755Z AUTO 34007G14KT 310V010 10SM CLR 03/M02 A3007 RMK AO2,KMFV,2014-12-18T07:55:00Z,37.63,-75.77,3.0,-2.0,340,7,14,10.0,30.070866,,,TRUE,TRUE,,,,,,,CLR,,,,,,,,VFR,,,,,,,,,,,,METAR,15.0
KMER 180755Z AUTO 16005KT 8SM FEW030 FEW037 SCT048 10/10 A3012 RMK AO1,KMER,2014-12-18T07:55:00Z,37.38,-120.57,10.0,10.0,160,5,,8.0,30.121063,,,TRUE,TRUE,,,,,,,FEW,3000,FEW,3700,SCT,4800,,,VFR,,,,,,,,,,,,METAR,57.0
KMCX 180755Z AUTO 00000KT 10SM OVC021 M04/M07 A3029 RMK AO2 T10401073,KMCX,2014-12-18T07:55:00Z,40.72,-86.77,-4.0,-7.3,0,0,,10.0,30.28937,,,TRUE,TRUE,,,,,,,OVC,2100,,,,,,,MVFR,,,,,,,,,,,,METAR,206.0
KLZZ 180755Z AUTO 00000KT 1/4SM FG OVC001 08/08 A3009 RMK AO2 T00840080,KLZZ,2014-12-18T07:55:00Z,31.1,-98.2,8.4,8.0,0,0,,0.25,30.088583,,,TRUE,TRUE,,,,,,FG,OVC,100,,,,,,,LIFR,,,,,,,,,,,,METAR,371.0
KVPS 180755Z 01004KT 10SM SCT220 06/04 A3018 RMK AO2A SLP227 T00620041 $,KVPS,2014-12-18T07:55:00Z,30.47,-86.52,6.2,4.1,10,4,,10.0,30.180119,1022.7,,,TRUE,TRUE,,,,,,SCT,22000,,,,,,,VFR,,,,,,,,,,,,METAR,26.0
KVLL 180755Z AUTO 28009G15KT 10SM OVC018 00/M05 A3018 RMK AO2 T10051046,KVLL,2014-12-18T07:55:00Z,42.55,-83.18,-0.5,-4.6,280,9,15,10.0,30.180119,,,TRUE,TRUE,,,,,,,OVC,1800,,,,,,,MVFR,,,,,,,,,,,,METAR,222.0
KUKT 180755Z AUTO 30006KT 10SM SCT038 SCT070 01/M05 A2997 RMK AO1,KUKT,2014-12-18T07:55:00Z,40.43,-75.38,1.0,-5.0,300,6,,10.0,29.970472,,,TRUE,TRUE,,,,,,,SCT,3800,SCT,7000,,,,,VFR,,,,,,,,,,,,METAR,160.0
KUGN 180755Z AUTO 29005KT 10SM CLR M07/M11 A3027 RMK AO2 SLP270 T10721106,KUGN,2014-12-18T07:55:00Z,42.42,-87.87,-7.2,-10.6,290,5,,10.0,30.268702,1027.0,,TRUE,TRUE,,,,,,,CLR,,,,,,,,VFR,,,,,,,,,,,,METAR,222.0
KSJX 180755Z AUTO 34006KT 10SM OVC011 M04/M05 A3021 RMK AO2 T10411055,KSJX,2014-12-18T07:55:00Z,45.7,-85.57,-4.1,-5.5,340,6,,10.0,30.209646,,,TRUE,TRUE,,,,,,,OVC,1100,,,,,,,MVFR,,,,,,,,,,,,METAR,204.0
KSEM 180755Z AUTO 00000KT 10SM CLR 02/01 A3019 RMK AO2,KSEM,2014-12-18T07:55:00Z,32.35,-86.98,2.0,1.0,0,0,,10.0,30.188976,,,TRUE,TRUE,,,,,,,CLR,,,,,,,,VFR,,,,,,,,,,,,METAR,51.0
KOZW 180755Z AUTO 28008KT 10SM SCT015 OVC021 M02/M04 A3017 RMK AO2 T10241044,KOZW,2014-12-18T07:55:00Z,42.62,-83.97,-2.4,-4.4,280,8,,10.0,30.171259,,,TRUE,TRUE,,,,,,,SCT,1500,OVC,2100,,,,,MVFR,,,,,,,,,,,,METAR,293.0
KOEB 180755Z AUTO 28008KT 10SM OVC020 M02/M06 A3021 RMK AO2 T10221057,KOEB,2014-12-18T07:55:00Z,41.92,-85.03,-2.2,-5.7,280,8,,10.0,30.209646,,,TRUE,TRUE,,,,,,,OVC,2000,,,,,,,MVFR,,,,,,,,,,,,METAR,292.0
KMOP 180755Z AUTO 26004KT 10SM OVC015 M01/M02 A3017 RMK AO2 T10111025,KMOP,2014-12-18T07:55:00Z,43.62,-84.73,-1.1,-2.5,260,4,,10.0,30.171259,,,TRUE,TRUE,,,,,,,OVC,1500,,,,,,,MVFR,,,,,,,,,,,,METAR,230.0
KMKG 180755Z AUTO 30006KT 10SM OVC020 00/M04 A3023 RMK AO2 SLP244 T00001039,KMKG,2014-12-18T07:55:00Z,43.17,-86.23,0.0,-3.9,300,6,,10.0,30.230314,1024.4,,TRUE,TRUE,,,,,,,OVC,2000,,,,,,,MVFR,,,,,,,,,,,,METAR,191.0
KLWA 180755Z AUTO 29004KT 10SM OVC019 00/M05 A3024 RMK AO2 T10051047,KLWA,2014-12-18T07:55:00Z,42.35,-86.25,-0.5,-4.7,290,4,,10.0,30.239174,,,TRUE,TRUE,,,,,,,OVC,1900,,,,,,,MVFR,,,,,,,,,,,,METAR,203.0
KLDM 180755Z AUTO 32005KT 5SM -SN SCT008 SCT013 OVC023 00/M02 A3022 RMK AO2 T00001016,KLDM,2014-12-18T07:55:00Z,43.97,-86.4,0.0,-1.6,320,5,,5.0,30.221457,,,TRUE,TRUE,,,,,,-SN,SCT,800,SCT,1300,OVC,2300,,,MVFR,,,,,,,,,,,,METAR,197.0
KQWM 180755Z 30010KT 9999 CLR 16/08 A3031 RMK SLP263 QNH1026,KQWM,2014-12-18T07:55:00Z,100.65,-1000.65,16.0,8.0,300,10,,6.21,30.31004,1026.3,,,,,,,,,,CLR,,,,,,,,VFR,,,,,,,,,,,,METAR,999.0
KQVF 180755Z AUTO VRB02KT 9999 FEW028 32/22 A2996 RMK AO2 SLP145 T03160220,KQVF,2014-12-18T07:55:00Z,100.65,-1000.65,31.6,22.0,0,2,,6.21,29.958662,1014.5,,TRUE,TRUE,,,,,,,FEW,2800,,,,,,,VFR,,,,,,,,,,,,METAR,999.0
KQMR 180755Z AUTO 05003KT 6000 BR CLR 25/23 A2988 RMK AO2 SLP116 T02460229,KQMR,2014-12-18T07:55:00Z,100.65,-1000.65,24.6,22.9,50,3,,3.73,29.878937,1011.6,,TRUE,TRUE,,,,,,BR,CLR,,,,,,,,MVFR,,,,,,,,,,,,METAR,999.0
KQFG 180755Z AUTO 13001KT 9999 CLR 15/M09 A3021 RMK AO2 SLP241 T01481088,KQFG,2014-12-18T07:55:00Z,100.65,-1000.65,14.8,-8.8,130,1,,6.21,30.209646,1024.1,,TRUE,TRUE,,,,,,,CLR,,,,,,,,VFR,,,,,,,,,,,,METAR,999.0
KQCL 180755Z AUTO 9999 CLR 16/M12 A3021 RMK AO2 SLP247 T01581120 $,KQCL,2014-12-18T07:55:00Z,100.65,-1000.65,15.8,-12.0,,,,6.21,30.209646,1024.7,,TRUE,TRUE,TRUE,,,,,,CLR,,,,,,,,VFR,,,,,,,,,,,,METAR,999.0
EHRD 180755Z AUTO 24013KT 9999 OVC006 11/11 Q1008 TEMPO 3000 FEW006 BKN012,EHRD,2014-12-18T07:55:00Z,51.95,4.45,11.0,11.0,240,13,,6.21,29.763779,,,TRUE,,,,,,,,OVC,600,,,,,,,IFR,,,,,,,,,,,,METAR,-5.0
EHGG 180755Z AUTO 22010KT 1900 -RA BKN004 OVC005 10/10 Q1006 NOSIG,EHGG,2014-12-18T07:55:00Z,53.12,6.57,10.0,10.0,220,10,,1.18,29.704725,,,TRUE,,,TRUE,,,,-RA,BKN,400,OVC,500,,,,,LIFR,,,,,,,,,,,,METAR,4.0
EHBK 180755Z AUTO 23011KT 200V260 9999 FEW005 BKN006 OVC007 11/10 Q1011 REDZ TEMPO 6000 -DZ,EHBK,2014-12-18T07:55:00Z,50.92,5.77,11.0,10.0,230,11,,6.21,29.852362,,,TRUE,,,,,,,,FEW,500,BKN,600,OVC,700,,,IFR,,,,,,,,,,,,METAR,116.0
EHAM 180755Z 24015KT 9999 FEW005 BKN006 BKN012 11/10 Q1007 TEMPO 3000 -DZ,EHAM,2014-12-18T07:55:00Z,52.32,4.78,11.0,10.0,240,15,,6.21,29.734253,,,,,,,,,,,FEW,500,BKN,600,BKN,1200,,,IFR,,,,,,,,,,,,METAR,9.0
KISQ 180755Z AUTO 36009KT 10SM OVC012 M04/M06 A3021 RMK AO2 T10451059,KISQ,2014-12-18T07:55:00Z,45.97,-86.17,-4.5,-5.9,360,9,,10.0,30.209646,,,TRUE,TRUE,,,,,,,OVC,1200,,,,,,,MVFR,,,,,,,,,,,,METAR,209.0
KIRS 180755Z AUTO 27006KT 10SM OVC025 M03/M06 A3022 RMK AO2,KIRS,2014-12-18T07:55:00Z,41.8,-85.43,-3.0,-6.0,270,6,,10.0,30.221457,,,TRUE,TRUE,,,,,,,OVC,2500,,,,,,,MVFR,,,,,,,,,,,,METAR,282.0
KHYX 180755Z AUTO 26007KT 10SM OVC015 00/M01 A3016 RMK AO2,KHYX,2014-12-18T07:55:00Z,43.43,-83.87,0.0,-1.0,260,7,,10.0,30.159449,,,TRUE,TRUE,,,,,,,OVC,1500,,,,,,,MVFR,,,,,,,,,,,,METAR,183.0
KHAF 180755Z AUTO 14006KT 3SM BR BKN018 OVC024 12/10 A3006 RMK AO2,KHAF,2014-12-18T07:55:00Z,37.52,-122.5,12.0,10.0,140,6,,3.0,30.059055,,,TRUE,TRUE,,,,,,BR,BKN,1800,OVC,2400,,,,,MVFR,,,,,,,,,,,,METAR,21.0
KGOV 180755Z AUTO 30005KT 10SM OVC008 M02/M03 A3014 RMK AO2 T10241034,KGOV,2014-12-18T07:55:00Z,44.68,-84.73,-2.4,-3.4,300,5,,10.0,30.138779,,,TRUE,TRUE,,,,,,,OVC,800,,,,,,,IFR,,,,,,,,,,,,METAR,353.0
KFSE 180755Z AUTO 00000KT 10SM CLR M16/M17 A3028 RMK AO2,KFSE,2014-12-18T07:55:00Z,47.58,-95.77,-16.0,-17.0,0,0,,10.0,30.280512,,,TRUE,TRUE,,,,,,,CLR,,,,,,,,VFR,,,,,,,,,,,,METAR,389.0
KFPK 180755Z AUTO 27007KT 10SM OVC025 M02/M05 A3018 RMK AO2 T10221055,KFPK,2014-12-18T07:55:00Z,42.57,-84.82,-2.2,-5.5,270,7,,10.0,30.180119,,,TRUE,TRUE,,,,,,,OVC,2500,,,,,,,MVFR,,,,,,,,,,,,METAR,272.0
KERY 180755Z AUTO 36005KT 10SM SCT011 M07/M08 A3019 RMK AO2 T10741081,KERY,2014-12-18T07:55:00Z,46.3,-85.45,-7.4,-8.1,360,5,,10.0,30.188976,,,TRUE,TRUE,,,,,,,SCT,1100,,,,,,,VFR,,,,,,,,,,,,METAR,265.0
KEAT 180755Z AUTO 00000KT 10SM OVC027 02/01 A2996 RMK AO2 SLP157 T00220011 400280011,KEAT,2014-12-18T07:55:00Z,47.4,-120.2,2.2,1.1,0,0,,10.0,29.958662,1015.7,,TRUE,TRUE,,,,,,,OVC,2700,,,,,,,MVFR,,,,2.8,1.1,,,,,,,METAR,377.0
KDTL 180755Z AUTO 13003KT 10SM CLR M13/M14 A3027 RMK AO2,KDTL,2014-12-18T07:55:00Z,46.82,-95.87,-13.0,-14.0,130,3,,10.0,30.268702,,,TRUE,TRUE,,,,,,,CLR,,,,,,,,VFR,,,,,,,,,,,,METAR,426.0
KDRM 180755Z AUTO 35004KT 10SM SCT015 M06/M08 A3015 RMK AO2 T10631080,KDRM,2014-12-18T07:55:00Z,46.0,-83.75,-6.3,-8.0,350,4,,10.0,30.15059,,,TRUE,TRUE,,,,,,,SCT,1500,,,,,,,VFR,,,,,,,,,,,,METAR,204.0
KCMA 180755Z 00000KT 10SM CLR 09/07 A3010 RMK AO2 SLP202 T00890067 401780083,KCMA,2014-12-18T07:55:00Z,34.22,-119.1,8.9,6.7,0,0,,10.0,30.100393,1020.2,,,TRUE,,,,,,,CLR,,,,,,,,VFR,,,,17.8,8.3,,,,,,,METAR,23.0
KCKN 180755Z AUTO 13003KT 10SM CLR M13/M14 A3030 RMK AO2,KCKN,2014-12-18T07:55:00Z,47.85,-96.62,-13.0,-14.0,130,3,,10.0,30.301182,,,TRUE,TRUE,,,,,,,CLR,,,,,,,,VFR,,,,,,,,,,,,METAR,273.0
KCBG 180755Z AUTO 00000KT 10SM -SN OVC020 M11/M14 A3031 RMK AO2,KCBG,2014-12-18T07:55:00Z,45.57,-93.27,-11.0,-14.0,0,0,,10.0,30.31004,,,TRUE,TRUE,,,,,,-SN,OVC,2000,,,,,,,MVFR,,,,,,,,,,,,METAR,287.0
KCAD 180755Z AUTO 29006KT 2SM -SN OVC009 M02/M03 A3014 RMK AO2 T10231034,KCAD,2014-12-18T07:55:00Z,44.27,-85.42,-2.3,-3.4,290,6,,2.0,30.138779,,,TRUE,TRUE,,,,,,-SN,OVC,900,,,,,,,IFR,,,,,,,,,,,,METAR,398.0
KBDH 180755Z AUTO 09004KT 10SM CLR M12/M14 A3030 RMK AO2,KBDH,2014-12-18T07:55:00Z,45.12,-95.13,-12.0,-14.0,90,4,,10.0,30.301182,,,TRUE,TRUE,,,,,,,CLR,,,,,,,,VFR,,,,,,,,,,,,METAR,247.0
KBAX 180755Z AUTO 30006KT 10SM OVC015 M02/M04 A3015 RMK AO2 T10231043,KBAX,2014-12-18T07:55:00Z,43.78,-82.98,-2.3,-4.3,300,6,,10.0,30.15059,,,TRUE,TRUE,,,,,,,OVC,1500,,,,,,,MVFR,,,,,,,,,,,,METAR,234.0
KAST 180755Z AUTO 10003KT 7SM -RA FEW027 BKN036 OVC047 07/06 A2993 RMK AO2 RAB17 SLP135 P0003 T00720061 401000067,KAST,2014-12-18T07:55:00Z,46.15,-123.88,7.2,6.1,100,3,,7.0,29.929134,1013.5,,TRUE,TRUE,,,,,,-RA,FEW,2700,BKN,3600,OVC,4700,,,VFR,,,,10.0,6.7,0.03,,,,,,METAR,3.0
KAMN 180755Z AUTO 28009KT 10SM OVC012 M01/M03 A3018 RMK AO2 T10151030,KAMN,2014-12-18T07:55:00Z,43.32,-84.68,-1.5,-3.0,280,9,,10.0,30.180119,,,TRUE,TRUE,,,,,,,OVC,1200,,,,,,,MVFR,,,,,,,,,,,,METAR,230.0
KACQ 180755Z AUTO 03003KT 10SM CLR M11/M12 A3031 RMK AO2,KACQ,2014-12-18T07:55:00Z,44.07,-93.55,-11.0,-12.0,30,3,,10.0,30.31004,,,TRUE,TRUE,,,,,,,CLR,,,,,,,,VFR,,,,,,,,,,,,METAR,343.0
KACB 180755Z AUTO 35005KT 10SM OVC013 M02/M04 A3019 RMK AO2 T10241045,KACB,2014-12-18T07:55:00Z,44.98,-85.2,-2.4,-4.5,350,5,,10.0,30.188976,,,TRUE,TRUE,,,,,,,OVC,1300,,,,,,,MVFR,,,,,,,,,,,,METAR,190.0
KSPA 180755Z AUTO 00000KT 10SM CLR 05/M03 A3009 RMK AO2,KSPA,2014-12-18T07:55:00Z,34.92,-81.93,5.0,-3.0,0,0,,10.0,30.088583,,,TRUE,TRUE,,,,,,,CLR,,,,,,,,VFR,,,,,,,,,,,,SPECI,303.0
KAIK 180755Z AUTO 00000KT 10SM CLR 01/01 A3011 RMK AO2 PNO,KAIK,2014-12-18T07:55:00Z,33.65,-81.68,1.0,1.0,0,0,,10.0,30.109253,,,TRUE,TRUE,,,,,,,CLR,,,,,,,,VFR,,,,,,,,,,,,SPECI,161.0
KVDF 180755Z AUTO 00000KT 7SM SCT001 07/06 A3017 RMK AO2,KVDF,2014-12-18T07:55:00Z,28.02,-82.33,7.0,6.0,0,0,,7.0,30.171259,,,TRUE,TRUE,,,,,,,SCT,100,,,,,,,VFR,,,,,,,,,,,,SPECI,7.0
KBDN 180755Z AUTO 21009KT 10SM CLR 02/00 A2997 RMK AO2,KBDN,2014-12-18T07:55:00Z,44.1,-121.2,2.0,0.0,210,9,,10.0,29.970472,,,TRUE,TRUE,,,,,,,CLR,,,,,,,,VFR,,,,,,,,,,,,SPECI,1055.0
KD57 180755Z AUTO 16006KT 9SM OVC009 M08/M10 A3008 RMK AO2 TSNO,KD57,2014-12-18T07:55:00Z,46.82,-101.87,-8.0,-10.0,160,6,,9.0,30.079725,,,TRUE,TRUE,,,TRUE,,,,OVC,900,,,,,,,IFR,,,,,,,,,,,,SPECI,637.0
KCLS 180755Z AUTO 18006KT 10SM FEW023 OVC038 08/07 A2994 RMK AO2,KCLS,2014-12-18T07:55:00Z,46.68,-122.98,8.0,7.0,180,6,,10.0,29.940945,,,TRUE,TRUE,,,,,,,FEW,2300,OVC,3800,,,,,VFR,,,,,,,,,,,,SPECI,54.0
KTHA 180755Z AUTO 01006KT 10SM BKN090 01/M02 A3022 RMK,KTHA,2014-12-18T07:55:00Z,35.38,-86.25,1.0,-2.0,10,6,,10.0,30.221457,,,TRUE,,,,,,,,BKN,9000,,,,,,,VFR,,,,,,,,,,,,METAR,331.0
KSUE 180755Z AUTO 34009KT 10SM OVC014 M02/M06 A3026 RMK AO1,KSUE,2014-12-18T07:55:00Z,44.85,-87.42,-2.0,-6.0,340,9,,10.0,30.259842,,,TRUE,TRUE,,,,,,,OVC,1400,,,,,,,MVFR,,,,,,,,,,,,METAR,221.0
KSTF 180755Z AUTO 00000KT 10SM SCT075 BKN100 03/02 A3023 RMK AO2,KSTF,2014-12-18T07:55:00Z,33.43,-88.85,3.0,2.0,0,0,,10.0,30.230314,,,TRUE,TRUE,,,,,,,SCT,7500,BKN,10000,,,,,VFR,,,,,,,,,,,,METAR,102.0
KSQI 180755Z 00000KT 10SM CLR M07/M10 A3028 RMK AO1,KSQI,2014-12-18T07:55:00Z,41.75,-89.67,-7.0,-10.0,0,0,,10.0,30.280512,,,,TRUE,,,,,,,CLR,,,,,,,,VFR,,,,,,,,,,,,METAR,197.0
KSOP 180755Z AUTO 00000KT 10SM CLR 02/00 A3010 RMK AO1,KSOP,2014-12-18T07:55:00Z,35.22,-79.4,2.0,0.0,0,0,,10.0,30.100393,,,TRUE,TRUE,,,,,,,CLR,,,,,,,,VFR,,,,,,,,,,,,METAR,141.0
KSNH 180755Z AUTO 03005KT 10SM OVC080 03/M01 A3025 RMK,KSNH,2014-12-18T07:55:00Z,35.17,-88.22,3.0,-1.0,30,5,,10.0,30.250984,,,TRUE,,,,,,,,OVC,8000,,,,,,,VFR,,,,,,,,,,,,METAR,144.0
KSMS 180755Z AUTO 00000KT 10SM CLR 01/00 A3009 RMK AO2,KSMS,2014-12-18T07:55:00Z,34.0,-80.37,1.0,0.0,0,0,,10.0,30.088583,,,TRUE,TRUE,,,,,,,CLR,,,,,,,,VFR,,,,,,,,,,,,METAR,56.0
KSMN 180755Z AUTO 00000KT 10SM CLR M08/M14 A3006 RMK AO1,KSMN,2014-12-18T07:55:00Z,45.12,-113.87,-8.0,-14.0,0,0,,10.0,30.059055,,,TRUE,TRUE,,,,,,,CLR,,,,,,,,VFR,,,,,,,,,,,,METAR,1233.0
KSLG 180755Z AUTO 12004KT 10SM OVC023 02/M01 A3015 RMK AO1,KSLG,2014-12-18T07:55:00Z,36.2,-94.47,2.0,-1.0,120,4,,10.0,30.15059,,,TRUE,TRUE,,,,,,,OVC,2300,,,,,,,MVFR,,,,,,,,,,,,METAR,300.0
KSKX 180755Z AUTO 25007KT 10SM SCT010 OVC041 M02/M03 A3005 RMK AO1,KSKX,2014-12-18T07:55:00Z,36.45,-105.67,-2.0,-3.0,250,7,,10.0,30.050198,,,TRUE,TRUE,,,,,,,SCT,1000,OVC,4100,,,,,VFR,,,,,,,,,,,,METAR,2161.0
KTPF 180755Z AUTO 00000KT 10SM CLR 12/11 A3016 RMK AO2,KTPF,2014-12-18T07:55:00Z,27.92,-82.45,12.0,11.0,0,0,,10.0,30.159449,,,TRUE,TRUE,,,,,,,CLR,,,,,,,,VFR,,,,,,,,,,,,METAR,3.0
KTME 180755Z AUTO 10004KT 4SM -RA FEW031 BKN036 OVC049 15/15 A3008 RMK AO2,KTME,2014-12-18T07:55:00Z,29.8,-95.9,15.0,15.0,100,4,,4.0,30.079725,,,TRUE,TRUE,,,,,,-RA,FEW,3100,BKN,3600,OVC,4900,,,MVFR,,,,,,,,,,,,METAR,51.0
KUTA 180755Z AUTO 34006KT 10SM -RA OVC080 03/01 A3031 RMK AO2,KUTA,2014-12-18T07:55:00Z,34.68,-90.35,3.0,1.0,340,6,,10.0,30.31004,,,TRUE,TRUE,,,,,,-RA,OVC,8000,,,,,,,VFR,,,,,,,,,,,,METAR,59.0
KUDG 180755Z AUTO 00000KT 10SM CLR 02/M01 A3009 RMK AO1,KUDG,2014-12-18T07:55:00Z,34.45,-79.88,2.0,-1.0,0,0,,10.0,30.088583,,,TRUE,TRUE,,,,,,,CLR,,,,,,,,VFR,,,,,,,,,,,,METAR,59.0
KUCY 180755Z AUTO 08004KT 5SM FEW030 SCT037 BKN046 01/00 A3026 RMK,KUCY,2014-12-18T07:55:00Z,36.38,-88.98,1.0,0.0,80,4,,5.0,30.259842,,,TRUE,,,,,,,,FEW,3000,SCT,3700,BKN,4600,,,MVFR,,,,,,,,,,,,METAR,104.0
KTVF 180755Z AUTO 14003KT 10SM CLR M14/M15 A3028 RMK AO1,KTVF,2014-12-18T07:55:00Z,48.07,-96.17,-14.0,-15.0,140,3,,10.0,30.280512,,,TRUE,TRUE,,,,,,,CLR,,,,,,,,VFR,,,,,,,,,,,,METAR,340.0
KTPL 180755Z AUTO 05007KT 5SM OVC005 08/05 A3011 RMK AO1,KTPL,2014-12-18T07:55:00Z,31.13,-97.4,8.0,5.0,50,7,,5.0,30.109253,,,TRUE,TRUE,,,,,,,OVC,500,,,,,,,IFR,,,,,,,,,,,,METAR,208.0
KPHT 180755Z AUTO 04004KT 8SM FEW041 SCT047 OVC055 M01/M02 A3026 RMK,KPHT,2014-12-18T07:55:00Z,36.33,-88.38,-1.0,-2.0,40,4,,8.0,30.259842,,,TRUE,,,,,,,,FEW,4100,SCT,4700,OVC,5500,,,VFR,,,,,,,,,,,,METAR,177.0
KOLV 180755Z AUTO 03005KT 9SM OVC085 02/02 A3028 RMK A01 P000,KOLV,2014-12-18T07:55:00Z,34.98,-89.78,2.0,2.0,30,5,,9.0,30.280512,,,TRUE,TRUE,,,,,,,OVC,8500,,,,,,,VFR,,,,,,,,,,,,SPECI,122.0
KM40 180755Z AUTO 02003KT 8SM FEW085 04/M03 A3025 RMK AO2,KM40,2014-12-18T07:55:00Z,33.87,-88.48,4.0,-3.0,20,3,,8.0,30.250984,,,TRUE,TRUE,,,,,,,FEW,8500,,,,,,,VFR,,,,,,,,,,,,SPECI,69.0
KLRO 180755Z AUTO 00000KT 8SM CLR 04/04 A3010 RMK AO2,KLRO,2014-12-18T07:55:00Z,32.9,-79.78,4.0,4.0,0,0,,8.0,30.100393,,,TRUE,TRUE,,,,,,,CLR,,,,,,,,VFR,,,,,,,,,,,,SPECI,4.0
KLQK 180755Z AUTO 10SM CLR 00/M01 A3007 RMK AO2 T10041007,KLQK,2014-12-18T07:55:00Z,34.82,-82.7,-0.4,-0.7,,,,10.0,30.070866,,,TRUE,TRUE,,,,,,,CLR,,,,,,,,VFR,,,,,,,,,,,,SPECI,309.0
KDCM 180755Z AUTO 32004KT 10SM CLR 05/02 A3011 RMK AO2,KDCM,2014-12-18T07:55:00Z,34.78,-81.2,5.0,2.0,320,4,,10.0,30.109253,,,TRUE,TRUE,,,,,,,CLR,,,,,,,,VFR,,,,,,,,,,,,SPECI,200.0
K4I7 180755Z AUTO 00000KT 10SM OVC018 M04/M09 A3029 RMK AO2,K4I7,2014-12-18T07:55:00Z,39.63,-86.82,-4.0,-9.0,0,0,,10.0,30.28937,,,TRUE,TRUE,,,,,,,OVC,1800,,,,,,,MVFR,,,,,,,,,,,,SPECI,257.0
KQXT 180755Z 24005KT 9999 SCT100 BKN150 15/M15 A3019 RMK SLP232 WND DATA ESTMD ALSTG/SLP ESTMD Q1022,KQXT,2014-12-18T07:55:00Z,100.65,-1000.65,15.0,-15.0,240,5,,6.21,30.188976,1023.2,,,,,,,,,,SCT,10000,BKN,15000,,,,,VFR,,,,,,,,,,,,METAR,999.0
FJDG 180755Z 30014KT 9999 FEW020 BKN080 OVC220 28/26 A2980 RMK SLP088 T02810261,FJDG,2014-12-18T07:55:00Z,-7.32,72.42,28.1,26.1,300,14,,6.21,29.799213,1008.8,,,,,,,,,,FEW,2000,BKN,8000,OVC,22000,,,VFR,,,,,,,,,,,,METAR,3.0
KGLY 180755Z AUTO 06007KT 2SM -SN BKN001 OVC010 00/00 A3023 RMK AO2 P0039,KGLY,2014-12-18T07:55:00Z,38.35,-93.68,0.0,0.0,60,7,,2.0,30.230314,,,TRUE,TRUE,,,,,,-SN,BKN,100,OVC,1000,,,,,LIFR,,,,,,0.39,,,,,,METAR,251.0
K24J 180755Z AUTO 00000KT 1/2SM VV005 04/04 A3017 RMK AO1,K24J,2014-12-18T07:55:00Z,30.3,-83.03,4.0,4.0,0,0,,0.5,30.171259,,,TRUE,TRUE,,,,,,,OVX,0,,,,,,,LIFR,,,,,,,,,,,500,METAR,32.0
KARW 180755Z AUTO 24004KT 7SM CLR 06/06 A3011 RMK AO2,KARW,2014-12-18T07:55:00Z,32.42,-80.63,6.0,6.0,240,4,,7.0,30.109253,,,TRUE,TRUE,,,,,,,CLR,,,,,,,,VFR,,,,,,,,,,,,METAR,4.0
KLDJ 180755Z AUTO 30011KT 10SM SCT046 SCT060 OVC075 06/M02 A2995 RMK AO2 T00561019,KLDJ,2014-12-18T07:55:00Z,40.62,-74.25,5.6,-1.9,300,11,,10.0,29.949802,,,TRUE,TRUE,,,,,,,SCT,4600,SCT,6000,OVC,7500,,,VFR,,,,,,,,,,,,SPECI,7.0
K2V5 180755Z AUTO 16004KT 1SM OVC003 A3004 RMK AO2 PWINO,K2V5,2014-12-18T07:55:00Z,40.1,-102.25,,,160,4,,1.0,30.041338,,,TRUE,TRUE,,,,,TRUE,,OVC,300,,,,,,,LIFR,,,,,,,,,,,,SPECI,1118.0
KCDN 180755Z AUTO 00000KT 10SM CLR 00/00 A3010 RMK AO2 TSNO,KCDN,2014-12-18T07:55:00Z,34.28,-80.57,0.0,0.0,0,0,,10.0,30.100393,,,TRUE,TRUE,,,TRUE,,,,CLR,,,,,,,,VFR,,,,,,,,,,,,METAR,92.0
KMAO 180755Z AUTO 00000KT 10SM CLR 02/02 A3010 RMK AO2,KMAO,2014-12-18T07:55:00Z,34.18,-79.33,2.0,2.0,0,0,,10.0,30.100393,,,TRUE,TRUE,,,,,,,CLR,,,,,,,,VFR,,,,,,,,,,,,METAR,28.0
KBNL 180755Z AUTO 00000KT 02/01 A3010 RMK AO2,KBNL,2014-12-18T07:55:00Z,33.25,-81.38,2.0,1.0,0,0,,,30.100393,,,TRUE,TRUE,,,,,,,,,,,,,,,,,,,,,,,,,,,METAR,75.0
K1P1 180755Z AUTO 28009G14KT 10SM -RA SCT025 BKN042 OVC075 03/02 A2968 RMK AO2 T00300020,K1P1,2014-12-18T07:55:00Z,43.78,-71.75,3.0,2.0,280,9,14,10.0,29.681103,,,TRUE,TRUE,,,,,,-RA,SCT,2500,BKN,4200,OVC,7500,,,VFR,,,,,,,,,,,,SPECI,154.0
ETIK 180755Z 22012G15KT 9999 BKN012 BKN020 08/08 A2997 RMK AO2A CIG 009V015 SLP152 $,ETIK,2014-12-18T07:55:00Z,49.47,10.37,8.0,8.0,220,12,15,6.21,29.970472,1015.2,,,TRUE,TRUE,,,,,,BKN,1200,BKN,2000,,,,,MVFR,,,,,,,,,,,,METAR,325.0
KM25 180755Z AUTO 00000KT 5SM UP SCT060 OVC075 00/00 A3028 RMK AO2,KM25,2014-12-18T07:55:00Z,36.77,-88.58,0.0,0.0,0,0,,5.0,30.280512,,,TRUE,TRUE,,,,,,UP,SCT,6000,OVC,7500,,,,,MVFR,,,,,,,,,,,,SPECI,160.0
KUYF 180755Z AUTO 31006KT 10SM OVC020 M03/M07 A3024 RMK AO2,KUYF,2014-12-18T07:55:00Z,39.93,-83.47,-3.0,-7.0,310,6,,10.0,30.239174,,,TRUE,TRUE,,,,,,,OVC,2000,,,,,,,MVFR,,,,,,,,,,,,METAR,330.0
KLKR 180755Z AUTO 00000KT 3SM +RA CLR 02/02 A3011 RMK AO2,KLKR,2014-12-18T07:55:00Z,34.72,-80.85,2.0,2.0,0,0,,3.0,30.109253,,,TRUE,TRUE,,,,,,+RA,CLR,,,,,,,,MVFR,,,,,,,,,,,,SPECI,149.0
KMKS 180755Z AUTO 00000KT 7SM CLR 03/02 A3009 RMK AO2,KMKS,2014-12-18T07:55:00Z,33.18,-80.03,3.0,2.0,0,0,,7.0,30.088583,,,TRUE,TRUE,,,,,,,CLR,,,,,,,,VFR,,,,,,,,,,,,METAR,23.0
KBYS 180755Z AUTO 30002KT 10SM SCT180 06/05 A3006 RMK AO2 SLP202 T00630046 $,KBYS,2014-12-18T07:55:00Z,35.28,-116.62,6.3,4.6,300,2,,10.0,30.059055,1020.2,,TRUE,TRUE,TRUE,,,,,,SCT,18000,,,,,,,VFR,,,,,,,,,,,,METAR,716.0
KFSI 180755Z AUTO 14007KT 3SM BR OVC003 04/04 A3008 RMK AO2 UPB0738,KFSI,2014-12-18T07:55:00Z,34.65,-98.4,4.0,4.0,140,7,,3.0,30.079725,,,TRUE,TRUE,,,,,,BR,OVC,300,,,,,,,LIFR,,,,,,,,,,,,SPECI,362.0
K0A9 180755Z AUTO 00000KT 9SM CLR M04/M04 A3017 RMK,K0A9,2014-12-18T07:55:00Z,36.37,-82.17,-4.0,-4.0,0,0,,9.0,30.171259,,,TRUE,,,,,,,,CLR,,,,,,,,VFR,,,,,,,,,,,,METAR,486.0
K0CO 180755Z AUTO OVC002 M12/M15 A2996 RMK AO2 PWINO,K0CO,2014-12-18T07:55:00Z,39.8,-105.77,-12.0,-15.0,,,,,29.958662,,,TRUE,TRUE,,,,,TRUE,,OVC,200,,,,,,,,,,,,,,,,,,,METAR,3807.0
K1V6 180755Z AUTO 00000KT 10SM CLR M05/M06 A3000 RMK AO2,K1V6,2014-12-18T07:55:00Z,38.43,-105.1,-5.0,-6.0,0,0,,10.0,30.0,,,TRUE,TRUE,,,,,,,CLR,,,,,,,,VFR,,,,,,,,,,,,METAR,1658.0
KSGU 180755Z AUTO 00000KT 10SM OVC033 07/03 A3012 RMK AO1,KSGU,2014-12-18T07:55:00Z,37.07,-113.52,7.0,3.0,0,0,,10.0,30.121063,,,TRUE,TRUE,,,,,,,OVC,3300,,,,,,,VFR,,,,,,,,,,,,METAR,896.0
KSGT 180755Z AUTO 09005KT 9SM OVC070 03/01 A3028 RMK AO1 P0005,KSGT,2014-12-18T07:55:00Z,34.6,-91.57,3.0,1.0,90,5,,9.0,30.280512,,,TRUE,TRUE,,,,,,,OVC,7000,,,,,,,VFR,,,,,,0.05,,,,,,METAR,68.0
KSFZ 180755Z 27009KT 220V300 10SM OVC060 03/M04 A2973 RMK AO1,KSFZ,2014-12-18T07:55:00Z,41.92,-71.5,3.0,-4.0,270,9,,10.0,29.731298,,,,TRUE,,,,,,,OVC,6000,,,,,,,VFR,,,,,,,,,,,,METAR,134.0
KSFM 180755Z AUTO 28009G16KT 10SM FEW035 BKN046 04/M01 A2965 RMK AO1,KSFM,2014-12-18T07:55:00Z,43.38,-70.72,4.0,-1.0,280,9,16,10.0,29.648623,,,TRUE,TRUE,,,,,,,FEW,3500,BKN,4600,,,,,VFR,,,,,,,,,,,,METAR,74.0
KSDY 180755Z AUTO 10004KT 10SM OVC017 M05/M08 A3003 RMK AO1,KSDY,2014-12-18T07:55:00Z,47.7,-104.2,-5.0,-8.0,100,4,,10.0,30.029528,,,TRUE,TRUE,,,,,,,OVC,1700,,,,,,,MVFR,,,,,,,,,,,,METAR,605.0
KSBS 180755Z AUTO 00000KT 5SM OVC003 M04/M04 A3003 RMK AO1 T10401045,KSBS,2014-12-18T07:55:00Z,40.52,-106.87,-4.0,-4.5,0,0,,5.0,30.029528,,,TRUE,TRUE,,,,,,,OVC,300,,,,,,,LIFR,,,,,,,,,,,,METAR,2096.0
KRZR 180755Z AUTO 00000KT 9SM CLR M01/M02 A3020 RMK,KRZR,2014-12-18T07:55:00Z,35.22,-84.8,-1.0,-2.0,0,0,,9.0,30.200787,,,TRUE,,,,,,,,CLR,,,,,,,,VFR,,,,,,,,,,,,METAR,263.0
KRUT 180755Z 25005KT 9SM FEW018 SCT027 BKN032 01/M01 A2974 RMK AO1,KRUT,2014-12-18T07:55:00Z,43.52,-72.95,1.0,-1.0,250,5,,9.0,29.740158,,,,TRUE,,,,,,,FEW,1800,SCT,2700,BKN,3200,,,VFR,,,,,,,,,,,,METAR,240.0
KRKD 180755Z AUTO 30006KT 10SM OVC065 01/00 A2959 RMK AO1,KRKD,2014-12-18T07:55:00Z,44.07,-69.08,1.0,0.0,300,6,,10.0,29.589567,,,TRUE,TRUE,,,,,,,OVC,6500,,,,,,,VFR,,,,,,,,,,,,METAR,17.0
KRBW 180755Z AUTO 00000KT 10SM CLR 02/ A3011 RMK AO2,KRBW,2014-12-18T07:55:00Z,32.92,-80.63,2.0,,0,0,,10.0,30.109253,,,TRUE,TRUE,,,,,,,CLR,,,,,,,,VFR,,,,,,,,,,,,METAR,31.0
KPWT 180755Z AUTO 17005KT 9SM SCT004 BKN012 OVC016 07/07 A2993 RMK AO1,KPWT,2014-12-18T07:55:00Z,47.5,-122.75,7.0,7.0,170,5,,9.0,29.929134,,,TRUE,TRUE,,,,,,,SCT,400,BKN,1200,OVC,1600,,,MVFR,,,,,,,,,,,,METAR,147.0
KPWG 180755Z AUTO 07005KT 5SM OVC005 08/05 A3013 RMK AO1,KPWG,2014-12-18T07:55:00Z,31.47,-97.32,8.0,5.0,70,5,,5.0,30.129921,,,TRUE,TRUE,,,,,,,OVC,500,,,,,,,IFR,,,,,,,,,,,,METAR,180.0
KPVU 180755Z AUTO 00000KT 10SM CLR 02/M02 A3008 RMK AO1,KPVU,2014-12-18T07:55:00Z,40.22,-111.72,2.0,-2.0,0,0,,10.0,30.079725,,,TRUE,TRUE,,,,,,,CLR,,,,,,,,VFR,,,,,,,,,,,,METAR,1369.0
KPVG 180755Z AUTO 02003KT 10SM CLR 03/M02 A3012 RMK AO1,KPVG,2014-12-18T07:55:00Z,36.78,-76.45,3.0,-2.0,20,3,,10.0,30.121063,,,TRUE,TRUE,,,,,,,CLR,,,,,,,,VFR,,,,,,,,,,,,METAR,7.0
KPVE 180755Z AUTO 05004KT 4SM SCT033 BKN039 OVC050 01/00 A3024 RMK,KPVE,2014-12-18T07:55:00Z,35.65,-88.2,1.0,0.0,50,4,,4.0,30.239174,,,TRUE,,,,,,,,SCT,3300,BKN,3900,OVC,5000,,,MVFR,,,,,,,,,,,,METAR,149.0
KPVC 180755Z 28014G19KT 10SM OVC043 05/00 A2971 RMK AO1,KPVC,2014-12-18T07:55:00Z,42.07,-70.22,5.0,0.0,280,14,19,10.0,29.71063,,,,TRUE,,,,,,,OVC,4300,,,,,,,VFR,,,,,,,,,,,,METAR,2.0
KPTV 180755Z AUTO 10005KT 10SM FEW100 BKN120 07/04 A3014 RMK AO1,KPTV,2014-12-18T07:55:00Z,36.02,-119.07,7.0,4.0,100,5,,10.0,30.138779,,,TRUE,TRUE,,,,,,,FEW,10000,BKN,12000,,,,,VFR,,,,,,,,,,,,METAR,135.0
KPTN 180755Z AUTO 06003KT 10SM CLR 09/07 A3017 RMK AO1,KPTN,2014-12-18T07:55:00Z,29.72,-91.32,9.0,7.0,60,3,,10.0,30.171259,,,TRUE,TRUE,,,,,,,CLR,,,,,,,,VFR,,,,,,,,,,,,METAR,3.0
KPSO 180755Z AUTO 23006KT 5SM -SN OVC009 M01/M01 A3005 RMK AO2 T10101012,KPSO,2014-12-18T07:55:00Z,37.28,-107.05,-1.0,-1.2,230,6,,5.0,30.050198,,,TRUE,TRUE,,,,,,-SN,OVC,900,,,,,,,IFR,,,,,,,,,,,,METAR,2334.0
KPRX 180755Z 12009KT 8SM SCT005 OVC022 04/02 A3017 RMK AO1 P0001,KPRX,2014-12-18T07:55:00Z,33.62,-95.45,4.0,2.0,120,9,,8.0,30.171259,,,,TRUE,,,,,,,SCT,500,OVC,2200,,,,,MVFR,,,,,,0.01,,,,,,METAR,167.0
KPQI 180755Z AUTO 01013KT 1 1/2SM OVC010 M02/M04 A2962 RMK AO1,KPQI,2014-12-18T07:55:00Z,46.67,-68.03,-2.0,-4.0,10,13,,1.5,29.619095,,,TRUE,TRUE,,,,,,,OVC,1000,,,,,,,IFR,,,,,,,,,,,,METAR,146.0
KPIB 180755Z AUTO 35003KT 10SM CLR 03/01 A3021 RMK AO1,KPIB,2014-12-18T07:55:00Z,31.47,-89.32,3.0,1.0,350,3,,10.0,30.209646,,,TRUE,TRUE,,,,,,,CLR,,,,,,,,VFR,,,,,,,,,,,,METAR,91.0
KPAN 180755Z AUTO 00000KT M1/4SM -UP OVC001 00/M00 A3014 RMK AO2,KPAN,2014-12-18T07:55:00Z,34.25,-111.33,0.0,0.0,0,0,,0.25,30.138779,,,TRUE,TRUE,,,,,,UP,OVC,100,,,,,,,LIFR,,,,,,,,,,,,METAR,1572.0
KOXC 180755Z 30008KT 260V330 10SM FEW050 OVC080 03/M03 A2982 RMK AO1,KOXC,2014-12-18T07:55:00Z,41.47,-73.13,3.0,-3.0,300,8,,10.0,29.819881,,,,TRUE,,,,,,,FEW,5000,OVC,8000,,,,,VFR,,,,,,,,,,,,METAR,222.0
KOWA 180755Z AUTO 00000KT 10SM CLR M12/M14 A3029 RMK AO2,KOWA,2014-12-18T07:55:00Z,44.12,-93.25,-12.0,-14.0,0,0,,10.0,30.28937,,,TRUE,TRUE,,,,,,,CLR,,,,,,,,VFR,,,,,,,,,,,,METAR,350.0
KOTH 180755Z 13004KT 10SM BKN040 OVC048 09/09 A2998 RMK AO1 P0003,KOTH,2014-12-18T07:55:00Z,43.42,-124.25,9.0,9.0,130,4,,10.0,29.97933,,,,TRUE,,,,,,,BKN,4000,OVC,4800,,,,,VFR,,,,,,0.03,,,,,,METAR,4.0
KOTG 180755Z AUTO 00000KT 10SM BKN070 M13/M14 A3026 RMK AO1,KOTG,2014-12-18T07:55:00Z,43.63,-95.57,-13.0,-14.0,0,0,,10.0,30.259842,,,TRUE,TRUE,,,,,,,BKN,7000,,,,,,,VFR,,,,,,,,,,,,METAR,480.0
PATL 180755Z AUTO 11006KT 2 1/2SM BR OVC003 M10/M11 A2963 RMK AO2 SLP059 T11021109 $,PATL,2014-12-18T07:55:00Z,62.9,-155.97,-10.2,-10.9,110,6,,2.5,29.630905,1005.9,,TRUE,TRUE,TRUE,,,,,BR,OVC,300,,,,,,,LIFR,,,,,,,,,,,,METAR,294.0
PASV 180755Z AUTO 00000KT 10SM FEW080 BKN170 M06/M10 A2947 RMK AO2 SLP016 T10611102,PASV,2014-12-18T07:55:00Z,61.1,-155.57,-6.1,-10.2,0,0,,10.0,29.471457,1001.6,,TRUE,TRUE,,,,,,,FEW,8000,BKN,17000,,,,,VFR,,,,,,,,,,,,METAR,484.0
PALU 180755Z AUTO 12008KT 10SM -SN OVC060 M15/M17 A2971 RMK AO2 SNB0555 SLP061 P0000 T11481171,PALU,2014-12-18T07:55:00Z,68.88,-166.13,-14.8,-17.1,120,8,,10.0,29.71063,1006.1,,TRUE,TRUE,,,,,,-SN,OVC,6000,,,,,,,VFR,,,,,,0.0050,,,,,,METAR,3.0
PAIM 180755Z AUTO 00000KT 7SM OVC002 M09/M09 A2962 RMK AO2 SLP066 T10891093,PAIM,2014-12-18T07:55:00Z,66.0,-153.7,-8.9,-9.3,0,0,,7.0,29.619095,1006.6,,TRUE,TRUE,,,,,,,OVC,200,,,,,,,LIFR,,,,,,,,,,,,METAR,389.0
PAEH 180755Z AUTO 12022G27KT 10SM BKN130 00/M05 A2940 RMK AO2 PK WND 13027/0752 SLP964 T10051055,PAEH,2014-12-18T07:55:00Z,58.65,-162.07,-0.5,-5.5,120,22,27,10.0,29.40059,996.4,,TRUE,TRUE,,,,,,,BKN,13000,,,,,,,VFR,,,,,,,,,,,,METAR,161.0
PACZ 180755Z AUTO 12018G25KT 10SM BKN170 M03/M08 A2942 RMK AO2 PK WND 12028/0657 SLP971 T10271080,PACZ,2014-12-18T07:55:00Z,61.78,-166.03,-2.7,-8.0,120,18,25,10.0,29.421259,997.1,,TRUE,TRUE,,,,,,,BKN,17000,,,,,,,VFR,,,,,,,,,,,,METAR,146.0
KVBG 180755Z AUTO 10006KT 10SM OVC050 11/09 A3014 RMK AO2 SLP196 T01060089 401560067 TSNO $ ,KVBG,2014-12-18T07:55:00Z,34.73,-120.58,10.6,8.9,100,6,,10.0,30.138779,1019.6,,TRUE,TRUE,TRUE,,TRUE,,,,OVC,5000,,,,,,,VFR,,,,15.6,6.7,,,,,,,METAR,112.0
KEHR 180755Z AUTO 05004KT 10SM CLR M01/M04 A3031 RMK AO1,KEHR,2014-12-18T07:55:00Z,37.82,-87.67,-1.0,-4.0,50,4,,10.0,30.31004,,,TRUE,TRUE,,,,,,,CLR,,,,,,,,VFR,,,,,,,,,,,,METAR,117.0
KEGE 180755Z AUTO 00000KT 10SM SCT021 OVC028 M03/M04 A3006 RMK AO1,KEGE,2014-12-18T07:55:00Z,39.63,-106.92,-3.0,-4.0,0,0,,10.0,30.059055,,,TRUE,TRUE,,,,,,,SCT,2100,OVC,2800,,,,,MVFR,,,,,,,,,,,,METAR,1993.0
KEEN 180755Z AUTO 00000KT 10SM CLR 01/00 A2974 RMK AO1,KEEN,2014-12-18T07:55:00Z,42.88,-72.27,1.0,0.0,0,0,,10.0,29.740158,,,TRUE,TRUE,,,,,,,CLR,,,,,,,,VFR,,,,,,,,,,,,METAR,149.0
KEAR 180755Z 11003KT 4SM SCT019 OVC028 M05/M07 A3015 RMK AO1,KEAR,2014-12-18T07:55:00Z,40.72,-99.0,-5.0,-7.0,110,3,,4.0,30.15059,,,,TRUE,,,,,,,SCT,1900,OVC,2800,,,,,MVFR,,,,,,,,,,,,METAR,649.0
KDYR 180755Z 00000KT 3SM FEW036 FEW042 OVC055 02/M04 A3029 RMK AO1,KDYR,2014-12-18T07:55:00Z,36.0,-89.4,2.0,-4.0,0,0,,3.0,30.28937,,,,TRUE,,,,,,,FEW,3600,FEW,4200,OVC,5500,,,MVFR,,,,,,,,,,,,METAR,103.0
KDWU 180755Z AUTO 34006KT 10SM OVC026 M01/M06 A3025 RMK AO1,KDWU,2014-12-18T07:55:00Z,38.55,-82.73,-1.0,-6.0,340,6,,10.0,30.250984,,,TRUE,TRUE,,,,,,,OVC,2600,,,,,,,MVFR,,,,,,,,,,,,METAR,166.0
KDVL 180755Z AUTO 14004KT 10SM CLR M14/M19 A3019 RMK AO1,KDVL,2014-12-18T07:55:00Z,48.12,-98.92,-14.0,-19.0,140,4,,10.0,30.188976,,,TRUE,TRUE,,,,,,,CLR,,,,,,,,VFR,,,,,,,,,,,,METAR,443.0
KD50 180755Z AUTO 16009KT 10SM OVC011 M08/M09 A3005 RMK AO2,KD50,2014-12-18T07:55:00Z,48.93,-103.3,-8.0,-9.0,160,9,,10.0,30.050198,,,TRUE,TRUE,,,,,,,OVC,1100,,,,,,,MVFR,,,,,,,,,,,,METAR,595.0
KCWI 180755Z AUTO 00000KT 10SM CLR M10/M13 A3031 RMK AO1,KCWI,2014-12-18T07:55:00Z,41.82,-90.32,-10.0,-13.0,0,0,,10.0,30.31004,,,TRUE,TRUE,,,,,,,CLR,,,,,,,,VFR,,,,,,,,,,,,METAR,216.0
KCVO 180755Z AUTO 00000KT 1 3/4SM OVC060 08/06 A2999 RMK AO1,KCVO,2014-12-18T07:55:00Z,44.5,-123.27,8.0,6.0,0,0,,1.75,29.991142,,,TRUE,TRUE,,,,,,,OVC,6000,,,,,,,IFR,,,,,,,,,,,,METAR,75.0
KCVN 180755Z 28011KT 10SM CLR 03/M01 A3000 RMK AO1,KCVN,2014-12-18T07:55:00Z,34.42,-103.07,3.0,-1.0,280,11,,10.0,30.0,,,,TRUE,,,,,,,CLR,,,,,,,,VFR,,,,,,,,,,,,METAR,1284.0
KCOE 180755Z AUTO 04005KT 10SM BKN004 OVC043 01/00 A2996 RMK AO1 P0002,KCOE,2014-12-18T07:55:00Z,47.77,-116.82,1.0,0.0,40,5,,10.0,29.958662,,,TRUE,TRUE,,,,,,,BKN,400,OVC,4300,,,,,LIFR,,,,,,0.02,,,,,,METAR,707.0
KCOD 180755Z AUTO 06005KT 10SM CLR M05/M11 A2993 RMK AO1,KCOD,2014-12-18T07:55:00Z,44.52,-109.02,-5.0,-11.0,60,5,,10.0,29.929134,,,TRUE,TRUE,,,,,,,CLR,,,,,,,,VFR,,,,,,,,,,,,METAR,1553.0
KCIU 180755Z AUTO 36005KT 10SM CLR M08/M08 A3017 RMK AO1,KCIU,2014-12-18T07:55:00Z,46.25,-84.47,-8.0,-8.0,360,5,,10.0,30.171259,,,TRUE,TRUE,,,,,,,CLR,,,,,,,,VFR,,,,,,,,,,,,METAR,244.0
KCGZ 180755Z AUTO 00000KT 3SM CLR 08/07 A3012 RMK AO1,KCGZ,2014-12-18T07:55:00Z,32.95,-111.77,8.0,7.0,0,0,,3.0,30.121063,,,TRUE,TRUE,,,,,,,CLR,,,,,,,,MVFR,,,,,,,,,,,,METAR,446.0
KCGC 180755Z AUTO 00000KT 10SM CLR 03/03 A3016 RMK AO2,KCGC,2014-12-18T07:55:00Z,28.87,-82.57,3.0,3.0,0,0,,10.0,30.159449,,,TRUE,TRUE,,,,,,,CLR,,,,,,,,VFR,,,,,,,,,,,,METAR,3.0
KCCU 180755Z AUTO 27013KT 3SM -SN OVC004 M07/M10 A2998 RMK AO2,KCCU,2014-12-18T07:55:00Z,39.48,-106.15,-7.0,-10.0,270,13,,3.0,29.97933,,,TRUE,TRUE,,,,,,-SN,OVC,400,,,,,,,LIFR,,,,,,,,,,,,METAR,3680.0
KBVX 180755Z AUTO 11006KT 8SM SCT007 BKN042 OVC060 02/01 A3025 RMK AO1,KBVX,2014-12-18T07:55:00Z,35.73,-91.65,2.0,1.0,110,6,,8.0,30.250984,,,TRUE,TRUE,,,,,,,SCT,700,BKN,4200,OVC,6000,,,VFR,,,,,,,,,,,,METAR,141.0
KBVU 180755Z AUTO 00000KT 10SM FEW019 FEW040 OVC055 09/08 A3010 RMK AO2,KBVU,2014-12-18T07:55:00Z,35.95,-114.87,9.0,8.0,0,0,,10.0,30.100393,,,TRUE,TRUE,,,,,,,FEW,1900,FEW,4000,OVC,5500,,,VFR,,,,,,,,,,,,METAR,671.0
KBTP 180755Z AUTO 26014G20KT 10SM OVC024 M02/M07 A3016 RMK AO1,KBTP,2014-12-18T07:55:00Z,40.77,-79.95,-2.0,-7.0,260,14,20,10.0,30.159449,,,TRUE,TRUE,,,,,,,OVC,2400,,,,,,,MVFR,,,,,,,,,,,,METAR,380.0
KGUC 180755Z AUTO 00000KT 10SM OVC013 M04/M07 A3005 RMK AO1,KGUC,2014-12-18T07:55:00Z,38.52,-106.92,-4.0,-7.0,0,0,,10.0,30.050198,,,TRUE,TRUE,,,,,,,OVC,1300,,,,,,,MVFR,,,,,,,,,,,,METAR,2339.0
KGTU 180755Z 02005KT 1 3/4SM OVC003 09/08 A3010 RMK AO1,KGTU,2014-12-18T07:55:00Z,30.68,-97.68,9.0,8.0,20,5,,1.75,30.100393,,,,TRUE,,,,,,,OVC,300,,,,,,,LIFR,,,,,,,,,,,,METAR,240.0
KGTR 180755Z AUTO 01004KT 10SM SCT080 03/01 A3023 RMK AO1,KGTR,2014-12-18T07:55:00Z,33.45,-88.57,3.0,1.0,10,4,,10.0,30.230314,,,TRUE,TRUE,,,,,,,SCT,8000,,,,,,,VFR,,,,,,,,,,,,METAR,80.0
KGPZ 180755Z AUTO 00000KT 10SM CLR M17/M18 A3028 RMK AO1,KGPZ,2014-12-18T07:55:00Z,47.22,-93.52,-17.0,-18.0,0,0,,10.0,30.280512,,,TRUE,TRUE,,,,,,,CLR,,,,,,,,VFR,,,,,,,,,,,,METAR,413.0
KGPI 180755Z AUTO 00000KT 8SM OVC038 M02/M03 A2996 RMK AO2 UPB37E55SNB36E37B39E45 SLP173 P0000 T10171028 $,KGPI,2014-12-18T07:55:00Z,48.32,-114.25,-1.7,-2.8,0,0,,8.0,29.958662,1017.3,,TRUE,TRUE,TRUE,,,,,,OVC,3800,,,,,,,VFR,,,,,,0.0050,,,,,,METAR,908.0
KGPH 180755Z AUTO 06004KT 1/2SM +SN M02/M02 A3025 RMK AO2,KGPH,2014-12-18T07:55:00Z,39.33,-94.32,-2.0,-2.0,60,4,,0.5,30.250984,,,TRUE,TRUE,,,,,,+SN,,,,,,,,,,,,,,,,,,,,,METAR,235.0
KGKT 180755Z AUTO 00000KT 10SM CLR M03/M03 A3021 RMK,KGKT,2014-12-18T07:55:00Z,35.85,-83.53,-3.0,-3.0,0,0,,10.0,30.209646,,,TRUE,,,,,,,,CLR,,,,,,,,VFR,,,,,,,,,,,,METAR,309.0
KGDV 180755Z AUTO 00000KT 10SM OVC010 M05/M07 A2998 RMK AO1,KGDV,2014-12-18T07:55:00Z,47.12,-104.78,-5.0,-7.0,0,0,,10.0,29.97933,,,TRUE,TRUE,,,,,,,OVC,1000,,,,,,,MVFR,,,,,,,,,,,,METAR,749.0
KGBD 180755Z AUTO 08004KT 2 1/2SM SCT006 BKN027 OVC045 M02/M05 A3013 RMK AO1,KGBD,2014-12-18T07:55:00Z,38.35,-98.87,-2.0,-5.0,80,4,,2.5,30.129921,,,TRUE,TRUE,,,,,,,SCT,600,BKN,2700,OVC,4500,,,IFR,,,,,,,,,,,,METAR,575.0
KGAI 180755Z 33004G14KT 10SM OVC045 02/M06 A3011 RMK AO1,KGAI,2014-12-18T07:55:00Z,39.17,-77.17,2.0,-6.0,330,4,14,10.0,30.109253,,,,TRUE,,,,,,,OVC,4500,,,,,,,VFR,,,,,,,,,,,,METAR,165.0
KGAD 180755Z 35004KT 10SM CLR 02/M01 A3019 RMK AO1,KGAD,2014-12-18T07:55:00Z,33.97,-86.07,2.0,-1.0,350,4,,10.0,30.188976,,,,TRUE,,,,,,,CLR,,,,,,,,VFR,,,,,,,,,,,,METAR,173.0
KFRM 180755Z AUTO 00000KT 10SM OVC012 M12/M14 A3029 RMK AO1,KFRM,2014-12-18T07:55:00Z,43.63,-94.42,-12.0,-14.0,0,0,,10.0,30.28937,,,TRUE,TRUE,,,,,,,OVC,1200,,,,,,,MVFR,,,,,,,,,,,,METAR,354.0
KFOD 180755Z AUTO 00000KT 10SM OVC075 M08/M11 A3029 RMK AO1,KFOD,2014-12-18T07:55:00Z,42.53,-94.17,-8.0,-11.0,0,0,,10.0,30.28937,,,TRUE,TRUE,,,,,,,OVC,7500,,,,,,,VFR,,,,,,,,,,,,METAR,355.0
KFNL 180755Z AUTO 00000KT 10SM CLR M04/M07 A2999 RMK AO1,KFNL,2014-12-18T07:55:00Z,40.45,-105.02,-4.0,-7.0,0,0,,10.0,29.991142,,,TRUE,TRUE,,,,,,,CLR,,,,,,,,VFR,,,,,,,,,,,,METAR,1529.0
KFMM 180755Z AUTO 28005KT 7SM BKN070 M09/M10 A2999 RMK AO2 T10871098,KFMM,2014-12-18T07:55:00Z,40.33,-103.8,-8.7,-9.8,280,5,,7.0,29.991142,,,TRUE,TRUE,,,,,,,BKN,7000,,,,,,,VFR,,,,,,,,,,,,METAR,1393.0
KFMH 180755Z AUTO 29014G19KT 10SM OVC060 04/M01 A2973 RMK AO2,KFMH,2014-12-18T07:55:00Z,41.63,-70.52,4.0,-1.0,290,14,19,10.0,29.731298,,,TRUE,TRUE,,,,,,,OVC,6000,,,,,,,VFR,,,,,,,,,,,,METAR,40.0
KFLP 180755Z 14003KT 10SM SCT009 OVC039 01/M02 A3023 RMK AO1,KFLP,2014-12-18T07:55:00Z,36.28,-92.58,1.0,-2.0,140,3,,10.0,30.230314,,,,TRUE,,,,,,,SCT,900,OVC,3900,,,,,VFR,,,,,,,,,,,,METAR,219.0
KFKL 180755Z AUTO 27010G15KT 230V290 10SM OVC019 M03/M07 A3012 RMK AO1,KFKL,2014-12-18T07:55:00Z,41.37,-79.87,-3.0,-7.0,270,10,15,10.0,30.121063,,,TRUE,TRUE,,,,,,,OVC,1900,,,,,,,MVFR,,,,,,,,,,,,METAR,469.0
KFCI 180755Z AUTO 01003KT 10SM CLR M02/M09 A3011 RMK AO1,KFCI,2014-12-18T07:55:00Z,37.4,-77.52,-2.0,-9.0,10,3,,10.0,30.109253,,,TRUE,TRUE,,,,,,,CLR,,,,,,,,VFR,,,,,,,,,,,,METAR,72.0
KFAM 180755Z AUTO 26005KT 7SM SCT040 BKN050 OVC060 00/M01 A3025 RMK AO1 P0001,KFAM,2014-12-18T07:55:00Z,37.77,-90.42,0.0,-1.0,260,5,,7.0,30.250984,,,TRUE,TRUE,,,,,,,SCT,4000,BKN,5000,OVC,6000,,,VFR,,,,,,0.01,,,,,,METAR,288.0
KEWK 180755Z AUTO 10007KT 3SM FEW004 SCT009 BKN017 M02/M05 A3014 RMK AO1,KEWK,2014-12-18T07:55:00Z,38.03,-97.27,-2.0,-5.0,100,7,,3.0,30.138779,,,TRUE,TRUE,,,,,,,FEW,400,SCT,900,BKN,1700,,,MVFR,,,,,,,,,,,,METAR,467.0
KEUL 180755Z AUTO 00000KT 9SM OVC085 02/M02 A3005 RMK AO1,KEUL,2014-12-18T07:55:00Z,43.62,-116.62,2.0,-2.0,0,0,,9.0,30.050198,,,TRUE,TRUE,,,,,,,OVC,8500,,,,,,,VFR,,,,,,,,,,,,METAR,740.0
KESC 180755Z AUTO 34009KT 10SM OVC021 M03/M07 A3023 RMK AO1,KESC,2014-12-18T07:55:00Z,45.75,-87.08,-3.0,-7.0,340,9,,10.0,30.230314,,,TRUE,TRUE,,,,,,,OVC,2100,,,,,,,MVFR,,,,,,,,,,,,METAR,187.0
KENV 180755Z AUTO 00000KT 10SM CLR M04/M06 A3007 RMK AO1,KENV,2014-12-18T07:55:00Z,40.72,-114.02,-4.0,-6.0,0,0,,10.0,30.070866,,,TRUE,TRUE,,,,,,,CLR,,,,,,,,VFR,,,,,,,,,,,,METAR,1292.0
KEIK 180755Z AUTO 00000KT 5SM BR M06/M06 A2998 RMK AO2 T10561062,KEIK,2014-12-18T07:55:00Z,40.02,-105.05,-5.6,-6.2,0,0,,5.0,29.97933,,,TRUE,TRUE,,,,,,BR,,,,,,,,,,,,,,,,,,,,,METAR,1564.0
KTEX 180755Z AUTO 26003KT 4SM -SN SCT002 BKN012 OVC055 M04/M04 A3004 RMK AO2 T10421044,KTEX,2014-12-18T07:55:00Z,37.95,-107.9,-4.2,-4.4,260,3,,4.0,30.041338,,,TRUE,TRUE,,,,,,-SN,SCT,200,BKN,1200,OVC,5500,,,MVFR,,,,,,,,,,,,METAR,2769.0
KSYI 180755Z AUTO 36007KT 10SM FEW065 OVC090 01/00 A3026 RMK,KSYI,2014-12-18T07:55:00Z,35.57,-86.45,1.0,0.0,360,7,,10.0,30.259842,,,TRUE,,,,,,,,FEW,6500,OVC,9000,,,,,VFR,,,,,,,,,,,,METAR,245.0
KSVC 180755Z AUTO 32006KT 10SM BKN041 BKN047 BKN055 02/01 A3015 RMK AO2,KSVC,2014-12-18T07:55:00Z,32.63,-108.15,2.0,1.0,320,6,,10.0,30.15059,,,TRUE,TRUE,,,,,,,BKN,4100,BKN,4700,BKN,5500,,,VFR,,,,,,,,,,,,METAR,1659.0
KM91 180755Z AUTO 07005KT 9SM BKN060 M01/M02 A3026 RMK,KM91,2014-12-18T07:55:00Z,36.53,-86.92,-1.0,-2.0,70,5,,9.0,30.259842,,,TRUE,,,,,,,,BKN,6000,,,,,,,VFR,,,,,,,,,,,,METAR,215.0
KSQL 180755Z AUTO 16005KT 10SM OVC028 11/09 A3008 RMK AO2,KSQL,2014-12-18T07:55:00Z,37.52,-122.25,11.0,9.0,160,5,,10.0,30.079725,,,TRUE,TRUE,,,,,,,OVC,2800,,,,,,,MVFR,,,,,,,,,,,,METAR,1.0
KROX 180755Z AUTO 00000KT 10SM CLR M14/M17 A3029 RMK AO2,KROX,2014-12-18T07:55:00Z,48.85,-95.7,-14.0,-17.0,0,0,,10.0,30.28937,,,TRUE,TRUE,,,,,,,CLR,,,,,,,,VFR,,,,,,,,,,,,METAR,323.0
KROS 180755Z AUTO 00000KT 10SM OVC020 M08/M10 A3033 RMK AO2 T10821100,KROS,2014-12-18T07:55:00Z,45.7,-92.95,-8.2,-10.0,0,0,,10.0,30.33071,,,TRUE,TRUE,,,,,,,OVC,2000,,,,,,,MVFR,,,,,,,,,,,,METAR,281.0
KPQN 180755Z AUTO 00000KT 10SM OVC070 M12/M13 A3023 RMK AO2,KPQN,2014-12-18T07:55:00Z,43.97,-96.32,-12.0,-13.0,0,0,,10.0,30.230314,,,TRUE,TRUE,,,,,,,OVC,7000,,,,,,,VFR,,,,,,,,,,,,METAR,529.0
KMQJ 180755Z AUTO 00000KT 10SM OVC019 M04/M10 A3029 RMK AO1,KMQJ,2014-12-18T07:55:00Z,39.85,-85.9,-4.0,-10.0,0,0,,10.0,30.28937,,,TRUE,TRUE,,,,,,,OVC,1900,,,,,,,MVFR,,,,,,,,,,,,METAR,263.0
KMGG 180755Z AUTO 00000KT 10SM CLR M12/M13 A3033 RMK AO2 T11251135,KMGG,2014-12-18T07:55:00Z,45.23,-93.98,-12.5,-13.5,0,0,,10.0,30.33071,,,TRUE,TRUE,,,,,,,CLR,,,,,,,,VFR,,,,,,,,,,,,METAR,313.0
KFKA 180755Z AUTO 00000KT 10SM OVC013 M09/M11 A3028 RMK AO2 T10951113,KFKA,2014-12-18T07:55:00Z,43.68,-92.17,-9.5,-11.3,0,0,,10.0,30.280512,,,TRUE,TRUE,,,,,,,OVC,1300,,,,,,,MVFR,,,,,,,,,,,,METAR,389.0
KBLM 180755Z AUTO 29011G16KT 10SM OVC065 03/M06 A2993 RMK AO1,KBLM,2014-12-18T07:55:00Z,40.17,-74.12,3.0,-6.0,290,11,16,10.0,29.929134,,,TRUE,TRUE,,,,,,,OVC,6500,,,,,,,VFR,,,,,,,,,,,,METAR,48.0
KBJC 180755Z AUTO 00000KT 10SM CLR 00/M03 A2997 RMK AO2,KBJC,2014-12-18T07:55:00Z,39.9,-105.1,0.0,-3.0,0,0,,10.0,29.970472,,,TRUE,TRUE,,,,,,,CLR,,,,,,,,VFR,,,,,,,,,,,,METAR,1724.0
KBID 180755Z AUTO 28015G20KT 10SM FEW023 BKN060 05/M01 A2979 RMK AO1,KBID,2014-12-18T07:55:00Z,41.17,-71.58,5.0,-1.0,280,15,20,10.0,29.790354,,,TRUE,TRUE,,,,,,,FEW,2300,BKN,6000,,,,,VFR,,,,,,,,,,,,METAR,33.0
KBHB 180755Z AUTO 32006KT 8SM SCT008 BKN020 OVC033 01/01 A2955 RMK AO1,KBHB,2014-12-18T07:55:00Z,44.45,-68.37,1.0,1.0,320,6,,8.0,29.551182,,,TRUE,TRUE,,,,,,,SCT,800,BKN,2000,OVC,3300,,,MVFR,,,,,,,,,,,,METAR,26.0
KBGF 180755Z AUTO 34003KT 10SM OVC100 01/M01 A3023 RMK,KBGF,2014-12-18T07:55:00Z,35.18,-86.07,1.0,-1.0,340,3,,10.0,30.230314,,,TRUE,,,,,,,,OVC,10000,,,,,,,VFR,,,,,,,,,,,,METAR,299.0
KBDU 180755Z AUTO 00000KT 7SM CLR M03/M05 A2997 RMK AO2,KBDU,2014-12-18T07:55:00Z,40.03,-105.23,-3.0,-5.0,0,0,,7.0,29.970472,,,TRUE,TRUE,,,,,,,CLR,,,,,,,,VFR,,,,,,,,,,,,METAR,1612.0
KAWO 180755Z AUTO 00000KT 10SM FEW009 OVC028 06/04 A2994 RMK AO1,KAWO,2014-12-18T07:55:00Z,48.17,-122.17,6.0,4.0,0,0,,10.0,29.940945,,,TRUE,TRUE,,,,,,,FEW,900,OVC,2800,,,,,MVFR,,,,,,,,,,,,METAR,42.0
KAUO 180755Z AUTO 34007KT 10SM CLR 03/00 A3017 RMK AO1,KAUO,2014-12-18T07:55:00Z,32.62,-85.42,3.0,0.0,340,7,,10.0,30.171259,,,TRUE,TRUE,,,,,,,CLR,,,,,,,,VFR,,,,,,,,,,,,METAR,236.0
KATS 180755Z AUTO 33003KT 10SM CLR 05/M01 A3008 RMK AO2,KATS,2014-12-18T07:55:00Z,32.85,-104.47,5.0,-1.0,330,3,,10.0,30.079725,,,TRUE,TRUE,,,,,,,CLR,,,,,,,,VFR,,,,,,,,,,,,METAR,1081.0
KARG 180755Z AUTO 09006KT 5SM SCT065 BKN070 02/00 A3026 RMK AO1,KARG,2014-12-18T07:55:00Z,36.12,-90.92,2.0,0.0,90,6,,5.0,30.259842,,,TRUE,TRUE,,,,,,,SCT,6500,BKN,7000,,,,,MVFR,,,,,,,,,,,,METAR,83.0
KAQX 180755Z AUTO 00000KT 10SM CLR 03/03 A3011 RMK AO2,KAQX,2014-12-18T07:55:00Z,32.98,-81.27,3.0,3.0,0,0,,10.0,30.109253,,,TRUE,TRUE,,,,,,,CLR,,,,,,,,VFR,,,,,,,,,,,,METAR,49.0
KAIZ 180755Z AUTO 05004KT 2 1/2SM FEW018 SCT023 OVC034 M01/M02 A3024 RMK AO1 P0002,KAIZ,2014-12-18T07:55:00Z,38.1,-92.53,-1.0,-2.0,50,4,,2.5,30.239174,,,TRUE,TRUE,,,,,,,FEW,1800,SCT,2300,OVC,3400,,,IFR,,,,,,0.02,,,,,,METAR,265.0
KAIB 180755Z AUTO 00000KT 4SM -SN SCT014 OVC023 00/00 A3010 RMK AO2,KAIB,2014-12-18T07:55:00Z,38.23,-108.57,0.0,0.0,0,0,,4.0,30.100393,,,TRUE,TRUE,,,,,,-SN,SCT,1400,OVC,2300,,,,,MVFR,,,,,,,,,,,,METAR,1811.0
KAFJ 180755Z AUTO 26008KT 10SM OVC024 M03/M08 A3019 RMK AO1,KAFJ,2014-12-18T07:55:00Z,40.12,-80.27,-3.0,-8.0,260,8,,10.0,30.188976,,,TRUE,TRUE,,,,,,,OVC,2400,,,,,,,MVFR,,,,,,,,,,,,METAR,361.0
K6L4 180755Z AUTO 00000KT 10SM OVC033 M01/M04 A3019 RMK AO2,K6L4,2014-12-18T07:55:00Z,37.85,-81.92,-1.0,-4.0,0,0,,10.0,30.188976,,,TRUE,TRUE,,,,,,,OVC,3300,,,,,,,VFR,,,,,,,,,,,,METAR,508.0
K46D 180755Z AUTO 10SM CLR M13/M13 A3020 RMK AO2,K46D,2014-12-18T07:55:00Z,47.45,-99.15,-13.0,-13.0,,,,10.0,30.200787,,,TRUE,TRUE,,,,,,,CLR,,,,,,,,VFR,,,,,,,,,,,,METAR,490.0
K33V 180755Z AUTO 00000KT M1/4SM OVC001 M12/M15 A3000 RMK AO2,K33V,2014-12-18T07:55:00Z,40.75,-106.28,-12.0,-15.0,0,0,,0.25,30.0,,,TRUE,TRUE,,,,,,,OVC,100,,,,,,,LIFR,,,,,,,,,,,,METAR,2484.0
KLWM 180754Z AUTO 25009KT 10SM SCT060 BKN080 OVC100 03/M01 A2972 RMK AO2 SLP065 T00331006,KLWM,2014-12-18T07:54:00Z,42.72,-71.13,3.3,-0.6,250,9,,10.0,29.719488,1006.5,,TRUE,TRUE,,,,,,,SCT,6000,BKN,8000,OVC,10000,,,VFR,,,,,,,,,,,,METAR,54.0
CYZY 180754Z AUTO 10003KT 9SM -SN SCT015 BKN020 BKN032 OVC044 M02/M02 A2981 RMK SLP132,CYZY,2014-12-18T07:54:00Z,55.28,-123.12,-2.0,-2.0,100,3,,9.0,29.811024,1013.2,,TRUE,,,,,,,-SN,SCT,1500,BKN,2000,BKN,3200,OVC,4400,MVFR,,,,,,,,,,,,SPECI,690.0
CYLW 180754Z AUTO 06002KT 5SM -SN SCT018 BKN032 OVC055 M00/M01 A2995 RMK SLP161,CYLW,2014-12-18T07:54:00Z,49.95,-119.37,0.0,-1.0,60,2,,5.0,29.949802,1016.1,,TRUE,,,,,,,-SN,SCT,1800,BKN,3200,OVC,5500,,,MVFR,,,,,,,,,,,,SPECI,430.0
KMIV 180754Z AUTO 30010KT 10SM CLR 02/M06 A3002 RMK AO2 SLP164 T00171056,KMIV,2014-12-18T07:54:00Z,39.37,-75.08,1.7,-5.6,300,10,,10.0,30.02067,1016.4,,TRUE,TRUE,,,,,,,CLR,,,,,,,,VFR,,,,,,,,,,,,METAR,23.0
KMGJ 180754Z AUTO 29007KT 10SM SCT034 BKN045 OVC075 03/M04 A2989 RMK AO2 SLP122 T00281039 TSNO,KMGJ,2014-12-18T07:54:00Z,41.52,-74.27,2.8,-3.9,290,7,,10.0,29.890747,1012.2,,TRUE,TRUE,,,TRUE,,,,SCT,3400,BKN,4500,OVC,7500,,,VFR,,,,,,,,,,,,METAR,108.0
KMFI 180754Z AUTO 33007KT 10SM OVC012 M06/M09 A3025 RMK AO2 SLP267 T10611089,KMFI,2014-12-18T07:54:00Z,44.63,-90.18,-6.1,-8.9,330,7,,10.0,30.250984,1026.7,,TRUE,TRUE,,,,,,,OVC,1200,,,,,,,MVFR,,,,,,,,,,,,METAR,379.0
KMEM 180754Z 08004KT 6SM -RA BR FEW025 OVC085 03/01 A3029 RMK AO2 RAB08E23B50 SLP258 P0000 T00330011 $,KMEM,2014-12-18T07:54:00Z,35.07,-89.98,3.3,1.1,80,4,,6.0,30.28937,1025.8,,,TRUE,TRUE,,,,,-RA BR,FEW,2500,OVC,8500,,,,,VFR,,,,,,0.0050,,,,,,METAR,86.0
KLYH 180754Z AUTO 00000KT 10SM CLR M01/M04 A3011 RMK AO2 SLP199 T10111044,KLYH,2014-12-18T07:54:00Z,37.32,-79.2,-1.1,-4.4,0,0,,10.0,30.109253,1019.9,,TRUE,TRUE,,,,,,,CLR,,,,,,,,VFR,,,,,,,,,,,,METAR,295.0
KLWT 180754Z AUTO 00000KT 10SM CLR M02/M07 A2990 RMK AO2 SLP152 T10221072,KLWT,2014-12-18T07:54:00Z,47.03,-109.47,-2.2,-7.2,0,0,,10.0,29.899607,1015.2,,TRUE,TRUE,,,,,,,CLR,,,,,,,,VFR,,,,,,,,,,,,METAR,1270.0
KMKC 180754Z 06004KT 1 1/2SM -SN BR SCT006 OVC015 M02/M03 A3024 RMK AO2 SLP249 P0011 T10171028,KMKC,2014-12-18T07:54:00Z,39.12,-94.6,-1.7,-2.8,60,4,,1.5,30.239174,1024.9,,,TRUE,,,,,,-SN BR,SCT,600,OVC,1500,,,,,IFR,,,,,,0.11,,,,,,METAR,227.0
KMNH 180754Z AUTO 19005KT 7SM SCT027 M06/M06 A2996 RMK AO2,KMNH,2014-12-18T07:54:00Z,39.22,-104.65,-6.0,-6.0,190,5,,7.0,29.958662,,,TRUE,TRUE,,,,,,,SCT,2700,,,,,,,VFR,,,,,,,,,,,,METAR,2152.0
KMOT 180754Z AUTO 13006KT 10SM SCT060 OVC090 M12/M14 A3011 RMK AO2 SLP232 T11221144,KMOT,2014-12-18T07:54:00Z,48.25,-101.27,-12.2,-14.4,130,6,,10.0,30.109253,1023.2,,TRUE,TRUE,,,,,,,SCT,6000,OVC,9000,,,,,VFR,,,,,,,,,,,,METAR,519.0
KMRY 180754Z AUTO 16003KT 9SM OVC033 11/09 A3007 RMK AO2 SLP195 T01060094 401500083,KMRY,2014-12-18T07:54:00Z,36.58,-121.85,10.6,9.4,160,3,,9.0,30.070866,1019.5,,TRUE,TRUE,,,,,,,OVC,3300,,,,,,,VFR,,,,15.0,8.3,,,,,,,METAR,66.0
KMVL 180754Z AUTO 36007KT 5SM -SN BR FEW007 BKN026 OVC031 01/M01 A2973 RMK AO2 SLP077 P0000 T00061006 TSNO,KMVL,2014-12-18T07:54:00Z,44.53,-72.62,0.6,-0.6,360,7,,5.0,29.731298,1007.7,,TRUE,TRUE,,,TRUE,,,-SN BR,FEW,700,BKN,2600,OVC,3100,,,MVFR,,,,,,0.0050,,,,,,METAR,234.0
KIZG 180754Z AUTO 00000KT 10SM OVC070 01/00 A2963 RMK AO2 SLP037 T00060000,KIZG,2014-12-18T07:54:00Z,43.98,-70.95,0.6,0.0,0,0,,10.0,29.630905,1003.7,,TRUE,TRUE,,,,,,,OVC,7000,,,,,,,VFR,,,,,,,,,,,,METAR,135.0
KIMT 180754Z AUTO 36011KT 10SM OVC015 M04/M08 A3024 RMK AO2 SLP259 T10441078,KIMT,2014-12-18T07:54:00Z,45.82,-88.12,-4.4,-7.8,360,11,,10.0,30.239174,1025.9,,TRUE,TRUE,,,,,,,OVC,1500,,,,,,,MVFR,,,,,,,,,,,,METAR,349.0
KNAK 180754Z AUTO 30010KT 10SM FEW050 03/M06 A3008 RMK AO2 SLP187 T00331056 $ ,KNAK,2014-12-18T07:54:00Z,38.98,-76.48,3.3,-5.6,300,10,,10.0,30.079725,1018.7,,TRUE,TRUE,TRUE,,,,,,FEW,5000,,,,,,,VFR,,,,,,,,,,,,METAR,2.0
K12N 180754Z AUTO 34005KT 02/M04 A2993 RMK AO1 SLP141 T00171039 ,K12N,2014-12-18T07:54:00Z,41.02,-74.73,1.7,-3.9,340,5,,,29.929134,1014.1,,TRUE,TRUE,,,,,,,,,,,,,,,,,,,,,,,,,,,METAR,177.0
KACY 180754Z 28010KT 10SM CLR 01/M05 A2999 RMK AO2 SLP157 T00111050 ,KACY,2014-12-18T07:54:00Z,39.45,-74.57,1.1,-5.0,280,10,,10.0,29.991142,1015.7,,,TRUE,,,,,,,CLR,,,,,,,,VFR,,,,,,,,,,,,METAR,23.0
KMTP 180754Z AUTO 28011G18KT 06/01 A2982 RMK AO1 SLP097 T00610006 ,KMTP,2014-12-18T07:54:00Z,41.07,-71.92,6.1,0.6,280,11,18,,29.819881,1009.7,,TRUE,TRUE,,,,,,,,,,,,,,,,,,,,,,,,,,,METAR,2.0
KAPN 180754Z AUTO 32006KT 10SM OVC014 M04/M07 A3015 RMK AO2 SLP219 T10391067,KAPN,2014-12-18T07:54:00Z,45.07,-83.57,-3.9,-6.7,320,6,,10.0,30.15059,1021.9,,TRUE,TRUE,,,,,,,OVC,1400,,,,,,,MVFR,,,,,,,,,,,,METAR,210.0
KNFG 180754Z AUTO 00000KT 9SM FEW070 11/08 A3012 RMK AO2 SLP199 T01060078 401720100 $,KNFG,2014-12-18T07:54:00Z,33.28,-117.33,10.6,7.8,0,0,,9.0,30.121063,1019.9,,TRUE,TRUE,TRUE,,,,,,FEW,7000,,,,,,,VFR,,,,17.2,10.0,,,,,,,METAR,24.0
PGUM 180754Z 06010KT 10SM CLR 28/24 A2991 RMK AO2 SLP119 T02830244,PGUM,2014-12-18T07:54:00Z,13.48,144.8,28.3,24.4,60,10,,10.0,29.911417,1011.9,,,TRUE,,,,,,,CLR,,,,,,,,VFR,,,,,,,,,,,,METAR,91.0
KOFP 180754Z AUTO 00000KT 10SM CLR M01/M04 A3012 RMK AO2 SLP201 T10111044,KOFP,2014-12-18T07:54:00Z,37.7,-77.43,-1.1,-4.4,0,0,,10.0,30.121063,1020.1,,TRUE,TRUE,,,,,,,CLR,,,,,,,,VFR,,,,,,,,,,,,METAR,62.0
KOLM 180754Z AUTO 20006KT 6SM BR BKN009 OVC019 07/06 A2994 RMK AO2 RAE06B31E41 CIG 006V013 SLP138 P0001 T00720061 400830011,KOLM,2014-12-18T07:54:00Z,46.97,-122.9,7.2,6.1,200,6,,6.0,29.940945,1013.8,,TRUE,TRUE,,,,,,BR,BKN,900,OVC,1900,,,,,IFR,,,,8.3,1.1,0.01,,,,,,METAR,58.0
KOLS 180754Z AUTO 00000KT 10SM OVC020 08/06 A3013 RMK AO2 SLP176 T00830056,KOLS,2014-12-18T07:54:00Z,31.42,-110.85,8.3,5.6,0,0,,10.0,30.129921,1017.6,,TRUE,TRUE,,,,,,,OVC,2000,,,,,,,MVFR,,,,,,,,,,,,METAR,1184.0
KUZA 180754Z AUTO 00000KT 10SM CLR 01/00 A3010 RMK AO2 SLP195 T00110000,KUZA,2014-12-18T07:54:00Z,34.98,-81.05,1.1,0.0,0,0,,10.0,30.100393,1019.5,,TRUE,TRUE,,,,,,,CLR,,,,,,,,VFR,,,,,,,,,,,,METAR,202.0
KVAY 180754Z AUTO 28008G18KT 10SM OVC065 03/M06 A2999 RMK AO2 SLP155 T00281061,KVAY,2014-12-18T07:54:00Z,39.93,-74.83,2.8,-6.1,280,8,18,10.0,29.991142,1015.5,,TRUE,TRUE,,,,,,,OVC,6500,,,,,,,VFR,,,,,,,,,,,,METAR,15.0
KVSF 180754Z AUTO 28007KT 240V310 10SM BKN032 OVC055 03/M02 A2973 RMK AO2 SLP074 T00281022 TSNO,KVSF,2014-12-18T07:54:00Z,43.35,-72.52,2.8,-2.2,280,7,,10.0,29.731298,1007.4,,TRUE,TRUE,,,TRUE,,,,BKN,3200,OVC,5500,,,,,VFR,,,,,,,,,,,,METAR,175.0
KVTA 180754Z AUTO 31008KT 10SM OVC023 M02/M07 A3024 RMK AO2 SLP248 T10221072,KVTA,2014-12-18T07:54:00Z,40.02,-82.47,-2.2,-7.2,310,8,,10.0,30.239174,1024.8,,TRUE,TRUE,,,,,,,OVC,2300,,,,,,,MVFR,,,,,,,,,,,,METAR,268.0
KWAL 180754Z AUTO 33006KT 10SM CLR 02/M03 A3007 RMK AO2 SLP178 T00171033,KWAL,2014-12-18T07:54:00Z,37.93,-75.47,1.7,-3.3,330,6,,10.0,30.070866,1017.8,,TRUE,TRUE,,,,,,,CLR,,,,,,,,VFR,,,,,,,,,,,,METAR,14.0
KRKS 180754Z AUTO 00000KT 10SM BKN044 M08/M10 A3002 RMK AO2 SLP215 T10831100,KRKS,2014-12-18T07:54:00Z,41.6,-109.07,-8.3,-10.0,0,0,,10.0,30.02067,1021.5,,TRUE,TRUE,,,,,,,BKN,4400,,,,,,,VFR,,,,,,,,,,,,METAR,2060.0
PAHN 180754Z AUTO 31006KT 10SM FEW012 02/M01 A2973 RMK AO2 SLP071 T00171006 TSNO,PAHN,2014-12-18T07:54:00Z,59.25,-135.52,1.7,-0.6,310,6,,10.0,29.731298,1007.1,,TRUE,TRUE,,,TRUE,,,,FEW,1200,,,,,,,VFR,,,,,,,,,,,,METAR,5.0
PGSN 180754Z 05009KT 10SM SCT028 27/23 A2993 RMK AO2 SLP156 T02720233 PNO $,PGSN,2014-12-18T07:54:00Z,15.12,145.72,27.2,23.3,50,9,,10.0,29.929134,1015.6,,,TRUE,TRUE,,,,,,SCT,2800,,,,,,,VFR,,,,,,,,,,,,METAR,65.0
PHOG 180754Z 05013G21KT 10SM -RA SCT046 SCT055 22/19 A3017 RMK AO2 RAE02B38 SLP220 P0001 T02220194 $,PHOG,2014-12-18T07:54:00Z,20.9,-156.43,22.2,19.4,50,13,21,10.0,30.171259,1022.0,,,TRUE,TRUE,,,,,-RA,SCT,4600,SCT,5500,,,,,VFR,,,,,,0.01,,,,,,METAR,12.0
PHMK 180754Z AUTO 05011G21KT 10SM CLR 22/19 A3017 RMK AO2 SLP217 T02220189 TSNO,PHMK,2014-12-18T07:54:00Z,21.15,-157.1,22.2,18.9,50,11,21,10.0,30.171259,1021.7,,TRUE,TRUE,,,TRUE,,,,CLR,,,,,,,,VFR,,,,,,,,,,,,METAR,141.0
KLNK 180754Z AUTO 11004KT 10SM OVC070 M03/M07 A3023 RMK AO2 SLP251 T10281072,KLNK,2014-12-18T07:54:00Z,40.85,-96.77,-2.8,-7.2,110,4,,10.0,30.230314,1025.1,,TRUE,TRUE,,,,,,,OVC,7000,,,,,,,VFR,,,,,,,,,,,,METAR,364.0
KLEX 180754Z 36006KT 10SM OVC016 M02/M06 A3026 RMK AO2 SLP254 T10221056,KLEX,2014-12-18T07:54:00Z,38.03,-84.6,-2.2,-5.6,360,6,,10.0,30.259842,1025.4,,,TRUE,,,,,,,OVC,1600,,,,,,,MVFR,,,,,,,,,,,,METAR,300.0
KLBT 180754Z AUTO 00000KT 10SM CLR 03/01 A3009 RMK AO2 SLP189 T00280011,KLBT,2014-12-18T07:54:00Z,34.6,-79.07,2.8,1.1,0,0,,10.0,30.088583,1018.9,,TRUE,TRUE,,,,,,,CLR,,,,,,,,VFR,,,,,,,,,,,,METAR,37.0
KLAF 180754Z AUTO 00000KT 10SM OVC021 M04/M08 A3030 RMK AO2 SLP270 T10391083 TSNO,KLAF,2014-12-18T07:54:00Z,40.42,-86.93,-3.9,-8.3,0,0,,10.0,30.301182,1027.0,,TRUE,TRUE,,,TRUE,,,,OVC,2100,,,,,,,MVFR,,,,,,,,,,,,METAR,182.0
KJST 180754Z AUTO 29014G22KT 8SM -SN OVC016 M05/M08 A3004 RMK AO2 SLP202 P0000 T10501083,KJST,2014-12-18T07:54:00Z,40.32,-78.83,-5.0,-8.3,290,14,22,8.0,30.041338,1020.2,,TRUE,TRUE,,,,,,-SN,OVC,1600,,,,,,,MVFR,,,,,,0.0050,,,,,,METAR,694.0
KJAN 180754Z AUTO 00000KT 10SM OVC090 07/04 A3020 RMK AO2 SLP227 T00720044,KJAN,2014-12-18T07:54:00Z,32.32,-90.08,7.2,4.4,0,0,,10.0,30.200787,1022.7,,TRUE,TRUE,,,,,,,OVC,9000,,,,,,,VFR,,,,,,,,,,,,METAR,91.0
KISW 180754Z AUTO 32003KT 10SM OVC015 M07/M10 A3028 RMK AO2 SLP271 T10671100,KISW,2014-12-18T07:54:00Z,44.37,-89.83,-6.7,-10.0,320,3,,10.0,30.280512,1027.1,,TRUE,TRUE,,,,,,,OVC,1500,,,,,,,MVFR,,,,,,,,,,,,METAR,307.0
KIPT 180754Z AUTO 28013G19KT 10SM OVC041 01/M06 A3002 RMK AO2 SLP169 T00111061,KIPT,2014-12-18T07:54:00Z,41.25,-76.92,1.1,-6.1,280,13,19,10.0,30.02067,1016.9,,TRUE,TRUE,,,,,,,OVC,4100,,,,,,,VFR,,,,,,,,,,,,METAR,164.0
KINT 180754Z AUTO 34006KT 10SM CLR 04/M04 A3012 RMK AO2 SLP197 T00441044,KINT,2014-12-18T07:54:00Z,36.13,-80.22,4.4,-4.4,340,6,,10.0,30.121063,1019.7,,TRUE,TRUE,,,,,,,CLR,,,,,,,,VFR,,,,,,,,,,,,METAR,291.0
KIND 180754Z 36005KT 10SM OVC017 M04/M08 A3028 RMK AO2 SLP264 T10441078,KIND,2014-12-18T07:54:00Z,39.72,-86.3,-4.4,-7.8,360,5,,10.0,30.280512,1026.4,,,TRUE,,,,,,,OVC,1700,,,,,,,MVFR,,,,,,,,,,,,METAR,241.0
KILN 180754Z AUTO 25006KT 10SM OVC027 M04/M08 A3026 RMK AO2 SLP276 T10391078,KILN,2014-12-18T07:54:00Z,39.43,-83.8,-3.9,-7.8,250,6,,10.0,30.259842,1027.6,,TRUE,TRUE,,,,,,,OVC,2700,,,,,,,MVFR,,,,,,,,,,,,METAR,322.0
KHWD 180754Z AUTO 10006KT 10SM FEW019 OVC035 12/09 A3007 RMK AO2 RAE23B41E53 SLP192 P0000 T01170094 401560094,KHWD,2014-12-18T07:54:00Z,37.67,-122.12,11.7,9.4,100,6,,10.0,30.070866,1019.2,,TRUE,TRUE,,,,,,,FEW,1900,OVC,3500,,,,,VFR,,,,15.6,9.4,0.0050,,,,,,METAR,21.0
PAKN 180754Z 02010KT 10SM SCT130 M02/M04 A2937 RMK AO2 SLP946 T10171044,PAKN,2014-12-18T07:54:00Z,58.68,-156.65,-1.7,-4.4,20,10,,10.0,29.371063,994.6,,,TRUE,,,,,,,SCT,13000,,,,,,,VFR,,,,,,,,,,,,METAR,17.0
KRQB 180754Z AUTO 28006KT 7SM OVC007 M01/M01 A3017 RMK AO2 T10141015,KRQB,2014-12-18T07:54:00Z,43.72,-85.5,-1.4,-1.5,280,6,,7.0,30.171259,,,TRUE,TRUE,,,,,,,OVC,700,,,,,,,IFR,,,,,,,,,,,,METAR,302.0
KRNP 180754Z AUTO 27009KT 10SM OVC026 M02/M03 A3018 RMK AO2 T10171032,KRNP,2014-12-18T07:54:00Z,43.0,-84.13,-1.7,-3.2,270,9,,10.0,30.180119,,,TRUE,TRUE,,,,,,,OVC,2600,,,,,,,MVFR,,,,,,,,,,,,METAR,224.0
KPZQ 180754Z AUTO 32008KT 10SM OVC014 M04/M05 A3016 RMK AO2 T10401055,KPZQ,2014-12-18T07:54:00Z,45.4,-83.82,-4.0,-5.5,320,8,,10.0,30.159449,,,TRUE,TRUE,,,,,,,OVC,1400,,,,,,,MVFR,,,,,,,,,,,,METAR,204.0
KMGN 180754Z AUTO 04004KT 10SM OVC014 M04/M07 A3018 RMK AO2 T10431069,KMGN,2014-12-18T07:54:00Z,45.43,-84.92,-4.3,-6.9,40,4,,10.0,30.180119,,,TRUE,TRUE,,,,,,,OVC,1400,,,,,,,MVFR,,,,,,,,,,,,METAR,209.0
KJYM 180754Z AUTO 28008KT 10SM OVC018 M02/M05 A3019 RMK AO2 T10231051,KJYM,2014-12-18T07:54:00Z,41.92,-84.58,-2.3,-5.1,280,8,,10.0,30.188976,,,TRUE,TRUE,,,,,,,OVC,1800,,,,,,,MVFR,,,,,,,,,,,,METAR,360.0
KJYG 180754Z AUTO 00000KT 10SM OVC013 M11/M12 A3032 RMK AO2,KJYG,2014-12-18T07:54:00Z,43.98,-94.55,-11.0,-12.0,0,0,,10.0,30.318897,,,TRUE,TRUE,,,,,,,OVC,1300,,,,,,,MVFR,,,,,,,,,,,,METAR,325.0
KHAI 180754Z AUTO 27006KT 10SM OVC025 M02/M05 A3024 RMK AO2 T10171055,KHAI,2014-12-18T07:54:00Z,41.97,-85.6,-1.7,-5.5,270,6,,10.0,30.239174,,,TRUE,TRUE,,,,,,,OVC,2500,,,,,,,MVFR,,,,,,,,,,,,METAR,251.0
KDUH 180754Z AUTO 27007KT 10SM OVC026 00/M05 A3021 RMK AO2,KDUH,2014-12-18T07:54:00Z,41.73,-83.65,0.0,-5.0,270,7,,10.0,30.209646,,,TRUE,TRUE,,,,,,,OVC,2600,,,,,,,MVFR,,,,,,,,,,,,METAR,204.0
KCVX 180754Z AUTO 34007KT 10SM OVC013 M03/M05 A3022 RMK AO2 T10301046,KCVX,2014-12-18T07:54:00Z,45.3,-85.27,-3.0,-4.6,340,7,,10.0,30.221457,,,TRUE,TRUE,,,,,,,OVC,1300,,,,,,,MVFR,,,,,,,,,,,,METAR,204.0
KCQM 180754Z AUTO 00000KT 10SM SCT014 M21/M22 A3031 RMK AO2,KCQM,2014-12-18T07:54:00Z,47.82,-92.68,-21.0,-22.0,0,0,,10.0,30.31004,,,TRUE,TRUE,,,,,,,SCT,1400,,,,,,,VFR,,,,,,,,,,,,METAR,404.0
KCNB 180754Z AUTO 00000KT 10SM CLR M16/M18 A3030 RMK AO2 T11651180,KCNB,2014-12-18T07:54:00Z,44.73,-96.27,-16.5,-18.0,0,0,,10.0,30.301182,,,TRUE,TRUE,,,,,,,CLR,,,,,,,,VFR,,,,,,,,,,,,METAR,364.0
KCFS 180754Z AUTO 27010KT 5SM BR BKN008 OVC015 M01/M02 A3015 RMK AO2 T10141023,KCFS,2014-12-18T07:54:00Z,43.47,-83.45,-1.4,-2.3,270,10,,5.0,30.15059,,,TRUE,TRUE,,,,,,BR,BKN,800,OVC,1500,,,,,IFR,,,,,,,,,,,,METAR,214.0
KCFE 180754Z AUTO 00000KT 10SM CLR M12/M14 A3034 RMK AO2 T11231137,KCFE,2014-12-18T07:54:00Z,45.17,-93.85,-12.3,-13.7,0,0,,10.0,30.339567,,,TRUE,TRUE,,,,,,,CLR,,,,,,,,VFR,,,,,,,,,,,,METAR,295.0
KTAD 180754Z AUTO 27010KT 10SM CLR M04/M07 A2998 RMK AO2 SLP162 T10441067,KTAD,2014-12-18T07:54:00Z,37.27,-104.33,-4.4,-6.7,270,10,,10.0,29.97933,1016.2,,TRUE,TRUE,,,,,,,CLR,,,,,,,,VFR,,,,,,,,,,,,METAR,1756.0
KSYR 180754Z 25016KT 9SM -SN FEW012 BKN030 OVC041 M01/M02 A2994 RMK AO2 SLP141 P0000 T10061022 $,KSYR,2014-12-18T07:54:00Z,43.12,-76.1,-0.6,-2.2,250,16,,9.0,29.940945,1014.1,,,TRUE,TRUE,,,,,-SN,FEW,1200,BKN,3000,OVC,4100,,,MVFR,,,,,,0.0050,,,,,,METAR,127.0
KSUS 180754Z AUTO 09004KT 10SM OVC075 A3027 RMK AO2 SLPNO $,KSUS,2014-12-18T07:54:00Z,38.65,-90.65,,,90,4,,10.0,30.268702,,,TRUE,TRUE,TRUE,,,,,,OVC,7500,,,,,,,VFR,,,,,,,,,,,,METAR,141.0
KSJN 180754Z AUTO 00000KT 9SM BKN070 M01/M02 A3011 RMK AO2 SLP191 T10111022,KSJN,2014-12-18T07:54:00Z,34.52,-109.38,-1.1,-2.2,0,0,,9.0,30.109253,1019.1,,TRUE,TRUE,,,,,,,BKN,7000,,,,,,,VFR,,,,,,,,,,,,METAR,1745.0
KTQE 180754Z AUTO 08005KT 10SM OVC090 M03/M07 A3025 RMK AO2 SLP254 T10281067,KTQE,2014-12-18T07:54:00Z,41.77,-96.18,-2.8,-6.7,80,5,,10.0,30.250984,1025.4,,TRUE,TRUE,,,,,,,OVC,9000,,,,,,,VFR,,,,,,,,,,,,METAR,312.0
KBKB 180754Z AUTO 00000KT 10SM OVC024 12/06 A3013 RMK AO2 SLP233 T01170061 $ ,KBKB,2014-12-18T07:54:00Z,31.0,-92.92,11.7,6.1,0,0,,10.0,30.129921,1023.3,,TRUE,TRUE,TRUE,,,,,,OVC,2400,,,,,,,MVFR,,,,,,,,,,,,METAR,94.0
K04V 180754Z AUTO 00000KT 5SM UP BKN004 OVC009 M03/M03 A3003 RMK AO2,K04V,2014-12-18T07:54:00Z,38.1,-106.17,-3.0,-3.0,0,0,,5.0,30.029528,,,TRUE,TRUE,,,,,,UP,BKN,400,OVC,900,,,,,LIFR,,,,,,,,,,,,METAR,2385.0
K20V 180754Z AUTO 00000KT 10SM -SN OVC034 M07/M08 A3004 RMK AO2,K20V,2014-12-18T07:54:00Z,40.05,-106.37,-7.0,-8.0,0,0,,10.0,30.041338,,,TRUE,TRUE,,,,,,-SN,OVC,3400,,,,,,,VFR,,,,,,,,,,,,METAR,2259.0
KSHV 180754Z 09007KT 5SM -RA BR SCT006 OVC030 07/06 A3016 RMK AO2 RAB39 P0002,KSHV,2014-12-18T07:54:00Z,32.45,-93.83,7.0,6.0,90,7,,5.0,30.159449,,,,TRUE,,,,,,-RA BR,SCT,600,OVC,3000,,,,,MVFR,,,,,,0.02,,,,,,SPECI,83.0
KSET 180754Z AUTO 07007KT 10SM OVC080 M02/M05 A3028 RMK AO2 SLP257 T10171050 $,KSET,2014-12-18T07:54:00Z,38.93,-90.43,-1.7,-5.0,70,7,,10.0,30.280512,1025.7,,TRUE,TRUE,TRUE,,,,,,OVC,8000,,,,,,,VFR,,,,,,,,,,,,METAR,134.0
KSBY 180754Z AUTO 30011KT 10SM CLR 03/M04 A3006 RMK AO2 SLP180 T00331044,KSBY,2014-12-18T07:54:00Z,38.33,-75.5,3.3,-4.4,300,11,,10.0,30.059055,1018.0,,TRUE,TRUE,,,,,,,CLR,,,,,,,,VFR,,,,,,,,,,,,METAR,19.0
KSBN 180754Z 30006KT 10SM OVC019 M02/M06 A3026 RMK AO2 SLP256 T10221061,KSBN,2014-12-18T07:54:00Z,41.7,-86.32,-2.2,-6.1,300,6,,10.0,30.259842,1025.6,,,TRUE,,,,,,,OVC,1900,,,,,,,MVFR,,,,,,,,,,,,METAR,237.0
KRST 180754Z 00000KT 9SM BKN012 M10/M12 A3028 RMK AO2 SLP279 T11001122,KRST,2014-12-18T07:54:00Z,43.9,-92.5,-10.0,-12.2,0,0,,9.0,30.280512,1027.9,,,TRUE,,,,,,,BKN,1200,,,,,,,MVFR,,,,,,,,,,,,METAR,403.0
KROC 180754Z 26014KT 10SM SCT021 BKN028 OVC035 M01/M04 A3000 RMK AO2 SLP167 BINOVC T10061039,KROC,2014-12-18T07:54:00Z,43.12,-77.68,-0.6,-3.9,260,14,,10.0,30.0,1016.7,,,TRUE,,,,,,,SCT,2100,BKN,2800,OVC,3500,,,MVFR,,,,,,,,,,,,METAR,178.0
KROA 180754Z 30011KT 10SM CLR 02/M06 A3012 RMK AO2 SLP204 T00221061,KROA,2014-12-18T07:54:00Z,37.32,-79.97,2.2,-6.1,300,11,,10.0,30.121063,1020.4,,,TRUE,,,,,,,CLR,,,,,,,,VFR,,,,,,,,,,,,METAR,362.0
KRIC 180754Z 00000KT 10SM FEW250 02/M04 A3011 RMK AO2 SLP201 T00221039,KRIC,2014-12-18T07:54:00Z,37.52,-77.32,2.2,-3.9,0,0,,10.0,30.109253,1020.1,,,TRUE,,,,,,,FEW,25000,,,,,,,VFR,,,,,,,,,,,,METAR,50.0
KRFD 180754Z 36004KT 10SM OVC019 M05/M10 A3030 RMK AO2 SLP271 T10501100,KRFD,2014-12-18T07:54:00Z,42.2,-89.1,-5.0,-10.0,360,4,,10.0,30.301182,1027.1,,,TRUE,,,,,,,OVC,1900,,,,,,,MVFR,,,,,,,,,,,,METAR,221.0
KRDG 180754Z 29014KT 10SM CLR 01/M07 A3001 RMK AO2 PK WND 30026/0717 SLP169 T00111072,KRDG,2014-12-18T07:54:00Z,40.37,-75.97,1.1,-7.2,290,14,,10.0,30.008858,1016.9,,,TRUE,,,,,,,CLR,,,,,,,,VFR,,,,,,,,,,,,METAR,109.0
KRBL 180754Z AUTO 14011KT 10SM BKN006 OVC013 10/09 A3010 RMK AO2 RAE32 CIG 004V010 SLP193 P0000 T01000089 401220094,KRBL,2014-12-18T07:54:00Z,40.15,-122.25,10.0,8.9,140,11,,10.0,30.100393,1019.3,,TRUE,TRUE,,,,,,,BKN,600,OVC,1300,,,,,IFR,,,,12.2,9.4,0.0050,,,,,,METAR,104.0
KPTW 180754Z AUTO 29008G16KT 10SM CLR 01/M06 A3000 RMK AO2 SLP160 T00061061,KPTW,2014-12-18T07:54:00Z,40.23,-75.55,0.6,-6.1,290,8,16,10.0,30.0,1016.0,,TRUE,TRUE,,,,,,,CLR,,,,,,,,VFR,,,,,,,,,,,,METAR,92.0
KPSF 180754Z AUTO 28014G28KT 2SM -SN BR BKN010 OVC024 M01/M02 A2977 RMK AO2 PK WND 29028/0750 SLP086 P0000 T10061017,KPSF,2014-12-18T07:54:00Z,42.43,-73.28,-0.6,-1.7,280,14,28,2.0,29.769686,1008.6,,TRUE,TRUE,,,,,,-SN BR,BKN,1000,OVC,2400,,,,,IFR,,,,,,0.0050,,,,,,METAR,355.0
KPNE 180754Z AUTO 30013G23KT 10SM CLR 03/M07 A3000 RMK AO2 SLP158 T00331072 TSNO $,KPNE,2014-12-18T07:54:00Z,40.08,-75.02,3.3,-7.2,300,13,23,10.0,30.0,1015.8,,TRUE,TRUE,TRUE,,TRUE,,,,CLR,,,,,,,,VFR,,,,,,,,,,,,METAR,28.0
KPLN 180754Z AUTO 34008KT 10SM OVC015 M04/M07 A3019 RMK AO2 SLP234 T10441072,KPLN,2014-12-18T07:54:00Z,45.57,-84.8,-4.4,-7.2,340,8,,10.0,30.188976,1023.4,,TRUE,TRUE,,,,,,,OVC,1500,,,,,,,MVFR,,,,,,,,,,,,METAR,217.0
KPIA 180754Z 00000KT 10SM CLR M06/M09 A3032 RMK AO2 SLP275 T10611089,KPIA,2014-12-18T07:54:00Z,40.67,-89.68,-6.1,-8.9,0,0,,10.0,30.318897,1027.5,,,TRUE,,,,,,,CLR,,,,,,,,VFR,,,,,,,,,,,,METAR,205.0
KPHL 180754Z 29012KT 10SM FEW060 03/M06 A3002 RMK AO2 SLP164 T00281056,KPHL,2014-12-18T07:54:00Z,39.87,-75.23,2.8,-5.6,290,12,,10.0,30.02067,1016.4,,,TRUE,,,,,,,FEW,6000,,,,,,,VFR,,,,,,,,,,,,METAR,18.0
KPHF 180754Z 36006KT 10SM CLR 05/M03 A3010 RMK AO2 SLP192 T00501028,KPHF,2014-12-18T07:54:00Z,37.13,-76.5,5.0,-2.8,360,6,,10.0,30.100393,1019.2,,,TRUE,,,,,,,CLR,,,,,,,,VFR,,,,,,,,,,,,METAR,12.0
KORH 180754Z AUTO 28017G25KT 10SM BKN065 OVC080 01/M02 A2969 RMK AO2 PK WND 28027/0711 SLP063 T00111022,KORH,2014-12-18T07:54:00Z,42.27,-71.87,1.1,-2.2,280,17,25,10.0,29.68996,1006.3,,TRUE,TRUE,,,,,,,BKN,6500,OVC,8000,,,,,VFR,,,,,,,,,,,,METAR,304.0
KECG 180754Z AUTO 34005KT 10SM CLR 07/01 A3008 RMK AO2 SLP186 T00670006 TSNO,KECG,2014-12-18T07:54:00Z,36.27,-76.18,6.7,0.6,340,5,,10.0,30.079725,1018.6,,TRUE,TRUE,,,TRUE,,,,CLR,,,,,,,,VFR,,,,,,,,,,,,METAR,11.0
KDYL 180754Z AUTO 28010KT 10SM BKN038 OVC070 01/M06 A2996 RMK AO2 SLP152 T00111056,KDYL,2014-12-18T07:54:00Z,40.33,-75.12,1.1,-5.6,280,10,,10.0,29.958662,1015.2,,TRUE,TRUE,,,,,,,BKN,3800,OVC,7000,,,,,VFR,,,,,,,,,,,,METAR,117.0
KDSV 180754Z AUTO 30009G20KT 10SM OVC025 00/M05 A3003 RMK AO2 SLP183 T00001050,KDSV,2014-12-18T07:54:00Z,42.57,-77.72,0.0,-5.0,300,9,20,10.0,30.029528,1018.3,,TRUE,TRUE,,,,,,,OVC,2500,,,,,,,MVFR,,,,,,,,,,,,METAR,198.0
KDSM 180754Z 07005KT 10SM OVC085 M05/M08 A3029 RMK AO2 SLP268 T10501083,KDSM,2014-12-18T07:54:00Z,41.53,-93.67,-5.0,-8.3,70,5,,10.0,30.28937,1026.8,,,TRUE,,,,,,,OVC,8500,,,,,,,VFR,,,,,,,,,,,,METAR,295.0
KDEC 180754Z AUTO 00000KT 9SM OVC020 M04/M07 A3029 RMK AO2 SLP266 T10391067 TSNO,KDEC,2014-12-18T07:54:00Z,39.83,-88.85,-3.9,-6.7,0,0,,9.0,30.28937,1026.6,,TRUE,TRUE,,,TRUE,,,,OVC,2000,,,,,,,MVFR,,,,,,,,,,,,METAR,207.0
KDDH 180754Z AUTO 24007G15KT 2 1/2SM -SN BR BKN009 BKN013 OVC028 00/M02 A2979 RMK AO2 SLP095 P0000 T00001017,KDDH,2014-12-18T07:54:00Z,42.9,-73.25,0.0,-1.7,240,7,15,2.5,29.790354,1009.5,,TRUE,TRUE,,,,,,-SN BR,BKN,900,BKN,1300,OVC,2800,,,IFR,,,,,,0.0050,,,,,,METAR,244.0
KCRW 180754Z 35005KT 10SM OVC029 00/M05 A3023 RMK AO2 SLP242 T00001050,KCRW,2014-12-18T07:54:00Z,38.38,-81.58,0.0,-5.0,350,5,,10.0,30.230314,1024.2,,,TRUE,,,,,,,OVC,2900,,,,,,,MVFR,,,,,,,,,,,,METAR,309.0
KCOU 180754Z AUTO 05004KT 10SM OVC055 M01/M03 A3026 RMK AO2 SLP254 T10061033,KCOU,2014-12-18T07:54:00Z,38.82,-92.22,-0.6,-3.3,50,4,,10.0,30.259842,1025.4,,TRUE,TRUE,,,,,,,OVC,5500,,,,,,,VFR,,,,,,,,,,,,METAR,271.0
KCOS 180754Z 33003KT 4SM -SN BR BKN002 OVC090 M02/M03 A2999 RMK AO2 SLP185 PCPN VRY LGT P0000 T10221028,KCOS,2014-12-18T07:54:00Z,38.82,-104.68,-2.2,-2.8,330,3,,4.0,29.991142,1018.5,,,TRUE,,,,,,-SN BR,BKN,200,OVC,9000,,,,,LIFR,,,,,,0.0050,,,,,,METAR,1856.0
KCEU 180754Z AUTO 00000KT 7SM CLR 04/02 A3009 RMK AO2 SLP187 T00440022,KCEU,2014-12-18T07:54:00Z,34.67,-82.88,4.4,2.2,0,0,,7.0,30.088583,1018.7,,TRUE,TRUE,,,,,,,CLR,,,,,,,,VFR,,,,,,,,,,,,METAR,268.0
KCAR 180754Z AUTO 01012KT 1 1/2SM -SN BR OVC012 M02/M04 A2963 RMK AO2 SLP045 P0003 T10221039,KCAR,2014-12-18T07:54:00Z,46.87,-68.02,-2.2,-3.9,10,12,,1.5,29.630905,1004.5,,TRUE,TRUE,,,,,,-SN BR,OVC,1200,,,,,,,IFR,,,,,,0.03,,,,,,METAR,191.0
KBWI 180754Z 29008G18KT 10SM BKN050 03/M07 A3007 RMK AO2 PK WND 29028/0720 SLP183 T00281067,KBWI,2014-12-18T07:54:00Z,39.17,-76.68,2.8,-6.7,290,8,18,10.0,30.070866,1018.3,,,TRUE,,,,,,,BKN,5000,,,,,,,VFR,,,,,,,,,,,,METAR,59.0
KBUY 180754Z AUTO 33003KT 10SM CLR 04/M03 A3010 RMK AO2 SLP194 T00441028,KBUY,2014-12-18T07:54:00Z,36.05,-79.47,4.4,-2.8,330,3,,10.0,30.100393,1019.4,,TRUE,TRUE,,,,,,,CLR,,,,,,,,VFR,,,,,,,,,,,,METAR,180.0
KBUF 180754Z 25014KT 10SM OVC026 M01/M05 A3003 RMK AO2 SLP179 T10111050,KBUF,2014-12-18T07:54:00Z,42.93,-78.73,-1.1,-5.0,250,14,,10.0,30.029528,1017.9,,,TRUE,,,,,,,OVC,2600,,,,,,,MVFR,,,,,,,,,,,,METAR,211.0
KBTV 180754Z AUTO 00000KT 4SM R15/4500VP6000FT -RA BR SCT016 BKN025 OVC046 01/00 A2976 RMK AO2 RAB51 SLP081 P0000 T00110000,KBTV,2014-12-18T07:54:00Z,44.47,-73.15,1.1,0.0,0,0,,4.0,29.760826,1008.1,,TRUE,TRUE,,,,,,-RA BR,SCT,1600,BKN,2500,OVC,4600,,,MVFR,,,,,,0.0050,,,,,,METAR,105.0
KGSO 180754Z 35007KT 10SM CLR 05/M02 A3009 RMK AO2 SLP191 T00501022,KGSO,2014-12-18T07:54:00Z,36.1,-79.95,5.0,-2.2,350,7,,10.0,30.088583,1019.1,,,TRUE,,,,,,,CLR,,,,,,,,VFR,,,,,,,,,,,,METAR,275.0
KGED 180754Z AUTO 31007KT 280V340 10SM BKN042 03/M05 A3005 RMK AO2 SLP177 T00331050,KGED,2014-12-18T07:54:00Z,38.68,-75.37,3.3,-5.0,310,7,,10.0,30.050198,1017.7,,TRUE,TRUE,,,,,,,BKN,4200,,,,,,,VFR,,,,,,,,,,,,METAR,19.0
KGCN 180754Z 21004KT 10SM OVC003 M01/M01 A3010 RMK AO2 SLP189 T10061011 $,KGCN,2014-12-18T07:54:00Z,35.95,-112.15,-0.6,-1.1,210,4,,10.0,30.100393,1018.9,,,TRUE,TRUE,,,,,,OVC,300,,,,,,,LIFR,,,,,,,,,,,,METAR,2016.0
KGCK 180754Z AUTO 08007KT 7SM OVC005 M02/M02 A3004 RMK AO2 SLP190 T10171022,KGCK,2014-12-18T07:54:00Z,37.92,-100.72,-1.7,-2.2,80,7,,7.0,30.041338,1019.0,,TRUE,TRUE,,,,,,,OVC,500,,,,,,,IFR,,,,,,,,,,,,METAR,877.0
KFZY 180754Z AUTO 28013KT 4SM -SN OVC012 01/M02 A2993 RMK AO2 SLP141 P0000 T00061022,KFZY,2014-12-18T07:54:00Z,43.35,-76.38,0.6,-2.2,280,13,,4.0,29.929134,1014.1,,TRUE,TRUE,,,,,,-SN,OVC,1200,,,,,,,MVFR,,,,,,0.0050,,,,,,METAR,138.0
KFWA 180754Z 28005KT 10SM OVC022 M03/M06 A3026 RMK AO2 SLP259 T10281061,KFWA,2014-12-18T07:54:00Z,40.98,-85.18,-2.8,-6.1,280,5,,10.0,30.259842,1025.9,,,TRUE,,,,,,,OVC,2200,,,,,,,MVFR,,,,,,,,,,,,METAR,248.0
KFLY 180754Z AUTO 32003KT 10SM CLR M05/M05 A2998 RMK AO2 T10511053,KFLY,2014-12-18T07:54:00Z,38.95,-104.57,-5.1,-5.3,320,3,,10.0,29.97933,,,TRUE,TRUE,,,,,,,CLR,,,,,,,,VFR,,,,,,,,,,,,METAR,2096.0
KFIG 180754Z AUTO 26008G22KT 7SM -SN FEW023 SCT028 OVC039 M03/M07 A3006 RMK AO2 SLP197 P0000 T10281067,KFIG,2014-12-18T07:54:00Z,41.05,-78.42,-2.8,-6.7,260,8,22,7.0,30.059055,1019.7,,TRUE,TRUE,,,,,,-SN,FEW,2300,SCT,2800,OVC,3900,,,VFR,,,,,,0.0050,,,,,,METAR,462.0
KEWN 180754Z AUTO 26003KT 10SM CLR 07/04 A3009 RMK AO2 SLP190 T00720039,KEWN,2014-12-18T07:54:00Z,35.07,-77.05,7.2,3.9,260,3,,10.0,30.088583,1019.0,,TRUE,TRUE,,,,,,,CLR,,,,,,,,VFR,,,,,,,,,,,,METAR,3.0
KEVV 180754Z AUTO 02003KT 10SM CLR M01/M04 A3033 RMK AO2 SLP273 T10061044,KEVV,2014-12-18T07:54:00Z,38.05,-87.52,-0.6,-4.4,20,3,,10.0,30.33071,1027.3,,TRUE,TRUE,,,,,,,CLR,,,,,,,,VFR,,,,,,,,,,,,METAR,117.0
KEUG 180754Z AUTO 17005KT 10SM BKN046 OVC080 07/06 A2998 RMK AO2 SLP154 T00720061 401060044,KEUG,2014-12-18T07:54:00Z,44.13,-123.22,7.2,6.1,170,5,,10.0,29.97933,1015.4,,TRUE,TRUE,,,,,,,BKN,4600,OVC,8000,,,,,VFR,,,,10.6,4.4,,,,,,,METAR,114.0
KWLD 180754Z AUTO 09006KT 5SM UP BR BKN006 OVC012 00/M01 A3015 RMK AO2 UPB35 CIG 004V008 SLP219 P0000 I1001 T00001006,KWLD,2014-12-18T07:54:00Z,37.17,-97.03,0.0,-0.6,90,6,,5.0,30.15059,1021.9,,TRUE,TRUE,,,,,,BR UP,BKN,600,OVC,1200,,,,,IFR,,,,,,0.0050,,,,,,METAR,350.0
KUIN 180754Z AUTO 03004KT 10SM OVC090 M04/M06 A3027 RMK AO2 SLP261 T10391061,KUIN,2014-12-18T07:54:00Z,39.95,-91.2,-3.9,-6.1,30,4,,10.0,30.268702,1026.1,,TRUE,TRUE,,,,,,,OVC,9000,,,,,,,VFR,,,,,,,,,,,,METAR,234.0
KY63 180754Z AUTO 11004KT 10SM CLR M13/M14 A3028 RMK AO2 T11271140,KY63,2014-12-18T07:54:00Z,45.98,-96.0,-12.7,-14.0,110,4,,10.0,30.280512,,,TRUE,TRUE,,,,,,,CLR,,,,,,,,VFR,,,,,,,,,,,,METAR,367.0
KTOB 180754Z AUTO 00000KT 10SM CLR M11/M12 A3027 RMK AO2,KTOB,2014-12-18T07:54:00Z,44.02,-92.82,-11.0,-12.0,0,0,,10.0,30.268702,,,TRUE,TRUE,,,,,,,CLR,,,,,,,,VFR,,,,,,,,,,,,METAR,398.0
KSYN 180754Z AUTO 20003KT 10SM CLR M12/M14 A3031 RMK AO2 T11201138,KSYN,2014-12-18T07:54:00Z,44.47,-93.02,-12.0,-13.8,200,3,,10.0,30.31004,,,TRUE,TRUE,,,,,,,CLR,,,,,,,,VFR,,,,,,,,,,,,METAR,280.0
KSAZ 180754Z AUTO 00000KT 10SM CLR M16/M17 A3029 RMK AO2,KSAZ,2014-12-18T07:54:00Z,46.37,-94.8,-16.0,-17.0,0,0,,10.0,30.28937,,,TRUE,TRUE,,,,,,,CLR,,,,,,,,VFR,,,,,,,,,,,,METAR,392.0
KRZT 180754Z AUTO 29003KT 10SM SCT024 OVC031 M02/M07 A3027 RMK AO2,KRZT,2014-12-18T07:54:00Z,39.43,-83.02,-2.0,-7.0,290,3,,10.0,30.268702,,,TRUE,TRUE,,,,,,,SCT,2400,OVC,3100,,,,,VFR,,,,,,,,,,,,METAR,221.0
KRRT 180754Z AUTO 10003KT 10SM CLR M14/M17 A3030 RMK AO2,KRRT,2014-12-18T07:54:00Z,48.93,-95.33,-14.0,-17.0,100,3,,10.0,30.301182,,,TRUE,TRUE,,,,,,,CLR,,,,,,,,VFR,,,,,,,,,,,,METAR,327.0
KRMY 180754Z AUTO 29005KT 10SM OVC019 M02/M06 A3020 RMK AO2 T10251060,KRMY,2014-12-18T07:54:00Z,42.23,-84.95,-2.5,-6.0,290,5,,10.0,30.200787,,,TRUE,TRUE,,,,,,,OVC,1900,,,,,,,MVFR,,,,,,,,,,,,METAR,287.0
KPWC 180754Z AUTO 00000KT 7SM CLR M17/M18 A3031 RMK AO2,KPWC,2014-12-18T07:54:00Z,46.72,-94.37,-17.0,-18.0,0,0,,7.0,30.31004,,,TRUE,TRUE,,,,,,,CLR,,,,,,,,VFR,,,,,,,,,,,,METAR,395.0
KPNM 180754Z AUTO 00000KT 10SM CLR M14/M16 A3032 RMK AO2,KPNM,2014-12-18T07:54:00Z,45.57,-93.6,-14.0,-16.0,0,0,,10.0,30.318897,,,TRUE,TRUE,,,,,,,CLR,,,,,,,,VFR,,,,,,,,,,,,METAR,298.0
KPEX 180754Z AUTO 00000KT 10SM CLR M15/M16 A3031 RMK AO2 T11511157,KPEX,2014-12-18T07:54:00Z,45.37,-94.73,-15.1,-15.7,0,0,,10.0,30.31004,,,TRUE,TRUE,,,,,,,CLR,,,,,,,,VFR,,,,,,,,,,,,METAR,360.0
KOVL 180754Z AUTO 00000KT 10SM CLR M11/M12 A3031 RMK AO2,KOVL,2014-12-18T07:54:00Z,44.78,-95.03,-11.0,-12.0,0,0,,10.0,30.31004,,,TRUE,TRUE,,,,,,,CLR,,,,,,,,VFR,,,,,,,,,,,,METAR,328.0
KOSC 180754Z AUTO 30009KT 10SM OVC012 M03/M05 A3015 RMK AO2 T10361050,KOSC,2014-12-18T07:54:00Z,44.45,-83.4,-3.6,-5.0,300,9,,10.0,30.15059,,,TRUE,TRUE,,,,,,,OVC,1200,,,,,,,MVFR,,,,,,,,,,,,METAR,193.0
KONZ 180754Z AUTO 27008G14KT 10SM OVC025 M01/M06 A3019 RMK AO2,KONZ,2014-12-18T07:54:00Z,42.1,-83.15,-1.0,-6.0,270,8,14,10.0,30.188976,,,TRUE,TRUE,,,,,,,OVC,2500,,,,,,,MVFR,,,,,,,,,,,,METAR,180.0
KONA 180754Z AUTO 00000KT 10SM BKN023 M08/M10 A3033 RMK AO2,KONA,2014-12-18T07:54:00Z,44.07,-91.7,-8.0,-10.0,0,0,,10.0,30.33071,,,TRUE,TRUE,,,,,,,BKN,2300,,,,,,,MVFR,,,,,,,,,,,,METAR,200.0
KIKW 180754Z AUTO 27004KT 10SM OVC017 00/M03 A3016 RMK AO2 T10051026,KIKW,2014-12-18T07:54:00Z,43.67,-84.27,-0.5,-2.6,270,4,,10.0,30.159449,,,TRUE,TRUE,,,,,,,OVC,1700,,,,,,,MVFR,,,,,,,,,,,,METAR,194.0
KHCO 180754Z AUTO 11003KT 10SM CLR M14/M16 A3029 RMK AO2,KHCO,2014-12-18T07:54:00Z,48.75,-96.93,-14.0,-16.0,110,3,,10.0,30.28937,,,TRUE,TRUE,,,,,,,CLR,,,,,,,,VFR,,,,,,,,,,,,METAR,250.0
KGYL 180754Z AUTO 00000KT 10SM CLR M11/M12 A3031 RMK AO2 T11131123,KGYL,2014-12-18T07:54:00Z,44.77,-94.08,-11.3,-12.3,0,0,,10.0,30.31004,,,TRUE,TRUE,,,,,,,CLR,,,,,,,,VFR,,,,,,,,,,,,METAR,302.0
KFGN 180754Z AUTO 13003KT 10SM CLR M12/M16 A3030 RMK AO2,KFGN,2014-12-18T07:54:00Z,49.32,-94.9,-12.0,-16.0,130,3,,10.0,30.301182,,,TRUE,TRUE,,,,,,,CLR,,,,,,,,VFR,,,,,,,,,,,,METAR,328.0
KFFM 180754Z AUTO 12004KT 10SM CLR M12/M14 A3032 RMK AO2,KFFM,2014-12-18T07:54:00Z,46.28,-96.15,-12.0,-14.0,120,4,,10.0,30.318897,,,TRUE,TRUE,,,,,,,CLR,,,,,,,,VFR,,,,,,,,,,,,METAR,361.0
KFBL 180754Z AUTO 00000KT 10SM CLR M13/M14 A3030 RMK AO2,KFBL,2014-12-18T07:54:00Z,44.33,-93.32,-13.0,-14.0,0,0,,10.0,30.301182,,,TRUE,TRUE,,,,,,,CLR,,,,,,,,VFR,,,,,,,,,,,,METAR,322.0
KBBB 180754Z AUTO 13003KT 10SM SCT003 M14/M16 A3029 RMK AO2,KBBB,2014-12-18T07:54:00Z,45.32,-95.65,-14.0,-16.0,130,3,,10.0,30.28937,,,TRUE,TRUE,,,,,,,SCT,300,,,,,,,VFR,,,,,,,,,,,,METAR,317.0
KAQP 180754Z AUTO 00000KT 10SM CLR M16/M17 A3030 RMK AO2,KAQP,2014-12-18T07:54:00Z,45.22,-96.0,-16.0,-17.0,0,0,,10.0,30.301182,,,TRUE,TRUE,,,,,,,CLR,,,,,,,,VFR,,,,,,,,,,,,METAR,311.0
KANE 180754Z AUTO 00000KT 10SM BKN025 M12/M12 A3032 RMK AO2,KANE,2014-12-18T07:54:00Z,45.15,-93.22,-12.0,-12.0,0,0,,10.0,30.318897,,,TRUE,TRUE,,,,,,,BKN,2500,,,,,,,MVFR,,,,,,,,,,,,METAR,278.0
KAIT 180754Z AUTO 00000KT 10SM CLR M16/M19 A3028 RMK AO2,KAIT,2014-12-18T07:54:00Z,46.53,-93.67,-16.0,-19.0,0,0,,10.0,30.280512,,,TRUE,TRUE,,,,,,,CLR,,,,,,,,VFR,,,,,,,,,,,,METAR,367.0
KBOS 180754Z 27014KT 10SM BKN050 OVC090 04/M01 A2972 RMK AO2 SLP064 T00441006,KBOS,2014-12-18T07:54:00Z,42.37,-71.02,4.4,-0.6,270,14,,10.0,29.719488,1006.4,,,TRUE,,,,,,,BKN,5000,OVC,9000,,,,,VFR,,,,,,,,,,,,METAR,6.0
KBFW 180754Z AUTO 00000KT 10SM OVC015 M07/M09 A3030 RMK AO2,KBFW,2014-12-18T07:54:00Z,47.25,-91.4,-7.0,-9.0,0,0,,10.0,30.301182,,,TRUE,TRUE,,,,,,,OVC,1500,,,,,,,MVFR,,,,,,,,,,,,METAR,331.0
KBFL 180754Z AUTO 00000KT 10SM CLR 08/05 A3013 RMK AO2 SLP203 T00780050 401390072,KBFL,2014-12-18T07:54:00Z,35.43,-119.05,7.8,5.0,0,0,,10.0,30.129921,1020.3,,TRUE,TRUE,,,,,,,CLR,,,,,,,,VFR,,,,13.9,7.2,,,,,,,METAR,151.0
KAVP 180754Z 27009G18KT 10SM OVC040 01/M06 A2996 RMK AO2 SLP149 T00111056,KAVP,2014-12-18T07:54:00Z,41.33,-75.72,1.1,-5.6,270,9,18,10.0,29.958662,1014.9,,,TRUE,,,,,,,OVC,4000,,,,,,,VFR,,,,,,,,,,,,METAR,291.0
KAVL 180754Z AUTO 35012KT 10SM CLR 02/M01 A3013 RMK AO2 SLP204 T00171011,KAVL,2014-12-18T07:54:00Z,35.43,-82.53,1.7,-1.1,350,12,,10.0,30.129921,1020.4,,TRUE,TRUE,,,,,,,CLR,,,,,,,,VFR,,,,,,,,,,,,METAR,670.0
KAUW 180754Z AUTO 36006KT 10SM OVC013 M04/M07 A3025 RMK AO2 SLP267 T10441072,KAUW,2014-12-18T07:54:00Z,44.93,-89.62,-4.4,-7.2,360,6,,10.0,30.250984,1026.7,,TRUE,TRUE,,,,,,,OVC,1300,,,,,,,MVFR,,,,,,,,,,,,METAR,362.0
KAPC 180754Z AUTO 12009KT 8SM -RA FEW016 BKN025 OVC030 10/09 A3008 RMK AO2 SLP175 P0001 T01000089 401390061,KAPC,2014-12-18T07:54:00Z,38.2,-122.28,10.0,8.9,120,9,,8.0,30.079725,1017.5,,TRUE,TRUE,,,,,,-RA,FEW,1600,BKN,2500,OVC,3000,,,MVFR,,,,13.9,6.1,0.01,,,,,,METAR,13.0
KALO 180754Z AUTO 33003KT 10SM CLR M09/M11 A3030 RMK AO2 SLP277 I1000 T10941111,KALO,2014-12-18T07:54:00Z,42.55,-92.4,-9.4,-11.1,330,3,,10.0,30.301182,1027.7,,TRUE,TRUE,,,,,,,CLR,,,,,,,,VFR,,,,,,,,,,,,METAR,264.0
KAKR 180754Z AUTO 30009KT 10SM OVC023 M02/M07 A3018 RMK AO2 SLP231 T10171072 $,KAKR,2014-12-18T07:54:00Z,41.03,-81.47,-1.7,-7.2,300,9,,10.0,30.180119,1023.1,,TRUE,TRUE,TRUE,,,,,,OVC,2300,,,,,,,MVFR,,,,,,,,,,,,METAR,363.0
KAKQ 180754Z AUTO 00000KT 10SM CLR 02/M03 A3011 RMK AO2 SLP197 T00221028 TSNO,KAKQ,2014-12-18T07:54:00Z,36.98,-77.0,2.2,-2.8,0,0,,10.0,30.109253,1019.7,,TRUE,TRUE,,,TRUE,,,,CLR,,,,,,,,VFR,,,,,,,,,,,,METAR,34.0
KAKH 180754Z AUTO 00000KT 10SM CLR 02/M02 A3010 RMK AO2 SLP194 T00171017,KAKH,2014-12-18T07:54:00Z,35.2,-81.15,1.7,-1.7,0,0,,10.0,30.100393,1019.4,,TRUE,TRUE,,,,,,,CLR,,,,,,,,VFR,,,,,,,,,,,,METAR,243.0
KAAO 180754Z AUTO 09004KT 3SM -SN BR BKN004 OVC027 M02/M02 A3014 RMK AO2 SLP219 P0002 T10171022,KAAO,2014-12-18T07:54:00Z,37.75,-97.22,-1.7,-2.2,90,4,,3.0,30.138779,1021.9,,TRUE,TRUE,,,,,,-SN BR,BKN,400,OVC,2700,,,,,LIFR,,,,,,0.02,,,,,,METAR,434.0
K7BM 180754Z AUTO 00000KT 10SM BKN100 M03/M07 A2998 RMK AO2,K7BM,2014-12-18T07:54:00Z,38.78,-106.22,-3.0,-7.0,0,0,,10.0,29.97933,,,TRUE,TRUE,,,,,,,BKN,10000,,,,,,,VFR,,,,,,,,,,,,METAR,2995.0
K4BM 180754Z AUTO 26004KT 10SM OVC100 M08/M09 A2999 RMK AO2,K4BM,2014-12-18T07:54:00Z,39.05,-105.52,-8.0,-9.0,260,4,,10.0,29.991142,,,TRUE,TRUE,,,,,,,OVC,10000,,,,,,,VFR,,,,,,,,,,,,METAR,3438.0
KPNC 180753Z AUTO 09006KT 8SM OVC006 02/01 A3014 RMK AO2 SLP212 T00170006,KPNC,2014-12-18T07:53:00Z,36.73,-97.1,1.7,0.6,90,6,,8.0,30.138779,1021.2,,TRUE,TRUE,,,,,,,OVC,600,,,,,,,IFR,,,,,,,,,,,,METAR,308.0
KODX 180753Z AUTO 14006KT 10SM BKN015 OVC023 M05/M07 A3014 RMK AO2 SLP238 T10501067,KODX,2014-12-18T07:53:00Z,41.62,-98.95,-5.0,-6.7,140,6,,10.0,30.138779,1023.8,,TRUE,TRUE,,,,,,,BKN,1500,OVC,2300,,,,,MVFR,,,,,,,,,,,,METAR,631.0
KMIC 180753Z AUTO 00000KT 9SM CLR M12/M14 A3032 RMK AO2 SLP285 T11221139,KMIC,2014-12-18T07:53:00Z,45.07,-93.35,-12.2,-13.9,0,0,,9.0,30.318897,1028.5,,TRUE,TRUE,,,,,,,CLR,,,,,,,,VFR,,,,,,,,,,,,METAR,265.0
KMHE 180753Z AUTO 13005KT 10SM OVC065 M08/M11 A3023 RMK AO2 SLP261 T10831106,KMHE,2014-12-18T07:53:00Z,43.77,-98.02,-8.3,-10.6,130,5,,10.0,30.230314,1026.1,,TRUE,TRUE,,,,,,,OVC,6500,,,,,,,VFR,,,,,,,,,,,,METAR,397.0
KMCW 180753Z AUTO 00000KT 10SM OVC011 M09/M11 A3031 RMK AO2 SLP280 T10891111,KMCW,2014-12-18T07:53:00Z,43.15,-93.33,-8.9,-11.1,0,0,,10.0,30.31004,1028.0,,TRUE,TRUE,,,,,,,OVC,1100,,,,,,,MVFR,,,,,,,,,,,,METAR,369.0
KVIH 180753Z AUTO 07003KT 3SM -SN BR OVC032 M01/M02 A3021 RMK AO2 SNE19B37 SLP241 P0000 T10061022,KVIH,2014-12-18T07:53:00Z,38.13,-91.77,-0.6,-2.2,70,3,,3.0,30.209646,1024.1,,TRUE,TRUE,,,,,,-SN BR,OVC,3200,,,,,,,MVFR,,,,,,0.0050,,,,,,METAR,333.0
TJNR 180753Z AUTO 02008KT 10SM FEW034 BKN090 24/19 A3001 RMK AO2 RAE0659 SLP161 P0000 T02440189 $,TJNR,2014-12-18T07:53:00Z,18.25,-65.63,24.4,18.9,20,8,,10.0,30.008858,1016.1,,TRUE,TRUE,TRUE,,,,,,FEW,3400,BKN,9000,,,,,VFR,,,,,,0.0050,,,,,,METAR,12.0
KTCS 180753Z AUTO 25004KT 10SM OVC080 04/M01 A3010 RMK AO2 SLP163 T00441011 TSNO,KTCS,2014-12-18T07:53:00Z,33.23,-107.27,4.4,-1.1,250,4,,10.0,30.100393,1016.3,,TRUE,TRUE,,,TRUE,,,,OVC,8000,,,,,,,VFR,,,,,,,,,,,,METAR,1469.0
KLAX 180753Z 09004KT 10SM FEW022 SCT100 SCT250 12/08 A3011 RMK AO2 SLP194 T01170078 401610111 $,KLAX,2014-12-18T07:53:00Z,33.93,-118.38,11.7,7.8,90,4,,10.0,30.109253,1019.4,,,TRUE,TRUE,,,,,,FEW,2200,SCT,10000,SCT,25000,,,VFR,,,,16.1,11.1,,,,,,,METAR,46.0
KTUP 180753Z AUTO 04006KT 10SM OVC080 05/01 A3025 RMK AO2 SLP244 T00500006,KTUP,2014-12-18T07:53:00Z,34.27,-88.77,5.0,0.6,40,6,,10.0,30.250984,1024.4,,TRUE,TRUE,,,,,,,OVC,8000,,,,,,,VFR,,,,,,,,,,,,METAR,105.0
KMWT 180753Z AUTO 00000KT 7SM -RA BKN039 OVC055 03/02 A3017 RMK AO2 RAE0659B18UPB46E52 SLP227 P0001 T00280017,KMWT,2014-12-18T07:53:00Z,34.55,-93.58,2.8,1.7,0,0,,7.0,30.171259,1022.7,,TRUE,TRUE,,,,,,-RA,BKN,3900,OVC,5500,,,,,VFR,,,,,,0.01,,,,,,METAR,214.0
K6R6 180753Z AUTO 27003KT 09/08 A3008 RMK AO1 SLP173 T00940083,K6R6,2014-12-18T07:53:00Z,30.05,-102.22,9.4,8.3,270,3,,,30.079725,1017.3,,TRUE,TRUE,,,,,,,,,,,,,,,,,,,,,,,,,,,METAR,701.0
KELY 180753Z AUTO 15007KT 10SM OVC060 M03/M06 A3006 RMK AO2 SLP183 T10331061 400281083,KELY,2014-12-18T07:53:00Z,39.3,-114.85,-3.3,-6.1,150,7,,10.0,30.059055,1018.3,,TRUE,TRUE,,,,,,,OVC,6000,,,,,,,VFR,,,,2.8,-8.3,,,,,,,METAR,1906.0
KBYI 180753Z AUTO 03003KT 6SM BR CLR M03/M04 A3003 RMK AO2 SLP180 I1000 T10281044,KBYI,2014-12-18T07:53:00Z,42.55,-113.77,-2.8,-4.4,30,3,,6.0,30.029528,1018.0,,TRUE,TRUE,,,,,,BR,CLR,,,,,,,,VFR,,,,,,,,,,,,METAR,1264.0
PGUA 180753Z AUTO 06015KT 10SM SCT018 BKN023 BKN030 27/24 A2991 RMK AO2 CIG 018V023,PGUA,2014-12-18T07:53:00Z,13.57,144.92,27.0,24.0,60,15,,10.0,29.911417,,,TRUE,TRUE,,,,,,,SCT,1800,BKN,2300,BKN,3000,,,MVFR,,,,,,,,,,,,METAR,187.0
KLTS 180753Z AUTO 14009KT 1 3/4SM R17R/3500FT BR OVC002 04/04 A3008 RMK AO2,KLTS,2014-12-18T07:53:00Z,34.67,-99.27,4.0,4.0,140,9,,1.75,30.079725,,,TRUE,TRUE,,,,,,BR,OVC,200,,,,,,,LIFR,,,,,,,,,,,,METAR,420.0
KSWO 180753Z AUTO 12006KT 3SM BR OVC003 03/02 A3013 RMK AO2 SLP206 T00280017,KSWO,2014-12-18T07:53:00Z,36.17,-97.08,2.8,1.7,120,6,,3.0,30.129921,1020.6,,TRUE,TRUE,,,,,,BR,OVC,300,,,,,,,LIFR,,,,,,,,,,,,METAR,290.0
KRSL 180753Z AUTO 04004KT 1 1/4SM -SN BR OVC023 M03/M04 A3013 RMK AO2 SLP222 P0001 T10331039,KRSL,2014-12-18T07:53:00Z,38.87,-98.82,-3.3,-3.9,40,4,,1.25,30.129921,1022.2,,TRUE,TRUE,,,,,,-SN BR,OVC,2300,,,,,,,IFR,,,,,,0.01,,,,,,METAR,567.0
KOAK 180753Z 10007KT 7SM RA OVC032 11/09 A3007 RMK AO2 RAE14B40 SLP182 P0001 T01060089 401500094,KOAK,2014-12-18T07:53:00Z,37.72,-122.23,10.6,8.9,100,7,,7.0,30.070866,1018.2,,,TRUE,,,,,,RA,OVC,3200,,,,,,,VFR,,,,15.0,9.4,0.01,,,,,,METAR,26.0
KNEW 180753Z AUTO 10004KT 10SM CLR 12/08 A3017 RMK AO2 SLP210 T01220083 TSNO,KNEW,2014-12-18T07:53:00Z,30.05,-90.03,12.2,8.3,100,4,,10.0,30.171259,1021.0,,TRUE,TRUE,,,TRUE,,,,CLR,,,,,,,,VFR,,,,,,,,,,,,METAR,3.0
KMYV 180753Z AUTO 09004KT 9SM -RA BKN024 BKN030 OVC055 11/09 A3012 RMK AO2 RAE28B45 SLP202 P0001 T01060094 401330094,KMYV,2014-12-18T07:53:00Z,39.1,-121.57,10.6,9.4,90,4,,9.0,30.121063,1020.2,,TRUE,TRUE,,,,,,-RA,BKN,2400,BKN,3000,OVC,5500,,,MVFR,,,,13.3,9.4,0.01,,,,,,METAR,21.0
KMYF 180753Z AUTO 10005KT 10SM CLR 11/08 A3013 RMK AO2 RAE0657 SLP201 P0000 T01060078 401780106 TSNO,KMYF,2014-12-18T07:53:00Z,32.82,-117.13,10.6,7.8,100,5,,10.0,30.129921,1020.1,,TRUE,TRUE,,,TRUE,,,,CLR,,,,,,,,VFR,,,,17.8,10.6,0.0050,,,,,,METAR,136.0
KMWL 180753Z AUTO 13006KT 1 3/4SM BR OVC002 06/06 A3009 RMK AO2 SLP187 T00610056,KMWL,2014-12-18T07:53:00Z,32.78,-98.07,6.1,5.6,130,6,,1.75,30.088583,1018.7,,TRUE,TRUE,,,,,,BR,OVC,200,,,,,,,LIFR,,,,,,,,,,,,METAR,284.0
KMVY 180753Z AUTO 28013G18KT 10SM BKN050 BKN090 04/M02 A2975 RMK AO2 SLP075 T00391017,KMVY,2014-12-18T07:53:00Z,41.4,-70.62,3.9,-1.7,280,13,18,10.0,29.749016,1007.5,,TRUE,TRUE,,,,,,,BKN,5000,BKN,9000,,,,,VFR,,,,,,,,,,,,METAR,16.0
KMTO 180753Z AUTO 00000KT 10SM OVC017 M04/M08 A3029 RMK AO2 SLP267 T10441078,KMTO,2014-12-18T07:53:00Z,39.47,-88.27,-4.4,-7.8,0,0,,10.0,30.28937,1026.7,,TRUE,TRUE,,,,,,,OVC,1700,,,,,,,MVFR,,,,,,,,,,,,METAR,214.0
KMTJ 180753Z AUTO 12003KT 4SM BR SCT025 BKN055 OVC080 00/00 A3006 RMK AO2 SNE13 SLP171 P0000 T00000000,KMTJ,2014-12-18T07:53:00Z,38.5,-107.9,0.0,0.0,120,3,,4.0,30.059055,1017.1,,TRUE,TRUE,,,,,,BR,SCT,2500,BKN,5500,OVC,8000,,,MVFR,,,,,,0.0050,,,,,,METAR,1750.0
KMTH 180753Z AUTO 01005KT 10SM CLR 19/16 A3014 RMK AO2 SLP204 T01890156 $,KMTH,2014-12-18T07:53:00Z,24.73,-81.05,18.9,15.6,10,5,,10.0,30.138779,1020.4,,TRUE,TRUE,TRUE,,,,,,CLR,,,,,,,,VFR,,,,,,,,,,,,METAR,2.0
KMSY 180753Z 00000KT 10SM BKN250 10/05 A3017 RMK AO2 SLP218 T01000050,KMSY,2014-12-18T07:53:00Z,30.0,-90.25,10.0,5.0,0,0,,10.0,30.171259,1021.8,,,TRUE,,,,,,,BKN,25000,,,,,,,VFR,,,,,,,,,,,,METAR,5.0
KMSS 180753Z AUTO 26006KT 8SM -SN OVC009 01/M01 A2982 RMK AO2 UPB15E42SNE15B42 CIG 007V011 SLP102 P0000 T00111006,KMSS,2014-12-18T07:53:00Z,44.93,-74.85,1.1,-0.6,260,6,,8.0,29.819881,1010.2,,TRUE,TRUE,,,,,,-SN,OVC,900,,,,,,,IFR,,,,,,0.0050,,,,,,METAR,66.0
KMSP 180753Z 00000KT 9SM FEW027 M11/M13 A3033 RMK AO2 SLP287 T11111128,KMSP,2014-12-18T07:53:00Z,44.88,-93.23,-11.1,-12.8,0,0,,9.0,30.33071,1028.7,,,TRUE,,,,,,,FEW,2700,,,,,,,VFR,,,,,,,,,,,,METAR,265.0
KMSO 180753Z AUTO 05003KT 10SM OVC070 M02/M04 A2999 RMK AO2 SLP183 T10221044,KMSO,2014-12-18T07:53:00Z,46.92,-114.1,-2.2,-4.4,50,3,,10.0,29.991142,1018.3,,TRUE,TRUE,,,,,,,OVC,7000,,,,,,,VFR,,,,,,,,,,,,METAR,975.0
KMCE 180753Z AUTO 11007KT 7SM FEW038 FEW045 OVC075 11/08 A3012 RMK AO2 SLP199 T01060083 401500072,KMCE,2014-12-18T07:53:00Z,37.28,-120.5,10.6,8.3,110,7,,7.0,30.121063,1019.9,,TRUE,TRUE,,,,,,,FEW,3800,FEW,4500,OVC,7500,,,VFR,,,,15.0,7.2,,,,,,,METAR,47.0
KMCB 180753Z AUTO 00000KT 10SM SCT100 07/04 A3018 RMK AO2 SLP219 T00670044,KMCB,2014-12-18T07:53:00Z,31.18,-90.47,6.7,4.4,0,0,,10.0,30.180119,1021.9,,TRUE,TRUE,,,,,,,SCT,10000,,,,,,,VFR,,,,,,,,,,,,METAR,124.0
KMBS 180753Z 26011KT 10SM OVC016 M01/M03 A3017 RMK AO2 SLP224 T10061033,KMBS,2014-12-18T07:53:00Z,43.53,-84.08,-0.6,-3.3,260,11,,10.0,30.171259,1022.4,,,TRUE,,,,,,,OVC,1600,,,,,,,MVFR,,,,,,,,,,,,METAR,202.0
KMAI 180753Z AUTO 00000KT 10SM CLR 06/06 A3017 RMK AO2 SLP217 T00610056 $,KMAI,2014-12-18T07:53:00Z,30.83,-85.18,6.1,5.6,0,0,,10.0,30.171259,1021.7,,TRUE,TRUE,TRUE,,,,,,CLR,,,,,,,,VFR,,,,,,,,,,,,METAR,32.0
KMAF 180753Z AUTO 23006KT 10SM CLR 08/04 A3007 RMK AO2 SLP162 T00780039 TSNO,KMAF,2014-12-18T07:53:00Z,31.95,-102.2,7.8,3.9,230,6,,10.0,30.070866,1016.2,,TRUE,TRUE,,,TRUE,,,,CLR,,,,,,,,VFR,,,,,,,,,,,,METAR,874.0
KMAE 180753Z AUTO 10006KT 9SM FEW055 BKN080 OVC095 10/08 A3014 RMK AO2 SLP206 T01000078 401440078,KMAE,2014-12-18T07:53:00Z,36.98,-120.12,10.0,7.8,100,6,,9.0,30.138779,1020.6,,TRUE,TRUE,,,,,,,FEW,5500,BKN,8000,OVC,9500,,,VFR,,,,14.4,7.8,,,,,,,METAR,77.0
KLXV 180753Z AUTO 05006KT 10SM CLR M13/M15 A2997 RMK AO2 SLP147 T11331150,KLXV,2014-12-18T07:53:00Z,39.23,-106.32,-13.3,-15.0,50,6,,10.0,29.970472,1014.7,,TRUE,TRUE,,,,,,,CLR,,,,,,,,VFR,,,,,,,,,,,,METAR,3028.0
KLXT 180753Z AUTO 07007KT 1 3/4SM -SN BR BKN019 OVC036 M02/M03 A3023 RMK AO2 SLP248 P0003 T10221033 TSNO,KLXT,2014-12-18T07:53:00Z,38.97,-94.37,-2.2,-3.3,70,7,,1.75,30.230314,1024.8,,TRUE,TRUE,,,TRUE,,,-SN BR,BKN,1900,OVC,3600,,,,,IFR,,,,,,0.03,,,,,,METAR,306.0
KLWV 180753Z AUTO 05005KT 8SM OVC014 M03/M06 A3033 RMK AO2 SLP275 T10331061,KLWV,2014-12-18T07:53:00Z,38.77,-87.6,-3.3,-6.1,50,5,,8.0,30.33071,1027.5,,TRUE,TRUE,,,,,,,OVC,1400,,,,,,,MVFR,,,,,,,,,,,,METAR,131.0
KLWD 180753Z AUTO 08005KT 10SM OVC075 M03/M07 A3025 RMK AO2 SLP258 T10331072,KLWD,2014-12-18T07:53:00Z,40.63,-93.9,-3.3,-7.2,80,5,,10.0,30.250984,1025.8,,TRUE,TRUE,,,,,,,OVC,7500,,,,,,,VFR,,,,,,,,,,,,METAR,346.0
KLVS 180753Z AUTO 24007KT 10SM CLR M03/M06 A2998 RMK AO2 SLP128 T10281056,KLVS,2014-12-18T07:53:00Z,35.65,-105.13,-2.8,-5.6,240,7,,10.0,29.97933,1012.8,,TRUE,TRUE,,,,,,,CLR,,,,,,,,VFR,,,,,,,,,,,,METAR,2091.0
KLVM 180753Z AUTO 26016KT 10SM CLR 00/M08 A2994 RMK AO2 PK WND 25030/0722 SLP161 T00001083,KLVM,2014-12-18T07:53:00Z,45.7,-110.43,0.0,-8.3,260,16,,10.0,29.940945,1016.1,,TRUE,TRUE,,,,,,,CLR,,,,,,,,VFR,,,,,,,,,,,,METAR,1418.0
KLVK 180753Z AUTO 05005KT 10SM OVC040 11/08 A3008 RMK AO2 RAE43 SLP184 P0003 T01110083 401560078,KLVK,2014-12-18T07:53:00Z,37.7,-121.82,11.1,8.3,50,5,,10.0,30.079725,1018.4,,TRUE,TRUE,,,,,,,OVC,4000,,,,,,,VFR,,,,15.6,7.8,0.03,,,,,,METAR,117.0
KLVJ 180753Z AUTO 09006KT 7SM FEW070 OVC100 18/17 A3008 RMK AO2 SLP184 T01780167,KLVJ,2014-12-18T07:53:00Z,29.52,-95.25,17.8,16.7,90,6,,7.0,30.079725,1018.4,,TRUE,TRUE,,,,,,,FEW,7000,OVC,10000,,,,,VFR,,,,,,,,,,,,METAR,12.0
KLUK 180753Z AUTO 00000KT 10SM OVC019 M03/M07 A3032 RMK AO2 SLP272 T10281067,KLUK,2014-12-18T07:53:00Z,39.1,-84.42,-2.8,-6.7,0,0,,10.0,30.318897,1027.2,,TRUE,TRUE,,,,,,,OVC,1900,,,,,,,MVFR,,,,,,,,,,,,METAR,155.0
KLPR 180753Z AUTO 28010G17KT 10SM OVC029 M02/M07 A3021 RMK AO2 SLP238 T10221067 TSNO,KLPR,2014-12-18T07:53:00Z,41.35,-82.18,-2.2,-6.7,280,10,17,10.0,30.209646,1023.8,,TRUE,TRUE,,,TRUE,,,,OVC,2900,,,,,,,MVFR,,,,,,,,,,,,METAR,241.0
KLOZ 180753Z AUTO 00000KT 5SM BR FEW003 M03/M06 A3024 RMK AO2 SLP249 I1000 T10331056,KLOZ,2014-12-18T07:53:00Z,37.08,-84.07,-3.3,-5.6,0,0,,5.0,30.239174,1024.9,,TRUE,TRUE,,,,,,BR,FEW,300,,,,,,,MVFR,,,,,,,,,,,,METAR,362.0
KLOU 180753Z AUTO 02004KT 10SM OVC018 M02/M06 A3030 RMK AO2 SLP264 T10171061,KLOU,2014-12-18T07:53:00Z,38.22,-85.67,-1.7,-6.1,20,4,,10.0,30.301182,1026.4,,TRUE,TRUE,,,,,,,OVC,1800,,,,,,,MVFR,,,,,,,,,,,,METAR,164.0
KLOL 180753Z AUTO 00000KT 10SM OVC080 00/M03 A3004 RMK AO2 SLP179 T00001028 400941056,KLOL,2014-12-18T07:53:00Z,40.07,-118.57,0.0,-2.8,0,0,,10.0,30.041338,1017.9,,TRUE,TRUE,,,,,,,OVC,8000,,,,,,,VFR,,,,9.4,-5.6,,,,,,,METAR,1189.0
KLNS 180753Z AUTO 29012G21KT 10SM CLR 01/M08 A3003 RMK AO2 PK WND 30032/0700 SLP170 T00061083,KLNS,2014-12-18T07:53:00Z,40.12,-76.3,0.6,-8.3,290,12,21,10.0,30.029528,1017.0,,TRUE,TRUE,,,,,,,CLR,,,,,,,,VFR,,,,,,,,,,,,METAR,125.0
KLND 180753Z AUTO 28003KT 8SM CLR M17/M19 A2996 RMK AO2 SLP228 T11671194,KLND,2014-12-18T07:53:00Z,42.82,-108.73,-16.7,-19.4,280,3,,8.0,29.958662,1022.8,,TRUE,TRUE,,,,,,,CLR,,,,,,,,VFR,,,,,,,,,,,,METAR,1694.0
KLMT 180753Z AUTO 00000KT 10SM FEW009 BKN034 OVC048 02/01 A2999 RMK AO2 RAE39UPB39E41 SLP159 P0001 T00170006 400560000,KLMT,2014-12-18T07:53:00Z,42.15,-121.72,1.7,0.6,0,0,,10.0,29.991142,1015.9,,TRUE,TRUE,,,,,,,FEW,900,BKN,3400,OVC,4800,,,VFR,,,,5.6,,0.01,,,,,,METAR,1246.0
KLLQ 180753Z AUTO 04007KT 6SM RA BR OVC055 04/03 A3024 RMK AO2 RAB07 SLP242 P0005 T00440028,KLLQ,2014-12-18T07:53:00Z,33.63,-91.75,4.4,2.8,40,7,,6.0,30.239174,1024.2,,TRUE,TRUE,,,,,,RA BR,OVC,5500,,,,,,,VFR,,,,,,0.05,,,,,,METAR,83.0
KLIT 180753Z 10007KT 6SM RA BR OVC060 03/01 A3025 RMK AO2 SLP246 P0002 T00330011,KLIT,2014-12-18T07:53:00Z,34.73,-92.23,3.3,1.1,100,7,,6.0,30.250984,1024.6,,,TRUE,,,,,,RA BR,OVC,6000,,,,,,,VFR,,,,,,0.02,,,,,,METAR,79.0
KLHX 180753Z AUTO 00000KT 10SM BKN044 OVC055 M02/M04 A3002 RMK AO2 SNB0656E07 SLP184 P0000 T10221039,KLHX,2014-12-18T07:53:00Z,38.05,-103.52,-2.2,-3.9,0,0,,10.0,30.02067,1018.4,,TRUE,TRUE,,,,,,,BKN,4400,OVC,5500,,,,,VFR,,,,,,0.0050,,,,,,METAR,1277.0
KLHQ 180753Z AUTO 26005KT 10SM OVC026 M02/M07 A3025 RMK AO2 SLP252 T10221072,KLHQ,2014-12-18T07:53:00Z,39.75,-82.67,-2.2,-7.2,260,5,,10.0,30.250984,1025.2,,TRUE,TRUE,,,,,,,OVC,2600,,,,,,,MVFR,,,,,,,,,,,,METAR,260.0
KLGB 180753Z 09003KT 10SM CLR 11/08 A3011 RMK AO2 SLP194 T01110083 401830106,KLGB,2014-12-18T07:53:00Z,33.82,-118.15,11.1,8.3,90,3,,10.0,30.109253,1019.4,,,TRUE,,,,,,,CLR,,,,,,,,VFR,,,,18.3,10.6,,,,,,,METAR,10.0
KLFT 180753Z 00000KT 10SM CLR 09/06 A3017 RMK AO2 SLP215 T00940056,KLFT,2014-12-18T07:53:00Z,30.2,-92.0,9.4,5.6,0,0,,10.0,30.171259,1021.5,,,TRUE,,,,,,,CLR,,,,,,,,VFR,,,,,,,,,,,,METAR,11.0
KLFK 180753Z AUTO 06004KT 10SM OVC015 12/08 A3012 RMK AO2 SLP198 T01220078,KLFK,2014-12-18T07:53:00Z,31.23,-94.75,12.2,7.8,60,4,,10.0,30.121063,1019.8,,TRUE,TRUE,,,,,,,OVC,1500,,,,,,,MVFR,,,,,,,,,,,,METAR,88.0
KHZY 180753Z AUTO 29012KT 10SM OVC024 M01/M06 A3015 RMK AO2 SNE04 SLP219 P0000 T10111061,KHZY,2014-12-18T07:53:00Z,41.78,-80.7,-1.1,-6.1,290,12,,10.0,30.15059,1021.9,,TRUE,TRUE,,,,,,,OVC,2400,,,,,,,MVFR,,,,,,0.0050,,,,,,METAR,276.0
KHYR 180753Z AUTO 00000KT 10SM OVC012 M07/M09 A3029 RMK AO2 SLP282 T10671094,KHYR,2014-12-18T07:53:00Z,46.02,-91.45,-6.7,-9.4,0,0,,10.0,30.28937,1028.2,,TRUE,TRUE,,,,,,,OVC,1200,,,,,,,MVFR,,,,,,,,,,,,METAR,370.0
KHWO 180753Z AUTO 28006KT 10SM BKN060 17/13 A3015 RMK AO2 SLP210 T01720133,KHWO,2014-12-18T07:53:00Z,26.0,-80.23,17.2,13.3,280,6,,10.0,30.15059,1021.0,,TRUE,TRUE,,,,,,,BKN,6000,,,,,,,VFR,,,,,,,,,,,,METAR,2.0
KHVR 180753Z AUTO 00000KT 1/2SM FZFG VV003 M05/M06 A2992 RMK AO2 SLP167 I1001 T10501056,KHVR,2014-12-18T07:53:00Z,48.55,-109.77,-5.0,-5.6,0,0,,0.5,29.920275,1016.7,,TRUE,TRUE,,,,,,FZFG,OVX,0,,,,,,,LIFR,,,,,,,,,,,300,METAR,787.0
KHVN 180753Z AUTO 27007KT 10SM OVC050 07/M02 A2984 RMK AO2 SLP104 T00671017,KHVN,2014-12-18T07:53:00Z,41.27,-72.87,6.7,-1.7,270,7,,10.0,29.840551,1010.4,,TRUE,TRUE,,,,,,,OVC,5000,,,,,,,VFR,,,,,,,,,,,,METAR,4.0
KHUL 180753Z AUTO 36014KT 3/4SM -SN BR VV007 M02/M03 A2956 RMK AO2 SLP018 P0001 T10171028,KHUL,2014-12-18T07:53:00Z,46.12,-67.8,-1.7,-2.8,360,14,,0.75,29.56004,1001.8,,TRUE,TRUE,,,,,,-SN BR,OVX,0,,,,,,,LIFR,,,,,,0.01,,,,,700,METAR,150.0
KHUF 180753Z 05004KT 10SM OVC018 M04/M07 A3032 RMK AO2 SLP273 T10391072,KHUF,2014-12-18T07:53:00Z,39.45,-87.3,-3.9,-7.2,50,4,,10.0,30.318897,1027.3,,,TRUE,,,,,,,OVC,1800,,,,,,,MVFR,,,,,,,,,,,,METAR,179.0
KHTL 180753Z AUTO 30006KT 10SM OVC010 M03/M05 A3014 RMK AO2 SLP224 T10331050,KHTL,2014-12-18T07:53:00Z,44.35,-84.67,-3.3,-5.0,300,6,,10.0,30.138779,1022.4,,TRUE,TRUE,,,,,,,OVC,1000,,,,,,,MVFR,,,,,,,,,,,,METAR,351.0
KHSV 180753Z AUTO 01006KT 10SM BKN090 OVC110 03/M01 A3023 RMK AO2 SLP238 T00331011,KHSV,2014-12-18T07:53:00Z,34.65,-86.78,3.3,-1.1,10,6,,10.0,30.230314,1023.8,,TRUE,TRUE,,,,,,,BKN,9000,OVC,11000,,,,,VFR,,,,,,,,,,,,METAR,191.0
KHSI 180753Z AUTO 11003KT 3SM -SN BR BKN026 OVC033 M04/M06 A3015 RMK AO2 SNB06 SLP236 P0000 T10441061,KHSI,2014-12-18T07:53:00Z,40.6,-98.43,-4.4,-6.1,110,3,,3.0,30.15059,1023.6,,TRUE,TRUE,,,,,,-SN BR,BKN,2600,OVC,3300,,,,,MVFR,,,,,,0.0050,,,,,,METAR,591.0
KHRO 180753Z AUTO 13010KT 10SM OVC004 01/00 A3018 RMK AO2 SLP229 T00060000,KHRO,2014-12-18T07:53:00Z,36.27,-93.15,0.6,0.0,130,10,,10.0,30.180119,1022.9,,TRUE,TRUE,,,,,,,OVC,400,,,,,,,LIFR,,,,,,,,,,,,METAR,417.0
KHRI 180753Z AUTO 15003KT 3SM BR CLR 02/02 A3001 RMK AO2 SLP165 T00220017 400440022,KHRI,2014-12-18T07:53:00Z,45.83,-119.27,2.2,1.7,150,3,,3.0,30.008858,1016.5,,TRUE,TRUE,,,,,,BR,CLR,,,,,,,,MVFR,,,,4.4,2.2,,,,,,,METAR,195.0
KHQM 180753Z AUTO 05004KT 6SM BR BKN015 BKN022 OVC031 08/07 A2992 RMK AO2 SLP134 T00780072 400890056,KHQM,2014-12-18T07:53:00Z,46.97,-123.93,7.8,7.2,50,4,,6.0,29.920275,1013.4,,TRUE,TRUE,,,,,,BR,BKN,1500,BKN,2200,OVC,3100,,,MVFR,,,,8.9,5.6,,,,,,,METAR,7.0
KHOU 180753Z 09004KT 10SM FEW070 BKN095 17/16 A3007 RMK AO2 SLP186 T01670161,KHOU,2014-12-18T07:53:00Z,29.63,-95.28,16.7,16.1,90,4,,10.0,30.070866,1018.6,,,TRUE,,,,,,,FEW,7000,BKN,9500,,,,,VFR,,,,,,,,,,,,METAR,36.0
KHOT 180753Z AUTO 13006KT 7SM BKN006 OVC050 03/02 A3021 RMK AO2 RAE26 SLP232 P0000 T00280017,KHOT,2014-12-18T07:53:00Z,34.48,-93.1,2.8,1.7,130,6,,7.0,30.209646,1023.2,,TRUE,TRUE,,,,,,,BKN,600,OVC,5000,,,,,IFR,,,,,,0.0050,,,,,,METAR,162.0
KHLN 180753Z AUTO 00000KT 4SM BR BKN002 OVC048 M04/M06 A2997 RMK AO2 SLP203 T10441056,KHLN,2014-12-18T07:53:00Z,46.6,-111.98,-4.4,-5.6,0,0,,4.0,29.970472,1020.3,,TRUE,TRUE,,,,,,BR,BKN,200,OVC,4800,,,,,LIFR,,,,,,,,,,,,METAR,1182.0
KHLG 180753Z AUTO 27007KT 10SM OVC021 M03/M07 A3019 RMK AO2 SLP238 T10281072,KHLG,2014-12-18T07:53:00Z,40.17,-80.65,-2.8,-7.2,270,7,,10.0,30.188976,1023.8,,TRUE,TRUE,,,,,,,OVC,2100,,,,,,,MVFR,,,,,,,,,,,,METAR,372.0
KHLC 180753Z AUTO 07005KT 4SM BR OVC003 M03/M04 A3013 RMK AO2 UPB21E42SNB28E37 SLP226 P0000 T10331044,KHLC,2014-12-18T07:53:00Z,39.37,-99.83,-3.3,-4.4,70,5,,4.0,30.129921,1022.6,,TRUE,TRUE,,,,,,BR,OVC,300,,,,,,,LIFR,,,,,,0.0050,,,,,,METAR,669.0
KHKY 180753Z AUTO 31005KT 10SM CLR 04/M04 A3009 RMK AO2 SLP180 T00391044,KHKY,2014-12-18T07:53:00Z,35.75,-81.38,3.9,-4.4,310,5,,10.0,30.088583,1018.0,,TRUE,TRUE,,,,,,,CLR,,,,,,,,VFR,,,,,,,,,,,,METAR,354.0
KHKS 180753Z AUTO 08003KT 10SM OVC095 08/04 A3021 RMK AO2 SLP224 T00780039,KHKS,2014-12-18T07:53:00Z,32.33,-90.22,7.8,3.9,80,3,,10.0,30.209646,1022.4,,TRUE,TRUE,,,,,,,OVC,9500,,,,,,,VFR,,,,,,,,,,,,METAR,108.0
KHKA 180753Z AUTO 08010KT 8SM -RA OVC075 03/02 A3025 RMK AO2 SLP245 P0005 T00280017,KHKA,2014-12-18T07:53:00Z,35.93,-89.83,2.8,1.7,80,10,,8.0,30.250984,1024.5,,TRUE,TRUE,,,,,,-RA,OVC,7500,,,,,,,VFR,,,,,,0.05,,,,,,METAR,78.0
KHJO 180753Z AUTO 13003KT 6SM BR OVC085 09/08 A3015 RMK AO2 SLP210 T00890078 401440083,KHJO,2014-12-18T07:53:00Z,36.32,-119.62,8.9,7.8,130,3,,6.0,30.15059,1021.0,,TRUE,TRUE,,,,,,BR,OVC,8500,,,,,,,VFR,,,,14.4,8.3,,,,,,,METAR,74.0
KHIO 180753Z 17005KT 10SM -RA OVC008 08/07 A2997 RMK AO2 RAB50 SLP151 P0000 T00780072 400830017,KHIO,2014-12-18T07:53:00Z,45.55,-122.95,7.8,7.2,170,5,,10.0,29.970472,1015.1,,,TRUE,,,,,,-RA,OVC,800,,,,,,,IFR,,,,8.3,1.7,0.0050,,,,,,METAR,68.0
KHIB 180753Z AUTO 33003KT 10SM OVC010 M13/M16 A3030 RMK AO2 SLP291 T11281161,KHIB,2014-12-18T07:53:00Z,47.38,-92.83,-12.8,-16.1,330,3,,10.0,30.301182,1029.1,,TRUE,TRUE,,,,,,,OVC,1000,,,,,,,MVFR,,,,,,,,,,,,METAR,412.0
KHHR 180753Z AUTO 00000KT 10SM CLR 13/08 A3011 RMK AO2 SLP197 T01280078 401830117,KHHR,2014-12-18T07:53:00Z,33.92,-118.33,12.8,7.8,0,0,,10.0,30.109253,1019.7,,TRUE,TRUE,,,,,,,CLR,,,,,,,,VFR,,,,18.3,11.7,,,,,,,METAR,18.0
KHGR 180753Z AUTO 30022G28KT 10SM OVC043 02/M07 A3006 RMK AO2 PK WND 31028/0749 SLP193 T00171072 TSNO,KHGR,2014-12-18T07:53:00Z,39.7,-77.73,1.7,-7.2,300,22,28,10.0,30.059055,1019.3,,TRUE,TRUE,,,TRUE,,,,OVC,4300,,,,,,,VFR,,,,,,,,,,,,METAR,224.0
KHFD 180753Z AUTO 26008KT 10SM BKN037 OVC075 04/M01 A2981 RMK AO2 SLP096 T00391011,KHFD,2014-12-18T07:53:00Z,41.73,-72.65,3.9,-1.1,260,8,,10.0,29.811024,1009.6,,TRUE,TRUE,,,,,,,BKN,3700,OVC,7500,,,,,VFR,,,,,,,,,,,,METAR,4.0
KHEI 180753Z AUTO 15008KT 3SM BR OVC003 M07/M09 A3002 RMK AO2 SLP210 I1001 T10721089,KHEI,2014-12-18T07:53:00Z,46.02,-102.65,-7.2,-8.9,150,8,,3.0,30.02067,1021.0,,TRUE,TRUE,,,,,,BR,OVC,300,,,,,,,LIFR,,,,,,,,,,,,METAR,828.0
KHBR 180753Z AUTO 16008KT 1 3/4SM -RA BR OVC002 03/03 A3007 RMK AO2 RAE25B44 SLP189 P0000 T00330033,KHBR,2014-12-18T07:53:00Z,34.98,-99.05,3.3,3.3,160,8,,1.75,30.070866,1018.9,,TRUE,TRUE,,,,,,-RA BR,OVC,200,,,,,,,LIFR,,,,,,0.0050,,,,,,METAR,473.0
KLEE 180753Z AUTO 31004KT 10SM CLR 09/07 A3016 RMK AO2 SLP213 T00890072,KLEE,2014-12-18T07:53:00Z,28.82,-81.82,8.9,7.2,310,4,,10.0,30.159449,1021.3,,TRUE,TRUE,,,,,,,CLR,,,,,,,,VFR,,,,,,,,,,,,METAR,23.0
KLEB 180753Z AUTO 00000KT 10SM OVC036 01/01 A2971 RMK AO2 SLP067 T00110006,KLEB,2014-12-18T07:53:00Z,43.63,-72.3,1.1,0.6,0,0,,10.0,29.71063,1006.7,,TRUE,TRUE,,,,,,,OVC,3600,,,,,,,VFR,,,,,,,,,,,,METAR,171.0
KLCH 180753Z AUTO 09005KT 10SM FEW049 SCT055 OVC110 12/09 A3013 RMK AO2 SLP209 T01170094,KLCH,2014-12-18T07:53:00Z,30.13,-93.22,11.7,9.4,90,5,,10.0,30.129921,1020.9,,TRUE,TRUE,,,,,,,FEW,4900,SCT,5500,OVC,11000,,,VFR,,,,,,,,,,,,METAR,4.0
KLBX 180753Z AUTO 12004KT 9SM BKN095 17/17 A3006 RMK AO2 SLP180 T01720172,KLBX,2014-12-18T07:53:00Z,29.12,-95.47,17.2,17.2,120,4,,9.0,30.059055,1018.0,,TRUE,TRUE,,,,,,,BKN,9500,,,,,,,VFR,,,,,,,,,,,,METAR,6.0
KLBF 180753Z AUTO 20005KT 2 1/2SM BR OVC003 M05/M06 A3008 RMK AO2 SLP222 I1001 T10501056,KLBF,2014-12-18T07:53:00Z,41.12,-100.67,-5.0,-5.6,200,5,,2.5,30.079725,1022.2,,TRUE,TRUE,,,,,,BR,OVC,300,,,,,,,LIFR,,,,,,,,,,,,METAR,847.0
KLBB 180753Z 22006KT 9SM CLR 02/01 A3002 RMK AO2 SLP158 BR ALQDS T00170011,KLBB,2014-12-18T07:53:00Z,33.67,-101.82,1.7,1.1,220,6,,9.0,30.02067,1015.8,,,TRUE,,,,,,,CLR,,,,,,,,VFR,,,,,,,,,,,,METAR,993.0
KLAW 180753Z 14007KT 2 1/2SM BR OVC002 04/03 A3010 RMK AO2 SLP198 T00390028,KLAW,2014-12-18T07:53:00Z,34.55,-98.42,3.9,2.8,140,7,,2.5,30.100393,1019.8,,,TRUE,,,,,,BR,OVC,200,,,,,,,LIFR,,,,,,,,,,,,METAR,337.0
KLAR 180753Z AUTO VRB03KT 10SM CLR M12/M14 A2996 RMK AO2 SLP178 T11221144,KLAR,2014-12-18T07:53:00Z,41.32,-105.67,-12.2,-14.4,0,3,,10.0,29.958662,1017.8,,TRUE,TRUE,,,,,,,CLR,,,,,,,,VFR,,,,,,,,,,,,METAR,2216.0
KLAN 180753Z 29009KT 10SM SCT017 OVC023 M02/M05 A3019 RMK AO2 SLP237 T10171050,KLAN,2014-12-18T07:53:00Z,42.78,-84.58,-1.7,-5.0,290,9,,10.0,30.188976,1023.7,,,TRUE,,,,,,,SCT,1700,OVC,2300,,,,,MVFR,,,,,,,,,,,,METAR,264.0
KLAA 180753Z AUTO 35004KT 6SM BR OVC007 M02/M02 A3002 RMK AO2 SLP185 T10171022,KLAA,2014-12-18T07:53:00Z,38.07,-102.68,-1.7,-2.2,350,4,,6.0,30.02067,1018.5,,TRUE,TRUE,,,,,,BR,OVC,700,,,,,,,IFR,,,,,,,,,,,,METAR,1119.0
KJLN 180753Z AUTO 04003KT 2SM BR OVC003 01/01 A3018 RMK AO2 SLP227 T00110006,KJLN,2014-12-18T07:53:00Z,37.15,-94.5,1.1,0.6,40,3,,2.0,30.180119,1022.7,,TRUE,TRUE,,,,,,BR,OVC,300,,,,,,,LIFR,,,,,,,,,,,,METAR,299.0
KJKL 180753Z AUTO 00000KT 10SM OVC013 M02/M05 A3024 RMK AO2 SLP249 T10171050,KJKL,2014-12-18T07:53:00Z,37.6,-83.32,-1.7,-5.0,0,0,,10.0,30.239174,1024.9,,TRUE,TRUE,,,,,,,OVC,1300,,,,,,,MVFR,,,,,,,,,,,,METAR,416.0
KJER 180753Z AUTO 08008KT 10SM CLR M01/M03 A3004 RMK AO2 SLP190 T10111033,KJER,2014-12-18T07:53:00Z,42.72,-114.45,-1.1,-3.3,80,8,,10.0,30.041338,1019.0,,TRUE,TRUE,,,,,,,CLR,,,,,,,,VFR,,,,,,,,,,,,METAR,1222.0
KJEF 180753Z AUTO 06004KT 10SM OVC048 01/M03 A3028 RMK AO2 SLP247 T00061033,KJEF,2014-12-18T07:53:00Z,38.6,-92.15,0.6,-3.3,60,4,,10.0,30.280512,1024.7,,TRUE,TRUE,,,,,,,OVC,4800,,,,,,,VFR,,,,,,,,,,,,METAR,168.0
KJBR 180753Z AUTO 07006KT 7SM -RA SCT010 OVC080 02/02 A3026 RMK AO2 SLP247 P0003 T00220017,KJBR,2014-12-18T07:53:00Z,35.83,-90.65,2.2,1.7,70,6,,7.0,30.259842,1024.7,,TRUE,TRUE,,,,,,-RA,SCT,1000,OVC,8000,,,,,VFR,,,,,,0.03,,,,,,METAR,79.0
KIXD 180753Z AUTO 07004KT 3SM -SN BR OVC020 M02/M03 A3022 RMK AO2 SLP243 P0002 T10221033,KIXD,2014-12-18T07:53:00Z,38.82,-94.88,-2.2,-3.3,70,4,,3.0,30.221457,1024.3,,TRUE,TRUE,,,,,,-SN BR,OVC,2000,,,,,,,MVFR,,,,,,0.02,,,,,,METAR,342.0
KIWI 180753Z AUTO VRB03KT 10SM FEW014 OVC028 02/01 A2964 RMK AO2 UPB26E49 SLP036 P0001 T00170011,KIWI,2014-12-18T07:53:00Z,43.97,-69.72,1.7,1.1,0,3,,10.0,29.639763,1003.6,,TRUE,TRUE,,,,,,,FEW,1400,OVC,2800,,,,,MVFR,,,,,,0.01,,,,,,METAR,20.0
KITR 180753Z AUTO 20003KT 9SM OVC090 M05/M07 A3001 RMK AO2 SLP194 T10501067,KITR,2014-12-18T07:53:00Z,39.23,-102.28,-5.0,-6.7,200,3,,9.0,30.008858,1019.4,,TRUE,TRUE,,,,,,,OVC,9000,,,,,,,VFR,,,,,,,,,,,,METAR,1279.0
KIPL 180753Z AUTO 28004KT 8SM CLR 12/09 A3009 RMK AO2 SLP190 T01170094 401780089,KIPL,2014-12-18T07:53:00Z,32.83,-115.58,11.7,9.4,280,4,,8.0,30.088583,1019.0,,TRUE,TRUE,,,,,,,CLR,,,,,,,,VFR,,,,17.8,8.9,,,,,,,METAR,-17.0
KINK 180753Z AUTO 24007KT 10SM CLR 09/M02 A3006 RMK AO2 SLP158 T00891022,KINK,2014-12-18T07:53:00Z,31.78,-103.2,8.9,-2.2,240,7,,10.0,30.059055,1015.8,,TRUE,TRUE,,,,,,,CLR,,,,,,,,VFR,,,,,,,,,,,,METAR,855.0
KIML 180753Z AUTO 19007KT 1 1/2SM BR OVC003 M04/M06 A3006 RMK AO2 SLP217 I1002 T10391056,KIML,2014-12-18T07:53:00Z,40.52,-101.62,-3.9,-5.6,190,7,,1.5,30.059055,1021.7,,TRUE,TRUE,,,,,,BR,OVC,300,,,,,,,LIFR,,,,,,,,,,,,METAR,998.0
KILM 180753Z 00000KT 10SM CLR 04/02 A3009 RMK AO2 SLP188 T00390022,KILM,2014-12-18T07:53:00Z,34.27,-77.9,3.9,2.2,0,0,,10.0,30.088583,1018.8,,,TRUE,,,,,,,CLR,,,,,,,,VFR,,,,,,,,,,,,METAR,9.0
KIDA 180753Z 00000KT 8SM FEW001 OVC060 M06/M08 A3006 RMK AO2 SLP214 T10611078,KIDA,2014-12-18T07:53:00Z,43.52,-112.07,-6.1,-7.8,0,0,,8.0,30.059055,1021.4,,,TRUE,,,,,,,FEW,100,OVC,6000,,,,,VFR,,,,,,,,,,,,METAR,1453.0
KICT 180753Z 08005KT 1 3/4SM -SN BR BKN005 OVC010 00/M02 A3013 RMK AO2 SFC VIS 2 1/2 SLP215 P0002 T00001017 $,KICT,2014-12-18T07:53:00Z,37.65,-97.43,0.0,-1.7,80,5,,1.75,30.129921,1021.5,,,TRUE,TRUE,,,,,-SN BR,BKN,500,OVC,1000,,,,,IFR,,,,,,0.02,,,,,,METAR,407.0
KICR 180753Z AUTO 15009KT FEW006 OVC011 M05/M07 A3011 RMK AO2 SLP228 T10501067 $,KICR,2014-12-18T07:53:00Z,43.38,-99.85,-5.0,-6.7,150,9,,,30.109253,1022.8,,TRUE,TRUE,TRUE,,,,,,FEW,600,OVC,1100,,,,,,,,,,,,,,,,,METAR,621.0
KIAH 180753Z 10005KT 10SM FEW012 BKN060 BKN100 14/13 A3008 RMK AO2 SLP185 T01440128,KIAH,2014-12-18T07:53:00Z,30.0,-95.37,14.4,12.8,100,5,,10.0,30.079725,1018.5,,,TRUE,,,,,,,FEW,1200,BKN,6000,BKN,10000,,,VFR,,,,,,,,,,,,METAR,36.0
KIAG 180753Z AUTO 26013G22KT 10SM OVC031 M01/M04 A3003 RMK AO2 SLP184 T10111044,KIAG,2014-12-18T07:53:00Z,43.12,-78.93,-1.1,-4.4,260,13,22,10.0,30.029528,1018.4,,TRUE,TRUE,,,,,,,OVC,3100,,,,,,,VFR,,,,,,,,,,,,METAR,182.0
KGAG 180753Z AUTO 00000KT 7SM OVC006 02/02 A3006 RMK AO2 RAE11B32E42 SLP188 P0000 T00220022,KGAG,2014-12-18T07:53:00Z,36.3,-99.77,2.2,2.2,0,0,,7.0,30.059055,1018.8,,TRUE,TRUE,,,,,,,OVC,600,,,,,,,IFR,,,,,,0.0050,,,,,,METAR,668.0
KFYV 180753Z AUTO 09003KT 10SM OVC029 03/01 A3015 RMK AO2 RAB03E18 SLP217 P0000 T00280011,KFYV,2014-12-18T07:53:00Z,36.02,-94.17,2.8,1.1,90,3,,10.0,30.15059,1021.7,,TRUE,TRUE,,,,,,,OVC,2900,,,,,,,MVFR,,,,,,0.0050,,,,,,METAR,379.0
KFXE 180753Z AUTO 26003KT 10SM CLR 17/13 A3014 RMK AO2 SLP207 T01670133 TSNO $,KFXE,2014-12-18T07:53:00Z,26.2,-80.18,16.7,13.3,260,3,,10.0,30.138779,1020.7,,TRUE,TRUE,TRUE,,TRUE,,,,CLR,,,,,,,,VFR,,,,,,,,,,,,METAR,6.0
KFWN 180753Z AUTO 00000KT 10SM BKN036 OVC070 03/M04 A2992 RMK AO2 SLP133 T00281044,KFWN,2014-12-18T07:53:00Z,41.2,-74.63,2.8,-4.4,0,0,,10.0,29.920275,1013.3,,TRUE,TRUE,,,,,,,BKN,3600,OVC,7000,,,,,VFR,,,,,,,,,,,,METAR,133.0
KFVE 180753Z AUTO 01010KT 1SM -SN BR VV011 M04/M04 A2966 RMK AO2 SLP055 P0003 T10391044,KFVE,2014-12-18T07:53:00Z,47.28,-68.3,-3.9,-4.4,10,10,,1.0,29.660433,1005.5,,TRUE,TRUE,,,,,,-SN BR,OVX,0,,,,,,,LIFR,,,,,,0.03,,,,,1100,METAR,301.0
KFUL 180753Z 00000KT 10SM CLR 11/07 A3010 RMK AO2 SLP193 T01110072 401890111,KFUL,2014-12-18T07:53:00Z,33.87,-117.98,11.1,7.2,0,0,,10.0,30.100393,1019.3,,,TRUE,,,,,,,CLR,,,,,,,,VFR,,,,18.9,11.1,,,,,,,METAR,35.0
KFTY 180753Z 32008KT 10SM CLR 04/00 A3015 RMK AO2 SLP213 T00390000,KFTY,2014-12-18T07:53:00Z,33.78,-84.52,3.9,0.0,320,8,,10.0,30.15059,1021.3,,,TRUE,,,,,,,CLR,,,,,,,,VFR,,,,,,,,,,,,METAR,263.0
KFTW 180753Z 09006KT 1 1/2SM BR OVC003 07/06 A3011 RMK AO2 SLP197 T00670056,KFTW,2014-12-18T07:53:00Z,32.83,-97.37,6.7,5.6,90,6,,1.5,30.109253,1019.7,,,TRUE,,,,,,BR,OVC,300,,,,,,,LIFR,,,,,,,,,,,,METAR,214.0
KFST 180753Z AUTO 23009KT 10SM CLR 08/M02 A3009 RMK AO2 SLP165 T00781017,KFST,2014-12-18T07:53:00Z,30.92,-102.92,7.8,-1.7,230,9,,10.0,30.088583,1016.5,,TRUE,TRUE,,,,,,,CLR,,,,,,,,VFR,,,,,,,,,,,,METAR,918.0
KFSM 180753Z AUTO 09008KT 10SM OVC035 03/01 A3020 RMK AO2 SLP228 T00280006,KFSM,2014-12-18T07:53:00Z,35.33,-94.37,2.8,0.6,90,8,,10.0,30.200787,1022.8,,TRUE,TRUE,,,,,,,OVC,3500,,,,,,,VFR,,,,,,,,,,,,METAR,140.0
KFRG 180753Z AUTO 30009KT 10SM BKN043 OVC050 05/M03 A2988 RMK AO2 SLP120 T00501028,KFRG,2014-12-18T07:53:00Z,40.73,-73.42,5.0,-2.8,300,9,,10.0,29.878937,1012.0,,TRUE,TRUE,,,,,,,BKN,4300,OVC,5000,,,,,VFR,,,,,,,,,,,,METAR,21.0
KFPR 180753Z AUTO 25003KT 10SM CLR 12/11 A3013 RMK AO2 SLP200 T01170106,KFPR,2014-12-18T07:53:00Z,27.5,-80.38,11.7,10.6,250,3,,10.0,30.129921,1020.0,,TRUE,TRUE,,,,,,,CLR,,,,,,,,VFR,,,,,,,,,,,,METAR,13.0
KFOK 180753Z AUTO 29012G17KT 10SM BKN055 OVC070 05/M02 A2986 RMK AO2 SLP111 T00501017 TSNO,KFOK,2014-12-18T07:53:00Z,40.85,-72.62,5.0,-1.7,290,12,17,10.0,29.861221,1011.1,,TRUE,TRUE,,,TRUE,,,,BKN,5500,OVC,7000,,,,,VFR,,,,,,,,,,,,METAR,33.0
KFOE 180753Z AUTO 07003KT 1 3/4SM -SN BR BKN007 BKN027 OVC038 M02/M03 A3021 RMK AO2 SLP240 P0002 T10171028,KFOE,2014-12-18T07:53:00Z,38.93,-95.65,-1.7,-2.8,70,3,,1.75,30.209646,1024.0,,TRUE,TRUE,,,,,,-SN BR,BKN,700,BKN,2700,OVC,3800,,,IFR,,,,,,0.02,,,,,,METAR,320.0
KFNT 180753Z AUTO 28014KT 10SM OVC018 M01/M05 A3017 RMK AO2 SLP228 T10111050,KFNT,2014-12-18T07:53:00Z,42.97,-83.75,-1.1,-5.0,280,14,,10.0,30.171259,1022.8,,TRUE,TRUE,,,,,,,OVC,1800,,,,,,,MVFR,,,,,,,,,,,,METAR,233.0
KFNB 180753Z AUTO 16004KT 1 1/4SM -SN OVC024 M02/M05 A3024 RMK AO2 SNB21 SLP250 P0000 T10221050,KFNB,2014-12-18T07:53:00Z,40.07,-95.58,-2.2,-5.0,160,4,,1.25,30.239174,1025.0,,TRUE,TRUE,,,,,,-SN,OVC,2400,,,,,,,IFR,,,,,,0.0050,,,,,,METAR,300.0
KFMY 180753Z AUTO 00000KT 10SM CLR 14/12 A3014 RMK AO2 SLP206 T01390117,KFMY,2014-12-18T07:53:00Z,26.58,-81.87,13.9,11.7,0,0,,10.0,30.138779,1020.6,,TRUE,TRUE,,,,,,,CLR,,,,,,,,VFR,,,,,,,,,,,,METAR,4.0
KFMN 180753Z AUTO 00000KT 10SM FEW006 OVC011 01/01 A3009 RMK AO2 RAB30E39 SLP193 P0000 T00110006,KFMN,2014-12-18T07:53:00Z,36.75,-108.23,1.1,0.6,0,0,,10.0,30.088583,1019.3,,TRUE,TRUE,,,,,,,FEW,600,OVC,1100,,,,,MVFR,,,,,,0.0050,,,,,,METAR,1685.0
KFLO 180753Z AUTO 00000KT 9SM CLR 03/02 A3008 RMK AO2 SLP186 T00280017,KFLO,2014-12-18T07:53:00Z,34.18,-79.73,2.8,1.7,0,0,,9.0,30.079725,1018.6,,TRUE,TRUE,,,,,,,CLR,,,,,,,,VFR,,,,,,,,,,,,METAR,44.0
KFLL 180753Z 28004KT 10SM SCT060 BKN220 18/14 A3014 RMK AO2 SLP204 T01830139,KFLL,2014-12-18T07:53:00Z,26.07,-80.15,18.3,13.9,280,4,,10.0,30.138779,1020.4,,,TRUE,,,,,,,SCT,6000,BKN,22000,,,,,VFR,,,,,,,,,,,,METAR,3.0
KFLD 180753Z AUTO 00000KT 10SM OVC020 M05/M09 A3027 RMK AO2 SLP262 T10501089,KFLD,2014-12-18T07:53:00Z,43.77,-88.48,-5.0,-8.9,0,0,,10.0,30.268702,1026.2,,TRUE,TRUE,,,,,,,OVC,2000,,,,,,,MVFR,,,,,,,,,,,,METAR,240.0
KFHR 180753Z AUTO 00000KT 10SM BKN010 OVC015 07/06 A2992 RMK AO2 RAE18 SLP131 P0000 T00720061 400890061,KFHR,2014-12-18T07:53:00Z,48.52,-123.03,7.2,6.1,0,0,,10.0,29.920275,1013.1,,TRUE,TRUE,,,,,,,BKN,1000,OVC,1500,,,,,MVFR,,,,8.9,6.1,0.0050,,,,,,METAR,32.0
KFFT 180753Z AUTO 36004KT 10SM OVC017 M02/M06 A3026 RMK AO2 SLP255 T10171061,KFFT,2014-12-18T07:53:00Z,38.18,-84.9,-1.7,-6.1,360,4,,10.0,30.259842,1025.5,,TRUE,TRUE,,,,,,,OVC,1700,,,,,,,MVFR,,,,,,,,,,,,METAR,236.0
KFFC 180753Z AUTO 30004KT 10SM CLR 03/01 A3014 RMK AO2 SLP212 T00330011 $,KFFC,2014-12-18T07:53:00Z,33.35,-84.57,3.3,1.1,300,4,,10.0,30.138779,1021.2,,TRUE,TRUE,TRUE,,,,,,CLR,,,,,,,,VFR,,,,,,,,,,,,METAR,262.0
KFDY 180753Z AUTO 28009KT 10SM OVC022 M02/M06 A3022 RMK AO2 SLP241 T10171061,KFDY,2014-12-18T07:53:00Z,41.02,-83.67,-1.7,-6.1,280,9,,10.0,30.221457,1024.1,,TRUE,TRUE,,,,,,,OVC,2200,,,,,,,MVFR,,,,,,,,,,,,METAR,247.0
KFDR 180753Z AUTO 11011KT 1/4SM FG VV002 04/04 A3005 RMK AO2 SLP180 T00390039,KFDR,2014-12-18T07:53:00Z,34.35,-98.98,3.9,3.9,110,11,,0.25,30.050198,1018.0,,TRUE,TRUE,,,,,,FG,OVX,0,,,,,,,LIFR,,,,,,,,,,,200,METAR,386.0
KFCM 180753Z AUTO 00000KT 9SM CLR M11/M14 A3032 RMK AO2 SLP285 I1000 T11111139,KFCM,2014-12-18T07:53:00Z,44.83,-93.47,-11.1,-13.9,0,0,,9.0,30.318897,1028.5,,TRUE,TRUE,,,,,,,CLR,,,,,,,,VFR,,,,,,,,,,,,METAR,280.0
KFAY 180753Z AUTO 35004KT 10SM CLR 04/03 A3009 RMK AO2 SLP184 T00440028,KFAY,2014-12-18T07:53:00Z,34.98,-78.88,4.4,2.8,350,4,,10.0,30.088583,1018.4,,TRUE,TRUE,,,,,,,CLR,,,,,,,,VFR,,,,,,,,,,,,METAR,55.0
KFAT 180753Z 11003KT 9SM OVC100 09/08 A3015 RMK AO2 SLP210 T00890078 401390089,KFAT,2014-12-18T07:53:00Z,36.78,-119.72,8.9,7.8,110,3,,9.0,30.15059,1021.0,,,TRUE,,,,,,,OVC,10000,,,,,,,VFR,,,,13.9,8.9,,,,,,,METAR,104.0
KFAR 180753Z 14004KT 10SM CLR M13/M15 A3029 RMK AO2 SLP279 T11281150,KFAR,2014-12-18T07:53:00Z,46.93,-96.82,-12.8,-15.0,140,4,,10.0,30.28937,1027.9,,,TRUE,,,,,,,CLR,,,,,,,,VFR,,,,,,,,,,,,METAR,277.0
KEYW 180753Z AUTO 02005KT 10SM CLR 19/17 A3014 RMK AO2 SLP206 T01890167,KEYW,2014-12-18T07:53:00Z,24.55,-81.75,18.9,16.7,20,5,,10.0,30.138779,1020.6,,TRUE,TRUE,,,,,,,CLR,,,,,,,,VFR,,,,,,,,,,,,METAR,5.0
KHBG 180753Z AUTO 00000KT 10SM CLR 04/03 A3021 RMK AO2 SLP231 T00440033,KHBG,2014-12-18T07:53:00Z,31.27,-89.25,4.4,3.3,0,0,,10.0,30.209646,1023.1,,TRUE,TRUE,,,,,,,CLR,,,,,,,,VFR,,,,,,,,,,,,METAR,44.0
KHAO 180753Z AUTO 00000KT 10SM OVC020 M03/M07 A3031 RMK AO2 SLP271 T10281067,KHAO,2014-12-18T07:53:00Z,39.37,-84.52,-2.8,-6.7,0,0,,10.0,30.31004,1027.1,,TRUE,TRUE,,,,,,,OVC,2000,,,,,,,MVFR,,,,,,,,,,,,METAR,188.0
KGZH 180753Z AUTO 00000KT 10SM CLR 03/02 A3019 RMK AO2 SLP223 T00330022,KGZH,2014-12-18T07:53:00Z,31.42,-87.05,3.3,2.2,0,0,,10.0,30.188976,1022.3,,TRUE,TRUE,,,,,,,CLR,,,,,,,,VFR,,,,,,,,,,,,METAR,78.0
KGWO 180753Z AUTO 01004KT 10SM OVC080 07/03 A3026 RMK AO2 SLP245 T00670028,KGWO,2014-12-18T07:53:00Z,33.5,-90.08,6.7,2.8,10,4,,10.0,30.259842,1024.5,,TRUE,TRUE,,,,,,,OVC,8000,,,,,,,VFR,,,,,,,,,,,,METAR,44.0
KGVL 180753Z AUTO 30004KT 10SM CLR 03/M01 A3010 RMK AO2 SLP194 T00281011,KGVL,2014-12-18T07:53:00Z,34.27,-83.83,2.8,-1.1,300,4,,10.0,30.100393,1019.4,,TRUE,TRUE,,,,,,,CLR,,,,,,,,VFR,,,,,,,,,,,,METAR,386.0
KGUY 180753Z AUTO 33005KT 9SM OVC008 01/00 A3002 RMK AO2 SLP165 T00110000,KGUY,2014-12-18T07:53:00Z,36.68,-101.5,1.1,0.0,330,5,,9.0,30.02067,1016.5,,TRUE,TRUE,,,,,,,OVC,800,,,,,,,IFR,,,,,,,,,,,,METAR,948.0
KGUP 180753Z AUTO 22007KT 10SM OVC012 00/M02 A3012 RMK AO2 SLP207 T00001017,KGUP,2014-12-18T07:53:00Z,35.52,-108.8,0.0,-1.7,220,7,,10.0,30.121063,1020.7,,TRUE,TRUE,,,,,,,OVC,1200,,,,,,,MVFR,,,,,,,,,,,,METAR,1971.0
KGTF 180753Z AUTO 20009KT 10SM CLR M01/M05 A2988 RMK AO2 SLP155 T10061050,KGTF,2014-12-18T07:53:00Z,47.47,-111.38,-0.6,-5.0,200,9,,10.0,29.878937,1015.5,,TRUE,TRUE,,,,,,,CLR,,,,,,,,VFR,,,,,,,,,,,,METAR,1119.0
KGSP 180753Z AUTO 00000KT 10SM CLR 06/M04 A3008 RMK AO2 SLP182 T00561039,KGSP,2014-12-18T07:53:00Z,34.9,-82.22,5.6,-3.9,0,0,,10.0,30.079725,1018.2,,TRUE,TRUE,,,,,,,CLR,,,,,,,,VFR,,,,,,,,,,,,METAR,287.0
KGSH 180753Z AUTO 27006KT 10SM OVC020 M03/M06 A3024 RMK AO2 SLP252 T10281061,KGSH,2014-12-18T07:53:00Z,41.53,-85.78,-2.8,-6.1,270,6,,10.0,30.239174,1025.2,,TRUE,TRUE,,,,,,,OVC,2000,,,,,,,MVFR,,,,,,,,,,,,METAR,252.0
KGRR 180753Z AUTO 27007KT 10SM BKN020 OVC025 M02/M05 A3022 RMK AO2 SLP242 T10171050,KGRR,2014-12-18T07:53:00Z,42.88,-85.52,-1.7,-5.0,270,7,,10.0,30.221457,1024.2,,TRUE,TRUE,,,,,,,BKN,2000,OVC,2500,,,,,MVFR,,,,,,,,,,,,METAR,237.0
KGRB 180753Z AUTO 31005KT 10SM OVC015 M03/M06 A3028 RMK AO2 SLP264 T10281056,KGRB,2014-12-18T07:53:00Z,44.48,-88.13,-2.8,-5.6,310,5,,10.0,30.280512,1026.4,,TRUE,TRUE,,,,,,,OVC,1500,,,,,,,MVFR,,,,,,,,,,,,METAR,208.0
KGPT 180753Z AUTO 00000KT 10SM CLR 07/05 A3018 RMK AO2 SLP218 T00670050,KGPT,2014-12-18T07:53:00Z,30.42,-89.08,6.7,5.0,0,0,,10.0,30.180119,1021.8,,TRUE,TRUE,,,,,,,CLR,,,,,,,,VFR,,,,,,,,,,,,METAR,14.0
KGOK 180753Z AUTO 13003KT 1 1/2SM BR OVC003 03/03 A3012 RMK AO2 SLP207 T00280028,KGOK,2014-12-18T07:53:00Z,35.85,-97.4,2.8,2.8,130,3,,1.5,30.121063,1020.7,,TRUE,TRUE,,,,,,BR,OVC,300,,,,,,,LIFR,,,,,,,,,,,,METAR,324.0
KGNV 180753Z AUTO 29003KT 10SM CLR 07/06 A3015 RMK AO2 SLP208 T00720061,KGNV,2014-12-18T07:53:00Z,29.7,-82.28,7.2,6.1,290,3,,10.0,30.15059,1020.8,,TRUE,TRUE,,,,,,,CLR,,,,,,,,VFR,,,,,,,,,,,,METAR,45.0
KGMU 180753Z AUTO 36006KT 10SM CLR 06/M04 A3009 RMK AO2 SLP190 T00611044,KGMU,2014-12-18T07:53:00Z,34.85,-82.35,6.1,-4.4,360,6,,10.0,30.088583,1019.0,,TRUE,TRUE,,,,,,,CLR,,,,,,,,VFR,,,,,,,,,,,,METAR,315.0
KGLR 180753Z AUTO 32005KT 10SM OVC005 M06/M06 A3012 RMK AO2 SLP222 T10561061,KGLR,2014-12-18T07:53:00Z,45.02,-84.68,-5.6,-6.1,320,5,,10.0,30.121063,1022.2,,TRUE,TRUE,,,,,,,OVC,500,,,,,,,IFR,,,,,,,,,,,,METAR,407.0
KGLH 180753Z AUTO 02008KT 7SM -RA OVC070 06/03 A3026 RMK AO2 RAB40 SLP254 P0000 T00560033,KGLH,2014-12-18T07:53:00Z,33.5,-90.98,5.6,3.3,20,8,,7.0,30.259842,1025.4,,TRUE,TRUE,,,,,,-RA,OVC,7000,,,,,,,VFR,,,,,,0.0050,,,,,,METAR,45.0
KGLD 180753Z AUTO 00000KT 10SM OVC014 M04/M05 A3004 RMK AO2 SNE31 SLP205 P0001 T10391050,KGLD,2014-12-18T07:53:00Z,39.37,-101.7,-3.9,-5.0,0,0,,10.0,30.041338,1020.5,,TRUE,TRUE,,,,,,,OVC,1400,,,,,,,MVFR,,,,,,0.01,,,,,,METAR,1113.0
KGKY 180753Z AUTO A3013 RMK AO2 SLPNO $,KGKY,2014-12-18T07:53:00Z,32.67,-97.1,,,,,,,30.129921,,,TRUE,TRUE,TRUE,,,,,,,,,,,,,,,,,,,,,,,,,,METAR,192.0
KGKJ 180753Z AUTO 26009KT 2 1/2SM -SN OVC015 M03/M06 A3010 RMK AO2 SLP210 P0001 T10281056 TSNO,KGKJ,2014-12-18T07:53:00Z,41.63,-80.22,-2.8,-5.6,260,9,,2.5,30.100393,1021.0,,TRUE,TRUE,,,TRUE,,,-SN,OVC,1500,,,,,,,IFR,,,,,,0.01,,,,,,METAR,428.0
KGJT 180753Z AUTO 35007KT 9SM -RA BKN009 BKN022 OVC033 01/01 A3005 RMK AO2 SLP182 P0002 T00060006 $,KGJT,2014-12-18T07:53:00Z,39.12,-108.52,0.6,0.6,350,7,,9.0,30.050198,1018.2,,TRUE,TRUE,TRUE,,,,,-RA,BKN,900,BKN,2200,OVC,3300,,,IFR,,,,,,0.02,,,,,,METAR,1475.0
KGIF 180753Z AUTO 31005KT 10SM CLR 10/08 A3015 RMK AO2 SLP208 T01000083,KGIF,2014-12-18T07:53:00Z,28.07,-81.75,10.0,8.3,310,5,,10.0,30.15059,1020.8,,TRUE,TRUE,,,,,,,CLR,,,,,,,,VFR,,,,,,,,,,,,METAR,43.0
KGGW 180753Z AUTO 12011KT 10SM OVC017 M04/M07 A2995 RMK AO2 SNE30 SLP179 P0000 T10441067,KGGW,2014-12-18T07:53:00Z,48.22,-106.62,-4.4,-6.7,120,11,,10.0,29.949802,1017.9,,TRUE,TRUE,,,,,,,OVC,1700,,,,,,,MVFR,,,,,,0.0050,,,,,,METAR,694.0
KGGG 180753Z AUTO 03003KT 10SM OVC004 07/06 A3016 RMK AO2 RAB11E34 SLP215 P0000 T00720056,KGGG,2014-12-18T07:53:00Z,32.38,-94.72,7.2,5.6,30,3,,10.0,30.159449,1021.5,,TRUE,TRUE,,,,,,,OVC,400,,,,,,,LIFR,,,,,,0.0050,,,,,,METAR,107.0
KGFL 180753Z AUTO 20009KT 10SM FEW005 OVC047 01/M01 A2979 RMK AO2 SNE23 SLP095 P0000 T00061006,KGFL,2014-12-18T07:53:00Z,43.33,-73.62,0.6,-0.6,200,9,,10.0,29.790354,1009.5,,TRUE,TRUE,,,,,,,FEW,500,OVC,4700,,,,,VFR,,,,,,0.0050,,,,,,METAR,103.0
KGFK 180753Z AUTO 00000KT 10SM CLR M16/M18 A3029 RMK AO2 SLP278 T11561178 TSNO,KGFK,2014-12-18T07:53:00Z,47.95,-97.18,-15.6,-17.8,0,0,,10.0,30.28937,1027.8,,TRUE,TRUE,,,TRUE,,,,CLR,,,,,,,,VFR,,,,,,,,,,,,METAR,258.0
KGEZ 180753Z AUTO 01003KT 10SM OVC018 M03/M08 A3029 RMK AO2 SLP265 T10281078,KGEZ,2014-12-18T07:53:00Z,39.58,-85.8,-2.8,-7.8,10,3,,10.0,30.28937,1026.5,,TRUE,TRUE,,,,,,,OVC,1800,,,,,,,MVFR,,,,,,,,,,,,METAR,245.0
KGEY 180753Z AUTO 22004KT 10SM CLR M12/M13 A3001 RMK AO2 SLP219 T11171128,KGEY,2014-12-18T07:53:00Z,44.52,-108.08,-11.7,-12.8,220,4,,10.0,30.008858,1021.9,,TRUE,TRUE,,,,,,,CLR,,,,,,,,VFR,,,,,,,,,,,,METAR,1191.0
KGEG 180753Z 09005KT 8SM SCT037 OVC046 02/01 A2994 RMK AO2 RAE05 SLP154 P0001 T00170011 400281006,KGEG,2014-12-18T07:53:00Z,47.62,-117.53,1.7,1.1,90,5,,8.0,29.940945,1015.4,,,TRUE,,,,,,,SCT,3700,OVC,4600,,,,,VFR,,,,2.8,-0.6,0.01,,,,,,METAR,735.0
KGCC 180753Z AUTO 00000KT 10SM CLR M05/M08 A2994 RMK AO2 SLP174 T10501078 TSNO,KGCC,2014-12-18T07:53:00Z,44.33,-105.55,-5.0,-7.8,0,0,,10.0,29.940945,1017.4,,TRUE,TRUE,,,TRUE,,,,CLR,,,,,,,,VFR,,,,,,,,,,,,METAR,1320.0
KDLS 180753Z AUTO 00000KT 9SM OVC024 04/03 A3003 RMK AO2 SLP172 T00390028 400560033,KDLS,2014-12-18T07:53:00Z,45.62,-121.17,3.9,2.8,0,0,,9.0,30.029528,1017.2,,TRUE,TRUE,,,,,,,OVC,2400,,,,,,,MVFR,,,,5.6,3.3,,,,,,,METAR,71.0
KDLN 180753Z AUTO 18004KT 10SM CLR M08/M11 A2999 RMK AO2 SLP198 T10781111,KDLN,2014-12-18T07:53:00Z,45.25,-112.55,-7.8,-11.1,180,4,,10.0,29.991142,1019.8,,TRUE,TRUE,,,,,,,CLR,,,,,,,,VFR,,,,,,,,,,,,METAR,1591.0
KDKK 180753Z AUTO 28013G23KT 10SM OVC024 M01/M05 A3009 RMK AO2 SLP197 T10061050,KDKK,2014-12-18T07:53:00Z,42.5,-79.28,-0.6,-5.0,280,13,23,10.0,30.088583,1019.7,,TRUE,TRUE,,,,,,,OVC,2400,,,,,,,MVFR,,,,,,,,,,,,METAR,202.0
KDHT 180753Z AUTO 01011KT 1 3/4SM BR OVC003 01/M01 A3000 RMK AO2 SLP151 T00111006,KDHT,2014-12-18T07:53:00Z,36.02,-102.55,1.1,-0.6,10,11,,1.75,30.0,1015.1,,TRUE,TRUE,,,,,,BR,OVC,300,,,,,,,LIFR,,,,,,,,,,,,METAR,1217.0
KDHN 180753Z AUTO 34005KT 10SM CLR 06/04 A3020 RMK AO2 SLP226 T00610039 $,KDHN,2014-12-18T07:53:00Z,31.32,-85.45,6.1,3.9,340,5,,10.0,30.200787,1022.6,,TRUE,TRUE,TRUE,,,,,,CLR,,,,,,,,VFR,,,,,,,,,,,,METAR,113.0
KDGW 180753Z AUTO 32003KT 10SM CLR M13/M14 A2997 RMK AO2 SLP194 I1000 T11281144,KDGW,2014-12-18T07:53:00Z,42.8,-105.38,-12.8,-14.4,320,3,,10.0,29.970472,1019.4,,TRUE,TRUE,,,,,,,CLR,,,,,,,,VFR,,,,,,,,,,,,METAR,1499.0
KDFW 180753Z 09004KT 4SM -DZ BR OVC004 06/05 A3012 RMK AO2 SLP201 P0000 T00560050,KDFW,2014-12-18T07:53:00Z,32.9,-97.02,5.6,5.0,90,4,,4.0,30.121063,1020.1,,,TRUE,,,,,,-DZ BR,OVC,400,,,,,,,LIFR,,,,,,0.0050,,,,,,METAR,174.0
KDEW 180753Z AUTO 06004KT 10SM FEW022 SCT027 OVC043 01/01 A2996 RMK AO2 SLP160 T00110006 400390006,KDEW,2014-12-18T07:53:00Z,47.97,-117.43,1.1,0.6,60,4,,10.0,29.958662,1016.0,,TRUE,TRUE,,,,,,,FEW,2200,SCT,2700,OVC,4300,,,VFR,,,,3.9,0.6,,,,,,,METAR,674.0
KDET 180753Z 29008KT 10SM BKN022 OVC039 M01/M06 A3018 RMK AO2 SLP227 T10061061,KDET,2014-12-18T07:53:00Z,42.4,-83.02,-0.6,-6.1,290,8,,10.0,30.180119,1022.7,,,TRUE,,,,,,,BKN,2200,OVC,3900,,,,,MVFR,,,,,,,,,,,,METAR,190.0
KDEQ 180753Z AUTO 09005KT 4SM -RA BR OVC006 03/03 A3018 RMK AO2 SLP220 P0001 T00330028,KDEQ,2014-12-18T07:53:00Z,34.05,-94.4,3.3,2.8,90,5,,4.0,30.180119,1022.0,,TRUE,TRUE,,,,,,-RA BR,OVC,600,,,,,,,IFR,,,,,,0.01,,,,,,METAR,106.0
KDEN 180753Z 23003KT 9SM BKN055 M02/M04 A2997 RMK AO2 SLP154 T10171039,KDEN,2014-12-18T07:53:00Z,39.85,-104.65,-1.7,-3.9,230,3,,9.0,29.970472,1015.4,,,TRUE,,,,,,,BKN,5500,,,,,,,VFR,,,,,,,,,,,,METAR,1640.0
KDCU 180753Z AUTO 36005KT 9SM OVC090 03/M01 A3025 RMK AO2 SLP244 T00281006 $,KDCU,2014-12-18T07:53:00Z,34.65,-86.95,2.8,-0.6,360,5,,9.0,30.250984,1024.4,,TRUE,TRUE,TRUE,,,,,,OVC,9000,,,,,,,VFR,,,,,,,,,,,,METAR,176.0
KDBQ 180753Z AUTO 02003KT 9SM CLR M09/M11 A3027 RMK AO2 SLP268 T10941106,KDBQ,2014-12-18T07:53:00Z,42.4,-90.7,-9.4,-10.6,20,3,,9.0,30.268702,1026.8,,TRUE,TRUE,,,,,,,CLR,,,,,,,,VFR,,,,,,,,,,,,METAR,326.0
KDAN 180753Z AUTO 36004KT 10SM CLR 04/M04 A3012 RMK AO2 SLP194 T00391039,KDAN,2014-12-18T07:53:00Z,36.57,-79.33,3.9,-3.9,360,4,,10.0,30.121063,1019.4,,TRUE,TRUE,,,,,,,CLR,,,,,,,,VFR,,,,,,,,,,,,METAR,175.0
KDAL 180753Z 08004KT 7SM -DZ OVC006 06/05 A3014 RMK AO2 DZB49 SLP205 P0000 T00610050,KDAL,2014-12-18T07:53:00Z,32.85,-96.85,6.1,5.0,80,4,,7.0,30.138779,1020.5,,,TRUE,,,,,,-DZ,OVC,600,,,,,,,IFR,,,,,,0.0050,,,,,,METAR,158.0
KDAB 180753Z 00000KT 10SM FEW200 08/07 A3014 RMK AO2 SLP206 T00830072,KDAB,2014-12-18T07:53:00Z,29.18,-81.07,8.3,7.2,0,0,,10.0,30.138779,1020.6,,,TRUE,,,,,,,FEW,20000,,,,,,,VFR,,,,,,,,,,,,METAR,9.0
KCYS 180753Z AUTO 29014KT 10SM FEW055 M01/M08 A2994 RMK AO2 SLP135 T10111083 $,KCYS,2014-12-18T07:53:00Z,41.15,-104.8,-1.1,-8.3,290,14,,10.0,29.940945,1013.5,,TRUE,TRUE,TRUE,,,,,,FEW,5500,,,,,,,VFR,,,,,,,,,,,,METAR,1868.0
KCXO 180753Z AUTO 00000KT 10SM FEW013 BKN060 OVC075 14/11 A3010 RMK AO2 SLP189 T01390111,KCXO,2014-12-18T07:53:00Z,30.35,-95.42,13.9,11.1,0,0,,10.0,30.100393,1018.9,,TRUE,TRUE,,,,,,,FEW,1300,BKN,6000,OVC,7500,,,VFR,,,,,,,,,,,,METAR,75.0
KCUT 180753Z AUTO 30003KT 10SM CLR M05/M09 A2990 RMK AO2 SLP151 T10501089,KCUT,2014-12-18T07:53:00Z,43.73,-103.62,-5.0,-8.9,300,3,,10.0,29.899607,1015.1,,TRUE,TRUE,,,,,,,CLR,,,,,,,,VFR,,,,,,,,,,,,METAR,1725.0
KCUB 180753Z AUTO 00000KT 10SM CLR 03/01 A3010 RMK AO2 SLP192 T00280011,KCUB,2014-12-18T07:53:00Z,33.97,-81.0,2.8,1.1,0,0,,10.0,30.100393,1019.2,,TRUE,TRUE,,,,,,,CLR,,,,,,,,VFR,,,,,,,,,,,,METAR,56.0
KCSV 180753Z AUTO 01003KT 8SM OVC110 01/M03 A3019 RMK AO2 SLP233 T00061033,KCSV,2014-12-18T07:53:00Z,35.95,-85.08,0.6,-3.3,10,3,,8.0,30.188976,1023.3,,TRUE,TRUE,,,,,,,OVC,11000,,,,,,,VFR,,,,,,,,,,,,METAR,570.0
KCSM 180753Z AUTO 15008KT 1/4SM FG VV002 04/03 A3007 RMK AO2 RAE16 SLP186 P0000 T00390033,KCSM,2014-12-18T07:53:00Z,35.35,-99.2,3.9,3.3,150,8,,0.25,30.070866,1018.6,,TRUE,TRUE,,,,,,FG,OVX,0,,,,,,,LIFR,,,,,,0.0050,,,,,200,METAR,588.0
KCRS 180753Z AUTO 05006KT 2SM BR OVC003 07/06 A3015 RMK AO2 SLP209 T00720061,KCRS,2014-12-18T07:53:00Z,32.03,-96.4,7.2,6.1,50,6,,2.0,30.15059,1020.9,,TRUE,TRUE,,,,,,BR,OVC,300,,,,,,,LIFR,,,,,,,,,,,,METAR,133.0
KCRQ 180753Z AUTO 09004KT 10SM CLR 12/09 A3011 RMK AO2 SLP195 T01220089 401670117 TSNO,KCRQ,2014-12-18T07:53:00Z,33.13,-117.28,12.2,8.9,90,4,,10.0,30.109253,1019.5,,TRUE,TRUE,,,TRUE,,,,CLR,,,,,,,,VFR,,,,16.7,11.7,,,,,,,METAR,99.0
KCRG 180753Z AUTO 00000KT 10SM CLR 07/05 A3014 RMK AO2 SLP205 T00670050,KCRG,2014-12-18T07:53:00Z,30.33,-81.52,6.7,5.0,0,0,,10.0,30.138779,1020.5,,TRUE,TRUE,,,,,,,CLR,,,,,,,,VFR,,,,,,,,,,,,METAR,13.0
KCRE 180753Z 00000KT 10SM CLR 06/04 A3009 RMK AO1 SLP188 T00560039,KCRE,2014-12-18T07:53:00Z,33.82,-78.72,5.6,3.9,0,0,,10.0,30.088583,1018.8,,,TRUE,,,,,,,CLR,,,,,,,,VFR,,,,,,,,,,,,METAR,10.0
KCPS 180753Z AUTO 08006KT 10SM SCT013 BKN075 OVC095 M01/M03 A3029 RMK AO2 SLP260 T10061033 TSNO,KCPS,2014-12-18T07:53:00Z,38.57,-90.15,-0.6,-3.3,80,6,,10.0,30.28937,1026.0,,TRUE,TRUE,,,TRUE,,,,SCT,1300,BKN,7500,OVC,9500,,,VFR,,,,,,,,,,,,METAR,126.0
KCPR 180753Z AUTO 23008KT 10SM CLR M05/M09 A2995 RMK AO2 SLP171 T10501089,KCPR,2014-12-18T07:53:00Z,42.9,-106.47,-5.0,-8.9,230,8,,10.0,29.949802,1017.1,,TRUE,TRUE,,,,,,,CLR,,,,,,,,VFR,,,,,,,,,,,,METAR,1621.0
KCOT 180753Z AUTO 00000KT 10SM OVC019 14/12 A3005 RMK AO2 SLP170 T01440122,KCOT,2014-12-18T07:53:00Z,28.45,-99.22,14.4,12.2,0,0,,10.0,30.050198,1017.0,,TRUE,TRUE,,,,,,,OVC,1900,,,,,,,MVFR,,,,,,,,,,,,METAR,140.0
KCNY 180753Z AUTO 33004KT 10SM BKN018 01/01 A3006 RMK AO2 SLP192 T00110011,KCNY,2014-12-18T07:53:00Z,38.77,-109.75,1.1,1.1,330,4,,10.0,30.059055,1019.2,,TRUE,TRUE,,,,,,,BKN,1800,,,,,,,MVFR,,,,,,,,,,,,METAR,1390.0
KCNO 180753Z AUTO 00000KT 10SM SCT036 09/07 A3013 RMK AO2 SLP201 T00940072 401610083,KCNO,2014-12-18T07:53:00Z,33.98,-117.62,9.4,7.2,0,0,,10.0,30.129921,1020.1,,TRUE,TRUE,,,,,,,SCT,3600,,,,,,,VFR,,,,16.1,8.3,,,,,,,METAR,207.0
KBPI 180753Z AUTO 33003KT 10SM CLR M14/M16 A3003 RMK AO2 SLP204 T11391161,KBPI,2014-12-18T07:53:00Z,42.58,-110.1,-13.9,-16.1,330,3,,10.0,30.029528,1020.4,,TRUE,TRUE,,,,,,,CLR,,,,,,,,VFR,,,,,,,,,,,,METAR,2117.0
KBOI 180753Z 13003KT 10SM BKN070 OVC085 03/01 A3003 RMK AO2 SLP174 T00330006,KBOI,2014-12-18T07:53:00Z,43.57,-116.23,3.3,0.6,130,3,,10.0,30.029528,1017.4,,,TRUE,,,,,,,BKN,7000,OVC,8500,,,,,VFR,,,,,,,,,,,,METAR,875.0
KBNO 180753Z AUTO 00000KT 8SM BKN013 BKN019 OVC024 01/M01 A3000 RMK AO2 SLP173 T00061006 400441050,KBNO,2014-12-18T07:53:00Z,43.6,-118.95,0.6,-0.6,0,0,,8.0,30.0,1017.3,,TRUE,TRUE,,,,,,,BKN,1300,BKN,1900,OVC,2400,,,MVFR,,,,4.4,-5.0,,,,,,,METAR,1264.0
KBNA 180753Z 01003KT 9SM -DZ SCT070 BKN090 BKN110 01/M02 A3028 RMK AO2 SLP256 P0001 T00111017,KBNA,2014-12-18T07:53:00Z,36.12,-86.68,1.1,-1.7,10,3,,9.0,30.280512,1025.6,,,TRUE,,,,,,-DZ,SCT,7000,BKN,9000,BKN,11000,,,VFR,,,,,,0.01,,,,,,METAR,210.0
KBMQ 180753Z AUTO 06005KT 3/4SM BR VV002 08/08 A3011 RMK AO2 SLP193 T00830083,KBMQ,2014-12-18T07:53:00Z,30.73,-98.23,8.3,8.3,60,5,,0.75,30.109253,1019.3,,TRUE,TRUE,,,,,,BR,OVX,0,,,,,,,LIFR,,,,,,,,,,,200,METAR,389.0
KBMG 180753Z AUTO 06004KT 10SM OVC013 M04/M07 A3029 RMK AO2 SLP267 T10391067,KBMG,2014-12-18T07:53:00Z,39.15,-86.62,-3.9,-6.7,60,4,,10.0,30.28937,1026.7,,TRUE,TRUE,,,,,,,OVC,1300,,,,,,,MVFR,,,,,,,,,,,,METAR,257.0
KBLI 180753Z AUTO 34003KT 10SM -RA SCT027 OVC038 06/04 A2991 RMK AO2 SLP137 P0001 T00560039 400780033,KBLI,2014-12-18T07:53:00Z,48.8,-122.53,5.6,3.9,340,3,,10.0,29.911417,1013.7,,TRUE,TRUE,,,,,,-RA,SCT,2700,OVC,3800,,,,,VFR,,,,7.8,3.3,0.01,,,,,,METAR,50.0
KBKV 180753Z AUTO 00000KT 1/4SM FG VV001 05/04 A3017 RMK AO2 SLP215 T00500044,KBKV,2014-12-18T07:53:00Z,28.47,-82.45,5.0,4.4,0,0,,0.25,30.171259,1021.5,,TRUE,TRUE,,,,,,FG,OVX,0,,,,,,,LIFR,,,,,,,,,,,100,METAR,20.0
KBKL 180753Z 27018KT 10SM OVC030 M01/M06 A3019 RMK AO2 SLP228 T10061056,KBKL,2014-12-18T07:53:00Z,41.53,-81.67,-0.6,-5.6,270,18,,10.0,30.188976,1022.8,,,TRUE,,,,,,,OVC,3000,,,,,,,MVFR,,,,,,,,,,,,METAR,184.0
KBKE 180753Z AUTO 24003KT 10SM SCT050 BKN065 OVC080 01/M01 A2999 RMK AO2 RAB12E33 SLP173 P0000 T00061006 400441006,KBKE,2014-12-18T07:53:00Z,44.85,-117.82,0.6,-0.6,240,3,,10.0,29.991142,1017.3,,TRUE,TRUE,,,,,,,SCT,5000,BKN,6500,OVC,8000,,,VFR,,,,4.4,-0.6,0.0050,,,,,,METAR,1024.0
KBIV 180753Z AUTO 31006KT 10SM OVC020 01/M05 A3023 RMK AO2 SLP246 T00061050,KBIV,2014-12-18T07:53:00Z,42.75,-86.1,0.6,-5.0,310,6,,10.0,30.230314,1024.6,,TRUE,TRUE,,,,,,,OVC,2000,,,,,,,MVFR,,,,,,,,,,,,METAR,208.0
KBIL 180753Z 23013KT 10SM CLR M04/M07 A2994 RMK AO2 SLP174 T10441072,KBIL,2014-12-18T07:53:00Z,45.8,-108.55,-4.4,-7.2,230,13,,10.0,29.940945,1017.4,,,TRUE,,,,,,,CLR,,,,,,,,VFR,,,,,,,,,,,,METAR,1091.0
KBHM 180753Z 00000KT 10SM SCT250 02/00 A3020 RMK AO2 SLP228 T00170000,KBHM,2014-12-18T07:53:00Z,33.57,-86.75,1.7,0.0,0,0,,10.0,30.200787,1022.8,,,TRUE,,,,,,,SCT,25000,,,,,,,VFR,,,,,,,,,,,,METAR,197.0
KBGR 180753Z 33011KT 2SM -SN BR FEW007 OVC016 01/M01 A2959 RMK AO2 SLP020 P0000 T00061006,KBGR,2014-12-18T07:53:00Z,44.8,-68.82,0.6,-0.6,330,11,,2.0,29.589567,1002.0,,,TRUE,,,,,,-SN BR,FEW,700,OVC,1600,,,,,IFR,,,,,,0.0050,,,,,,METAR,57.0
KBGM 180753Z AUTO 28011G19KT 9SM SCT015 BKN021 OVC025 M02/M04 A2990 RMK AO2 PK WND 28027/0701 SLP143 T10221044,KBGM,2014-12-18T07:53:00Z,42.22,-75.98,-2.2,-4.4,280,11,19,9.0,29.899607,1014.3,,TRUE,TRUE,,,,,,,SCT,1500,BKN,2100,OVC,2500,,,MVFR,,,,,,,,,,,,METAR,490.0
KBFM 180753Z AUTO 32005KT 10SM CLR 08/06 A3020 RMK AO2 SLP226 T00780056,KBFM,2014-12-18T07:53:00Z,30.62,-88.07,7.8,5.6,320,5,,10.0,30.200787,1022.6,,TRUE,TRUE,,,,,,,CLR,,,,,,,,VFR,,,,,,,,,,,,METAR,20.0
KBFI 180753Z 14003KT 7SM -RA FEW009 SCT027 OVC038 08/06 A2993 RMK AO2 SLP134 P0001 T00830061 401110061,KBFI,2014-12-18T07:53:00Z,47.55,-122.32,8.3,6.1,140,3,,7.0,29.929134,1013.4,,,TRUE,,,,,,-RA,FEW,900,SCT,2700,OVC,3800,,,VFR,,,,11.1,6.1,0.01,,,,,,METAR,4.0
KBFF 180753Z AUTO 02004KT 1/4SM FZFG VV002 M10/M11 A3001 RMK AO2 SLP213 I1001 T11001111,KBFF,2014-12-18T07:53:00Z,41.87,-103.58,-10.0,-11.1,20,4,,0.25,30.008858,1021.3,,TRUE,TRUE,,,,,,FZFG,OVX,0,,,,,,,LIFR,,,,,,,,,,,200,METAR,1203.0
KBFD 180753Z AUTO 28011KT 3SM -SN BKN012 OVC016 M04/M07 A3000 RMK AO2 UPE44FZRAB44E47SNB09E21B22E23B47 SLP182 P0000 I1001 T10391067,KBFD,2014-12-18T07:53:00Z,41.8,-78.63,-3.9,-6.7,280,11,,3.0,30.0,1018.2,,TRUE,TRUE,,,,,,-SN,BKN,1200,OVC,1600,,,,,MVFR,,,,,,0.0050,,,,,,METAR,647.0
KBEH 180753Z AUTO 28007KT 10SM OVC018 M02/M06 A3026 RMK AO2 SLP254 T10221056,KBEH,2014-12-18T07:53:00Z,42.13,-86.42,-2.2,-5.6,280,7,,10.0,30.259842,1025.4,,TRUE,TRUE,,,,,,,OVC,1800,,,,,,,MVFR,,,,,,,,,,,,METAR,191.0
KBDE 180753Z AUTO 12003KT 10SM CLR M16/M18 A3029 RMK AO2 SLP286 T11561178 TSNO,KBDE,2014-12-18T07:53:00Z,48.73,-94.62,-15.6,-17.8,120,3,,10.0,30.28937,1028.6,,TRUE,TRUE,,,TRUE,,,,CLR,,,,,,,,VFR,,,,,,,,,,,,METAR,329.0
KBCE 180753Z AUTO 26003KT 10SM OVC055 M07/M08 A3006 RMK AO2 SLP171 T10671083,KBCE,2014-12-18T07:53:00Z,37.7,-112.15,-6.7,-8.3,260,3,,10.0,30.059055,1017.1,,TRUE,TRUE,,,,,,,OVC,5500,,,,,,,VFR,,,,,,,,,,,,METAR,2312.0
KBBW 180753Z AUTO 16006KT 3SM BR OVC005 M04/M06 A3010 RMK AO2 SLP228 T10441056 PNO,KBBW,2014-12-18T07:53:00Z,41.43,-99.63,-4.4,-5.6,160,6,,3.0,30.100393,1022.8,,TRUE,TRUE,,,,,,BR,OVC,500,,,,,,,IFR,,,,,,,,,,,,METAR,776.0
KBAF 180753Z 30012G27KT 10SM FEW030 OVC100 04/M03 A2977 RMK AO2 PK WND 31027/0748 SLP086 T00391028,KBAF,2014-12-18T07:53:00Z,42.17,-72.72,3.9,-2.8,300,12,27,10.0,29.769686,1008.6,,,TRUE,,,,,,,FEW,3000,OVC,10000,,,,,VFR,,,,,,,,,,,,METAR,83.0
KAZO 180753Z AUTO 29005KT 10SM OVC019 M02/M06 A3023 RMK AO2 SLP248 T10171061,KAZO,2014-12-18T07:53:00Z,42.23,-85.55,-1.7,-6.1,290,5,,10.0,30.230314,1024.8,,TRUE,TRUE,,,,,,,OVC,1900,,,,,,,MVFR,,,,,,,,,,,,METAR,272.0
KAXN 180753Z AUTO 13003KT 10SM CLR M13/M15 A3028 RMK AO2 SLP286 I1000 T11281150,KAXN,2014-12-18T07:53:00Z,45.87,-95.4,-12.8,-15.0,130,3,,10.0,30.280512,1028.6,,TRUE,TRUE,,,,,,,CLR,,,,,,,,VFR,,,,,,,,,,,,METAR,433.0
KAWM 180753Z AUTO 13004KT 8SM -RA FEW007 FEW070 OVC090 03/03 A3028 RMK AO2 RAB0659 SLP256 P0002 T00280028,KAWM,2014-12-18T07:53:00Z,35.13,-90.23,2.8,2.8,130,4,,8.0,30.280512,1025.6,,TRUE,TRUE,,,,,,-RA,FEW,700,FEW,7000,OVC,9000,,,VFR,,,,,,0.02,,,,,,METAR,65.0
KAUS 180753Z 02009KT 3SM -DZ BR OVC004 09/09 A3010 RMK AO2 SLP194 P0000 T00940089,KAUS,2014-12-18T07:53:00Z,30.18,-97.68,9.4,8.9,20,9,,3.0,30.100393,1019.4,,,TRUE,,,,,,-DZ BR,OVC,400,,,,,,,LIFR,,,,,,0.0050,,,,,,METAR,166.0
KCNM 180753Z AUTO 28013KT 10SM CLR 11/01 A3005 RMK AO2 SLP144 T01110006,KCNM,2014-12-18T07:53:00Z,32.33,-104.25,11.1,0.6,280,13,,10.0,30.050198,1014.4,,TRUE,TRUE,,,,,,,CLR,,,,,,,,VFR,,,,,,,,,,,,METAR,985.0
KCMX 180753Z AUTO 00000KT 10SM CLR M14/M16 A3026 RMK AO2 SLP272 I1001 T11441156,KCMX,2014-12-18T07:53:00Z,47.17,-88.48,-14.4,-15.6,0,0,,10.0,30.259842,1027.2,,TRUE,TRUE,,,,,,,CLR,,,,,,,,VFR,,,,,,,,,,,,METAR,326.0
KCMI 180753Z AUTO 00000KT 10SM OVC019 M03/M07 A3030 RMK AO2 SLP272 T10331072,KCMI,2014-12-18T07:53:00Z,40.03,-88.27,-3.3,-7.2,0,0,,10.0,30.301182,1027.2,,TRUE,TRUE,,,,,,,OVC,1900,,,,,,,MVFR,,,,,,,,,,,,METAR,228.0
KCLM 180753Z AUTO 00000KT 10SM OVC006 07/06 A2990 RMK AO2 RAB06E50 SLP127 P0000 T00670056 400890039 $,KCLM,2014-12-18T07:53:00Z,48.12,-123.5,6.7,5.6,0,0,,10.0,29.899607,1012.7,,TRUE,TRUE,TRUE,,,,,,OVC,600,,,,,,,IFR,,,,8.9,3.9,0.0050,,,,,,METAR,85.0
KCLL 180753Z 03004KT 10SM OVC007 11/09 A3010 RMK AO2 RAB0659E08 SLP190 P0000 T01110094,KCLL,2014-12-18T07:53:00Z,30.58,-96.37,11.1,9.4,30,4,,10.0,30.100393,1019.0,,,TRUE,,,,,,,OVC,700,,,,,,,IFR,,,,,,0.0050,,,,,,METAR,96.0
KCKB 180753Z 27007KT 10SM OVC024 M02/M07 A3019 RMK AO2 SLP230 T10171067,KCKB,2014-12-18T07:53:00Z,39.3,-80.22,-1.7,-6.7,270,7,,10.0,30.188976,1023.0,,,TRUE,,,,,,,OVC,2400,,,,,,,MVFR,,,,,,,,,,,,METAR,360.0
KCHO 180753Z AUTO 16004KT 10SM CLR M02/M06 A3009 RMK AO2 SLP192 T10171061,KCHO,2014-12-18T07:53:00Z,38.13,-78.45,-1.7,-6.1,160,4,,10.0,30.088583,1019.2,,TRUE,TRUE,,,,,,,CLR,,,,,,,,VFR,,,,,,,,,,,,METAR,192.0
KCHA 180753Z AUTO 35006KT 10SM CLR 02/M01 A3022 RMK AO2 SLP234 T00221011,KCHA,2014-12-18T07:53:00Z,35.03,-85.2,2.2,-1.1,350,6,,10.0,30.221457,1023.4,,TRUE,TRUE,,,,,,,CLR,,,,,,,,VFR,,,,,,,,,,,,METAR,210.0
KCGI 180753Z AUTO 00000KT 7SM BKN049 OVC065 01/00 A3029 RMK AO2 RAE21UPB05E38 SLP259 P0003 T00060000 TSNO,KCGI,2014-12-18T07:53:00Z,37.23,-89.58,0.6,0.0,0,0,,7.0,30.28937,1025.9,,TRUE,TRUE,,,TRUE,,,,BKN,4900,OVC,6500,,,,,VFR,,,,,,0.03,,,,,,METAR,102.0
KCEZ 180753Z AUTO 00000KT 3SM -SN BR FEW016 BKN026 OVC033 01/00 A3009 RMK AO2 SNB41 SLP181 P0000 T00060000,KCEZ,2014-12-18T07:53:00Z,37.3,-108.63,0.6,0.0,0,0,,3.0,30.088583,1018.1,,TRUE,TRUE,,,,,,-SN BR,FEW,1600,BKN,2600,OVC,3300,,,MVFR,,,,,,0.0050,,,,,,METAR,1797.0
KCEW 180753Z AUTO 00000KT 3SM BR CLR 03/03 A3019 RMK AO2 SLP223 T00330028,KCEW,2014-12-18T07:53:00Z,30.78,-86.52,3.3,2.8,0,0,,3.0,30.188976,1022.3,,TRUE,TRUE,,,,,,BR,CLR,,,,,,,,MVFR,,,,,,,,,,,,METAR,55.0
KCDW 180753Z AUTO 30012G22KT 10SM BKN042 OVC065 04/M04 A2993 RMK AO2 SLP140 T00391044 TSNO,KCDW,2014-12-18T07:53:00Z,40.88,-74.28,3.9,-4.4,300,12,22,10.0,29.929134,1014.0,,TRUE,TRUE,,,TRUE,,,,BKN,4200,OVC,6500,,,,,VFR,,,,,,,,,,,,METAR,64.0
KCDS 180753Z AUTO 16005KT 1 1/4SM BR OVC002 04/04 A3005 RMK AO2 SLP178 T00440039,KCDS,2014-12-18T07:53:00Z,34.43,-100.28,4.4,3.9,160,5,,1.25,30.050198,1017.8,,TRUE,TRUE,,,,,,BR,OVC,200,,,,,,,LIFR,,,,,,,,,,,,METAR,594.0
KCDR 180753Z AUTO 22004KT 1/4SM FZFG VV002 M08/M09 A3002 RMK AO2 SLP216 I1000 T10831094 $,KCDR,2014-12-18T07:53:00Z,42.83,-103.1,-8.3,-9.4,220,4,,0.25,30.02067,1021.6,,TRUE,TRUE,TRUE,,,,,FZFG,OVX,0,,,,,,,LIFR,,,,,,,,,,,200,METAR,1010.0
KCDC 180753Z AUTO 25004KT 10SM OVC041 01/M01 A3006 RMK AO2 SNE02 SLP181 P0000 T00061006,KCDC,2014-12-18T07:53:00Z,37.7,-113.1,0.6,-0.6,250,4,,10.0,30.059055,1018.1,,TRUE,TRUE,,,,,,,OVC,4100,,,,,,,VFR,,,,,,0.0050,,,,,,METAR,1714.0
KCCR 180753Z 00000KT 10SM OVC035 11/09 A3008 RMK AO2 SLP172 T01110089 401560100,KCCR,2014-12-18T07:53:00Z,38.0,-122.05,11.1,8.9,0,0,,10.0,30.079725,1017.2,,,TRUE,,,,,,,OVC,3500,,,,,,,VFR,,,,15.6,10.0,,,,,,,METAR,11.0
KCAG 180753Z AUTO 25004KT 1/2SM FZFG VV003 M03/M04 A3006 RMK AO2 SLP214 T10331039,KCAG,2014-12-18T07:53:00Z,40.5,-107.52,-3.3,-3.9,250,4,,0.5,30.059055,1021.4,,TRUE,TRUE,,,,,,FZFG,OVX,0,,,,,,,LIFR,,,,,,,,,,,300,METAR,1887.0
KBYG 180753Z AUTO 25006KT 10SM CLR M04/M08 A2994 RMK AO2 SLP162 T10441083,KBYG,2014-12-18T07:53:00Z,44.38,-106.72,-4.4,-8.3,250,6,,10.0,29.940945,1016.2,,TRUE,TRUE,,,,,,,CLR,,,,,,,,VFR,,,,,,,,,,,,METAR,1497.0
KBWG 180753Z AUTO 00000KT 10SM OVC100 M01/M04 A3031 RMK AO2 SLP267 T10061044,KBWG,2014-12-18T07:53:00Z,36.97,-86.42,-0.6,-4.4,0,0,,10.0,30.31004,1026.7,,TRUE,TRUE,,,,,,,OVC,10000,,,,,,,VFR,,,,,,,,,,,,METAR,168.0
KBVY 180753Z AUTO 26007KT 10SM BKN060 OVC095 04/M01 A2970 RMK AO2 SLP053 T00391006,KBVY,2014-12-18T07:53:00Z,42.58,-70.92,3.9,-0.6,260,7,,10.0,29.698818,1005.3,,TRUE,TRUE,,,,,,,BKN,6000,OVC,9500,,,,,VFR,,,,,,,,,,,,METAR,28.0
KBVO 180753Z AUTO 07004KT 2SM BR OVC003 01/00 A3019 RMK AO2 SLP224 T00060000,KBVO,2014-12-18T07:53:00Z,36.77,-96.02,0.6,0.0,70,4,,2.0,30.188976,1022.4,,TRUE,TRUE,,,,,,BR,OVC,300,,,,,,,LIFR,,,,,,,,,,,,METAR,210.0
KBUR 180753Z 00000KT 10SM CLR 09/06 A3010 RMK AO2 SLP186 T00890061 401670089 $,KBUR,2014-12-18T07:53:00Z,34.2,-118.37,8.9,6.1,0,0,,10.0,30.100393,1018.6,,,TRUE,TRUE,,,,,,CLR,,,,,,,,VFR,,,,16.7,8.9,,,,,,,METAR,217.0
KBTR 180753Z AUTO 27003KT 10SM SCT100 07/06 A3019 RMK AO2 SLP222 T00720056 TSNO,KBTR,2014-12-18T07:53:00Z,30.53,-91.15,7.2,5.6,270,3,,10.0,30.188976,1022.2,,TRUE,TRUE,,,TRUE,,,,SCT,10000,,,,,,,VFR,,,,,,,,,,,,METAR,21.0
KBTM 180753Z AUTO 12004KT 10SM FEW120 M15/M17 A2996 RMK AO2 SLP213 I1000 T11501167,KBTM,2014-12-18T07:53:00Z,45.97,-112.5,-15.0,-16.7,120,4,,10.0,29.958662,1021.3,,TRUE,TRUE,,,,,,,FEW,12000,,,,,,,VFR,,,,,,,,,,,,METAR,1688.0
KBTL 180753Z 28008KT 10SM OVC018 M02/M06 A3021 RMK AO2 SLP241 T10171061,KBTL,2014-12-18T07:53:00Z,42.32,-85.23,-1.7,-6.1,280,8,,10.0,30.209646,1024.1,,,TRUE,,,,,,,OVC,1800,,,,,,,MVFR,,,,,,,,,,,,METAR,290.0
KBRO 180753Z 17009KT 8SM BKN047 BKN055 22/21 A3002 RMK AO2 SLP165 T02170206,KBRO,2014-12-18T07:53:00Z,25.92,-97.42,21.7,20.6,170,9,,8.0,30.02067,1016.5,,,TRUE,,,,,,,BKN,4700,BKN,5500,,,,,VFR,,,,,,,,,,,,METAR,7.0
KBRL 180753Z AUTO 00000KT 10SM CLR M07/M08 A3030 RMK AO2 UPE0656 SLP272 P0000 T10671078,KBRL,2014-12-18T07:53:00Z,40.77,-91.13,-6.7,-7.8,0,0,,10.0,30.301182,1027.2,,TRUE,TRUE,,,,,,,CLR,,,,,,,,VFR,,,,,,0.0050,,,,,,METAR,211.0
KBRD 180753Z AUTO 00000KT 7SM CLR M17/M19 A3030 RMK AO2 SLP290 T11671189,KBRD,2014-12-18T07:53:00Z,46.4,-94.13,-16.7,-18.9,0,0,,7.0,30.301182,1029.0,,TRUE,TRUE,,,,,,,CLR,,,,,,,,VFR,,,,,,,,,,,,METAR,372.0
KBPT 180753Z AUTO 11007KT 10SM FEW028 SCT039 OVC060 16/13 A3011 RMK AO2 SLP195 T01560128,KBPT,2014-12-18T07:53:00Z,29.95,-94.03,15.6,12.8,110,7,,10.0,30.109253,1019.5,,TRUE,TRUE,,,,,,,FEW,2800,SCT,3900,OVC,6000,,,VFR,,,,,,,,,,,,METAR,5.0
KBPK 180753Z AUTO 14003KT 7SM BKN005 BKN009 OVC042 01/01 A3022 RMK AO2 RAE02 SLP240 P0000 T00060006 $,KBPK,2014-12-18T07:53:00Z,36.37,-92.47,0.6,0.6,140,3,,7.0,30.221457,1024.0,,TRUE,TRUE,TRUE,,,,,,BKN,500,BKN,900,OVC,4200,,,IFR,,,,,,0.0050,,,,,,METAR,280.0
KEYE 180753Z AUTO 32004KT 10SM OVC016 M04/M07 A3028 RMK AO2 SLP264 T10391072,KEYE,2014-12-18T07:53:00Z,39.83,-86.3,-3.9,-7.2,320,4,,10.0,30.280512,1026.4,,TRUE,TRUE,,,,,,,OVC,1600,,,,,,,MVFR,,,,,,,,,,,,METAR,248.0
KEWB 180753Z AUTO 28011KT 10SM OVC055 04/M01 A2974 RMK AO2 SLP070 T00391006,KEWB,2014-12-18T07:53:00Z,41.68,-70.95,3.9,-0.6,280,11,,10.0,29.740158,1007.0,,TRUE,TRUE,,,,,,,OVC,5500,,,,,,,VFR,,,,,,,,,,,,METAR,23.0
KEVW 180753Z AUTO 24005KT 10SM BKN049 M05/M07 A3003 RMK AO2 SLP178 T10501072,KEVW,2014-12-18T07:53:00Z,41.27,-111.03,-5.0,-7.2,240,5,,10.0,30.029528,1017.8,,TRUE,TRUE,,,,,,,BKN,4900,,,,,,,VFR,,,,,,,,,,,,METAR,2177.0
KESF 180753Z AUTO 09003KT 10SM FEW036 SCT046 OVC100 10/06 A3017 RMK AO2 RAB32E41 SLP214 P0000 T01000056,KESF,2014-12-18T07:53:00Z,31.4,-92.28,10.0,5.6,90,3,,10.0,30.171259,1021.4,,TRUE,TRUE,,,,,,,FEW,3600,SCT,4600,OVC,10000,,,VFR,,,,,,0.0050,,,,,,METAR,28.0
KEQY 180753Z AUTO 03003KT 10SM CLR 05/01 A3009 RMK AO2 SLP202 T00500006,KEQY,2014-12-18T07:53:00Z,35.02,-80.62,5.0,0.6,30,3,,10.0,30.088583,1020.2,,TRUE,TRUE,,,,,,,CLR,,,,,,,,VFR,,,,,,,,,,,,METAR,212.0
KEPH 180753Z AUTO 00000KT 10SM OVC017 03/02 A2996 RMK AO2 SLP156 T00280017 400440022,KEPH,2014-12-18T07:53:00Z,47.3,-119.52,2.8,1.7,0,0,,10.0,29.958662,1015.6,,TRUE,TRUE,,,,,,,OVC,1700,,,,,,,MVFR,,,,4.4,2.2,,,,,,,METAR,383.0
KENW 180753Z AUTO 28006KT 10SM BKN030 M07/M10 A3028 RMK AO2 SLP266 T10721100,KENW,2014-12-18T07:53:00Z,42.6,-87.93,-7.2,-10.0,280,6,,10.0,30.280512,1026.6,,TRUE,TRUE,,,,,,,BKN,3000,,,,,,,MVFR,,,,,,,,,,,,METAR,219.0
KEMP 180753Z AUTO 06005KT 1 1/4SM -SN BR BKN022 OVC033 M02/M03 A3018 RMK AO2 SLP235 P0000 T10221028,KEMP,2014-12-18T07:53:00Z,38.33,-96.2,-2.2,-2.8,60,5,,1.25,30.180119,1023.5,,TRUE,TRUE,,,,,,-SN BR,BKN,2200,OVC,3300,,,,,IFR,,,,,,0.0050,,,,,,METAR,367.0
KELZ 180753Z AUTO 29012G20KT 10SM UP OVC013 M03/M06 A2998 RMK AO2 UPB17 P0000 I1000,KELZ,2014-12-18T07:53:00Z,42.1,-77.98,-3.0,-6.0,290,12,20,10.0,29.97933,,,TRUE,TRUE,,,,,,UP,OVC,1300,,,,,,,MVFR,,,,,,0.0050,,,,,,SPECI,646.0
KELN 180753Z AUTO 00000KT 4SM BR OVC013 02/00 A2995 RMK AO2 SLP157 T00170000 400280011,KELN,2014-12-18T07:53:00Z,47.03,-120.53,1.7,0.0,0,0,,4.0,29.949802,1015.7,,TRUE,TRUE,,,,,,BR,OVC,1300,,,,,,,MVFR,,,,2.8,1.1,,,,,,,METAR,519.0
KELM 180753Z AUTO 27011G19KT 10SM SCT029 OVC039 00/M04 A2998 RMK AO2 SNE0658 SLP158 P0000 T00001044,KELM,2014-12-18T07:53:00Z,42.15,-76.9,0.0,-4.4,270,11,19,10.0,29.97933,1015.8,,TRUE,TRUE,,,,,,,SCT,2900,OVC,3900,,,,,VFR,,,,,,0.0050,,,,,,METAR,302.0
KELD 180753Z AUTO 05008KT 6SM BR OVC008 04/03 A3023 RMK AO2 RAE39 CIG 005V011 SLP237 P0001 T00440033 $,KELD,2014-12-18T07:53:00Z,33.22,-92.82,4.4,3.3,50,8,,6.0,30.230314,1023.7,,TRUE,TRUE,TRUE,,,,,BR,OVC,800,,,,,,,IFR,,,,,,0.01,,,,,,METAR,81.0
KEET 180753Z AUTO 00000KT 10SM CLR 02/01 A3018 RMK AO2 SLP221 T00220011,KEET,2014-12-18T07:53:00Z,33.18,-86.78,2.2,1.1,0,0,,10.0,30.180119,1022.1,,TRUE,TRUE,,,,,,,CLR,,,,,,,,VFR,,,,,,,,,,,,METAR,173.0
KEEO 180753Z AUTO 23003KT 3/4SM BR VV002 M03/M04 A3005 RMK AO2 SLP191 I1001 T10331039,KEEO,2014-12-18T07:53:00Z,40.05,-107.88,-3.3,-3.9,230,3,,0.75,30.050198,1019.1,,TRUE,TRUE,,,,,,BR,OVX,0,,,,,,,LIFR,,,,,,,,,,,200,METAR,1930.0
KECP 180753Z AUTO 34003KT 10SM CLR 06/04 A3016 RMK AO2 SLP223 T00610044 $,KECP,2014-12-18T07:53:00Z,30.35,-85.8,6.1,4.4,340,3,,10.0,30.159449,1022.3,,TRUE,TRUE,TRUE,,,,,,CLR,,,,,,,,VFR,,,,,,,,,,,,METAR,21.0
KDXR 180753Z AUTO 26007KT 10SM OVC033 03/M04 A2986 RMK AO2 SLP113 T00331039,KDXR,2014-12-18T07:53:00Z,41.37,-73.48,3.3,-3.9,260,7,,10.0,29.861221,1011.3,,TRUE,TRUE,,,,,,,OVC,3300,,,,,,,VFR,,,,,,,,,,,,METAR,139.0
KDWH 180753Z 09003KT 10SM FEW041 BKN080 OVC100 14/13 A3008 RMK AO2 SLP183 T01440128,KDWH,2014-12-18T07:53:00Z,30.07,-95.55,14.4,12.8,90,3,,10.0,30.079725,1018.3,,,TRUE,,,,,,,FEW,4100,BKN,8000,OVC,10000,,,VFR,,,,,,,,,,,,METAR,46.0
KDVT 180753Z AUTO 08003KT 10SM BKN020 BKN027 OVC036 09/07 A3011 RMK AO2 SLP189 T00940067,KDVT,2014-12-18T07:53:00Z,33.68,-112.07,9.4,6.7,80,3,,10.0,30.109253,1018.9,,TRUE,TRUE,,,,,,,BKN,2000,BKN,2700,OVC,3600,,,MVFR,,,,,,,,,,,,METAR,443.0
KDUJ 180753Z AUTO 26012G20KT 2 1/2SM -SN BR BKN014 OVC019 M04/M06 A3005 RMK AO2 SLP197 P0000 T10391061,KDUJ,2014-12-18T07:53:00Z,41.17,-78.9,-3.9,-6.1,260,12,20,2.5,30.050198,1019.7,,TRUE,TRUE,,,,,,-SN BR,BKN,1400,OVC,1900,,,,,IFR,,,,,,0.0050,,,,,,METAR,554.0
KDTW 180753Z 26011KT 10SM OVC024 M01/M06 A3019 RMK AO2 SLP231 T10111061 $,KDTW,2014-12-18T07:53:00Z,42.23,-83.33,-1.1,-6.1,260,11,,10.0,30.188976,1023.1,,,TRUE,TRUE,,,,,,OVC,2400,,,,,,,MVFR,,,,,,,,,,,,METAR,195.0
KDTS 180753Z AUTO 01004KT 10SM CLR 09/06 A3018 RMK AO2 SLP220 T00890061 TSNO,KDTS,2014-12-18T07:53:00Z,30.4,-86.47,8.9,6.1,10,4,,10.0,30.180119,1022.0,,TRUE,TRUE,,,TRUE,,,,CLR,,,,,,,,VFR,,,,,,,,,,,,METAR,5.0
KDTO 180753Z AUTO 13005KT 2 1/2SM BR OVC004 05/05 A3013 RMK AO2 SLP203 T00500050,KDTO,2014-12-18T07:53:00Z,33.2,-97.2,5.0,5.0,130,5,,2.5,30.129921,1020.3,,TRUE,TRUE,,,,,,BR,OVC,400,,,,,,,LIFR,,,,,,,,,,,,METAR,196.0
KDTN 180753Z AUTO 09004KT 10SM -RA BKN007 OVC032 07/05 A3017 RMK AO2 RAB36 SLP217 P0000 T00670050,KDTN,2014-12-18T07:53:00Z,32.55,-93.75,6.7,5.0,90,4,,10.0,30.171259,1021.7,,TRUE,TRUE,,,,,,-RA,BKN,700,OVC,3200,,,,,IFR,,,,,,0.0050,,,,,,METAR,53.0
KDRT 180753Z AUTO 27003KT 10SM OVC010 12/10 A3007 RMK AO2 SLP177 T01220100,KDRT,2014-12-18T07:53:00Z,29.37,-100.92,12.2,10.0,270,3,,10.0,30.070866,1017.7,,TRUE,TRUE,,,,,,,OVC,1000,,,,,,,MVFR,,,,,,,,,,,,METAR,313.0
KDRO 180753Z AUTO 25010KT 10SM OVC060 M01/M03 A3006 RMK AO2 SLP188 T10061028,KDRO,2014-12-18T07:53:00Z,37.15,-107.77,-0.6,-2.8,250,10,,10.0,30.059055,1018.8,,TRUE,TRUE,,,,,,,OVC,6000,,,,,,,VFR,,,,,,,,,,,,METAR,2035.0
KDNL 180753Z AUTO 29003KT 10SM CLR 06/03 A3009 RMK AO2 SLP186 T00560028,KDNL,2014-12-18T07:53:00Z,33.47,-82.03,5.6,2.8,290,3,,10.0,30.088583,1018.6,,TRUE,TRUE,,,,,,,CLR,,,,,,,,VFR,,,,,,,,,,,,METAR,130.0
KDMO 180753Z AUTO 05005KT 6SM -SN BKN041 OVC050 00/M03 A3025 RMK AO2 SNE09B29 SLP250 P0000 T00001028,KDMO,2014-12-18T07:53:00Z,38.72,-93.17,0.0,-2.8,50,5,,6.0,30.250984,1025.0,,TRUE,TRUE,,,,,,-SN,BKN,4100,OVC,5000,,,,,VFR,,,,,,0.0050,,,,,,METAR,274.0
KDMN 180753Z AUTO 26006KT 10SM -RA SCT035 OVC047 04/03 A3014 RMK AO2 RAB31 SLP184 P0000 T00440033,KDMN,2014-12-18T07:53:00Z,32.27,-107.72,4.4,3.3,260,6,,10.0,30.138779,1018.4,,TRUE,TRUE,,,,,,-RA,SCT,3500,OVC,4700,,,,,VFR,,,,,,0.0050,,,,,,METAR,1311.0
PTRO 180753Z 06006KT 15SM SCT016CB BKN120 BKN300 28/26 A2983 RMK CB VC ALQDS MOV W,PTRO,2014-12-18T07:53:00Z,7.37,134.55,28.0,26.0,60,6,,15.0,29.828741,,,,,,,,,,,SCT,1600,BKN,12000,BKN,30000,,,VFR,,,,,,,,,,,,METAR,54.0
KAUG 180753Z AUTO 30004KT 6SM BR BKN008 OVC014 01/01 A2962 RMK AO2 UPE0655B10E43 SLP033 P0000 I1000 T00060006,KAUG,2014-12-18T07:53:00Z,44.32,-69.8,0.6,0.6,300,4,,6.0,29.619095,1003.3,,TRUE,TRUE,,,,,,BR,BKN,800,OVC,1400,,,,,IFR,,,,,,0.0050,,,,,,METAR,109.0
KATY 180753Z AUTO 14003KT 10SM OVC095 M12/M15 A3022 RMK AO2 SLP269 T11221150,KATY,2014-12-18T07:53:00Z,44.9,-97.15,-12.2,-15.0,140,3,,10.0,30.221457,1026.9,,TRUE,TRUE,,,,,,,OVC,9500,,,,,,,VFR,,,,,,,,,,,,METAR,532.0
KASX 180753Z AUTO 00000KT 10SM OVC015 M05/M06 A3033 RMK AO2 SLP284 T10501061,KASX,2014-12-18T07:53:00Z,46.55,-90.92,-5.0,-6.1,0,0,,10.0,30.33071,1028.4,,TRUE,TRUE,,,,,,,OVC,1500,,,,,,,MVFR,,,,,,,,,,,,METAR,251.0
KASE 180753Z AUTO 00000KT 4SM -SN BR FEW004 BKN019 OVC033 M03/M04 A2999 RMK AO2 SLP138 P0001 T10281039,KASE,2014-12-18T07:53:00Z,39.23,-106.87,-2.8,-3.9,0,0,,4.0,29.991142,1013.8,,TRUE,TRUE,,,,,,-SN BR,FEW,400,BKN,1900,OVC,3300,,,MVFR,,,,,,0.01,,,,,,METAR,2354.0
KASD 180753Z AUTO 00000KT 10SM CLR 07/04 A3018 RMK AO2 SLP218 T00670044,KASD,2014-12-18T07:53:00Z,30.35,-89.82,6.7,4.4,0,0,,10.0,30.180119,1021.8,,TRUE,TRUE,,,,,,,CLR,,,,,,,,VFR,,,,,,,,,,,,METAR,9.0
KARB 180753Z AUTO 28008KT 10SM OVC024 M02/M06 A3018 RMK AO2 SLP231 T10171061,KARB,2014-12-18T07:53:00Z,42.22,-83.73,-1.7,-6.1,280,8,,10.0,30.180119,1023.1,,TRUE,TRUE,,,,,,,OVC,2400,,,,,,,MVFR,,,,,,,,,,,,METAR,251.0
KARA 180753Z AUTO 07004KT 10SM CLR 10/07 A3017 RMK AO2 SLP216 T01000067,KARA,2014-12-18T07:53:00Z,30.03,-91.88,10.0,6.7,70,4,,10.0,30.171259,1021.6,,TRUE,TRUE,,,,,,,CLR,,,,,,,,VFR,,,,,,,,,,,,METAR,18.0
KAPF 180753Z AUTO 06003KT 10SM FEW047 17/16 A3013 RMK AO2 SLP203 T01670161,KAPF,2014-12-18T07:53:00Z,26.15,-81.77,16.7,16.1,60,3,,10.0,30.129921,1020.3,,TRUE,TRUE,,,,,,,FEW,4700,,,,,,,VFR,,,,,,,,,,,,METAR,3.0
KAPA 180753Z 00000KT 8SM FEW080 M03/M04 A2996 RMK AO2 SLP168 T10281044,KAPA,2014-12-18T07:53:00Z,39.57,-104.85,-2.8,-4.4,0,0,,8.0,29.958662,1016.8,,,TRUE,,,,,,,FEW,8000,,,,,,,VFR,,,,,,,,,,,,METAR,1775.0
KAOO 180753Z AUTO 31018G28KT 9SM BKN029 OVC033 M02/M08 A3007 RMK AO2 PK WND 31028/0745 SNB34E52 SLP200 P0000 T10221078,KAOO,2014-12-18T07:53:00Z,40.3,-78.32,-2.2,-7.8,310,18,28,9.0,30.070866,1020.0,,TRUE,TRUE,,,,,,,BKN,2900,OVC,3300,,,,,MVFR,,,,,,0.0050,,,,,,METAR,455.0
KAOH 180753Z AUTO 31010KT 10SM OVC021 M01/M07 A3023 RMK AO2 SLP248 T10111067,KAOH,2014-12-18T07:53:00Z,40.7,-84.02,-1.1,-6.7,310,10,,10.0,30.230314,1024.8,,TRUE,TRUE,,,,,,,OVC,2100,,,,,,,MVFR,,,,,,,,,,,,METAR,296.0
KANB 180753Z AUTO 00000KT 9SM CLR 01/00 A3018 RMK AO2 SLP227 T00110000,KANB,2014-12-18T07:53:00Z,33.58,-85.85,1.1,0.0,0,0,,9.0,30.180119,1022.7,,TRUE,TRUE,,,,,,,CLR,,,,,,,,VFR,,,,,,,,,,,,METAR,183.0
KAMW 180753Z AUTO 00000KT 10SM BKN085 M07/M10 A3029 RMK AO2 SLP270 T10721100,KAMW,2014-12-18T07:53:00Z,41.98,-93.62,-7.2,-10.0,0,0,,10.0,30.28937,1027.0,,TRUE,TRUE,,,,,,,BKN,8500,,,,,,,VFR,,,,,,,,,,,,METAR,279.0
KAMG 180753Z AUTO 00000KT 8SM CLR 04/03 A3012 RMK AO2 SLP199 T00440033,KAMG,2014-12-18T07:53:00Z,31.53,-82.5,4.4,3.3,0,0,,8.0,30.121063,1019.9,,TRUE,TRUE,,,,,,,CLR,,,,,,,,VFR,,,,,,,,,,,,METAR,59.0
KAMA 180753Z AUTO 19009KT 1/2SM R04/2000V3500FT FG VV002 03/03 A2998 RMK AO2 SLP155 T00280028,KAMA,2014-12-18T07:53:00Z,35.22,-101.72,2.8,2.8,190,9,,0.5,29.97933,1015.5,,TRUE,TRUE,,,,,,FG,OVX,0,,,,,,,LIFR,,,,,,,,,,,200,METAR,1093.0
KALW 180753Z AUTO 12003KT 5SM -RA BR OVC035 03/02 A2999 RMK AO2 SLP165 P0001 T00330022 400330006,KALW,2014-12-18T07:53:00Z,46.1,-118.28,3.3,2.2,120,3,,5.0,29.991142,1016.5,,TRUE,TRUE,,,,,,-RA BR,OVC,3500,,,,,,,MVFR,,,,3.3,0.6,0.01,,,,,,METAR,363.0
KALI 180753Z AUTO 12003KT 10SM BKN018 OVC023 20/18 A3002 RMK AO2 SLP163 T02000183,KALI,2014-12-18T07:53:00Z,27.73,-98.02,20.0,18.3,120,3,,10.0,30.02067,1016.3,,TRUE,TRUE,,,,,,,BKN,1800,OVC,2300,,,,,MVFR,,,,,,,,,,,,METAR,53.0
KAKO 180753Z AUTO 25009KT 8SM CLR M07/M08 A2997 RMK AO2 SLP198 T10721078,KAKO,2014-12-18T07:53:00Z,40.17,-103.22,-7.2,-7.8,250,9,,8.0,29.970472,1019.8,,TRUE,TRUE,,,,,,,CLR,,,,,,,,VFR,,,,,,,,,,,,METAR,1421.0
KAIA 180753Z AUTO 24007KT 1/4SM FZFG VV002 M07/M08 A2999 RMK AO2 SLP198 T10721083,KAIA,2014-12-18T07:53:00Z,42.05,-102.8,-7.2,-8.3,240,7,,0.25,29.991142,1019.8,,TRUE,TRUE,,,,,,FZFG,OVX,0,,,,,,,LIFR,,,,,,,,,,,200,METAR,1196.0
KAGS 180753Z 00000KT 6SM BR CLR 01/00 A3010 RMK AO2 SLP192 T00110000,KAGS,2014-12-18T07:53:00Z,33.37,-81.97,1.1,0.0,0,0,,6.0,30.100393,1019.2,,,TRUE,,,,,,BR,CLR,,,,,,,,VFR,,,,,,,,,,,,METAR,44.0
KAGC 180753Z AUTO 28013G19KT 10SM OVC023 M03/M08 A3015 RMK AO2 SLP230 T10281083 TSNO,KAGC,2014-12-18T07:53:00Z,40.35,-79.92,-2.8,-8.3,280,13,19,10.0,30.15059,1023.0,,TRUE,TRUE,,,TRUE,,,,OVC,2300,,,,,,,MVFR,,,,,,,,,,,,METAR,389.0
KAFW 180753Z 10005KT 2 1/2SM -DZ BR OVC003 05/05 A3012 RMK AO2 DZB36 SLP205 P0000 T00500050,KAFW,2014-12-18T07:53:00Z,32.97,-97.32,5.0,5.0,100,5,,2.5,30.121063,1020.5,,,TRUE,,,,,,-DZ BR,OVC,300,,,,,,,LIFR,,,,,,0.0050,,,,,,METAR,233.0
KAEX 180753Z 00000KT 10SM BKN029 OVC100 10/06 A3016 RMK AO2 SLP218 T01000061,KAEX,2014-12-18T07:53:00Z,31.33,-92.57,10.0,6.1,0,0,,10.0,30.159449,1021.8,,,TRUE,,,,,,,BKN,2900,OVC,10000,,,,,MVFR,,,,,,,,,,,,METAR,27.0
KADG 180753Z AUTO 31008KT 10SM OVC025 M02/M06 A3021 RMK AO2 SLP244 T10171061,KADG,2014-12-18T07:53:00Z,41.87,-84.08,-1.7,-6.1,310,8,,10.0,30.209646,1024.4,,TRUE,TRUE,,,,,,,OVC,2500,,,,,,,MVFR,,,,,,,,,,,,METAR,241.0
KACV 180753Z AUTO 12006KT 10SM OVC036 12/07 A2998 RMK AO2 SLP157 T01170067 401220089,KACV,2014-12-18T07:53:00Z,40.98,-124.1,11.7,6.7,120,6,,10.0,29.97933,1015.7,,TRUE,TRUE,,,,,,,OVC,3600,,,,,,,VFR,,,,12.2,8.9,,,,,,,METAR,67.0
KACK 180753Z AUTO 27016G22KT 10SM OVC055 05/00 A2974 RMK AO2 SLP070 T00500000,KACK,2014-12-18T07:53:00Z,41.25,-70.07,5.0,0.0,270,16,22,10.0,29.740158,1007.0,,TRUE,TRUE,,,,,,,OVC,5500,,,,,,,VFR,,,,,,,,,,,,METAR,16.0
KABY 180753Z 00000KT 10SM CLR 05/04 A3018 RMK AO2 SLP218 T00500039,KABY,2014-12-18T07:53:00Z,31.53,-84.2,5.0,3.9,0,0,,10.0,30.180119,1021.8,,,TRUE,,,,,,,CLR,,,,,,,,VFR,,,,,,,,,,,,METAR,58.0
KABR 180753Z AUTO 15006KT 10SM OVC100 M08/M11 A3024 RMK AO2 SLP264 T10831111,KABR,2014-12-18T07:53:00Z,45.45,-98.42,-8.3,-11.1,150,6,,10.0,30.239174,1026.4,,TRUE,TRUE,,,,,,,OVC,10000,,,,,,,VFR,,,,,,,,,,,,METAR,397.0
KAAF 180753Z AUTO 00000KT 10SM CLR 08/06 A3016 RMK AO2 SLP211 T00830056 TSNO $,KAAF,2014-12-18T07:53:00Z,29.73,-85.03,8.3,5.6,0,0,,10.0,30.159449,1021.1,,TRUE,TRUE,TRUE,,TRUE,,,,CLR,,,,,,,,VFR,,,,,,,,,,,,METAR,5.0
PHJR 180753Z 07004KT 10SM FEW042 23/18 A3017 RMK AO2 SLP223 T02280183,PHJR,2014-12-18T07:53:00Z,21.32,-158.07,22.8,18.3,70,4,,10.0,30.171259,1022.3,,,TRUE,,,,,,,FEW,4200,,,,,,,VFR,,,,,,,,,,,,METAR,15.0
PHLI 180753Z 06016KT 10SM FEW018 24/20 A3020 RMK AO2 SLP225 T02440200,PHLI,2014-12-18T07:53:00Z,21.97,-159.33,24.4,20.0,60,16,,10.0,30.200787,1022.5,,,TRUE,,,,,,,FEW,1800,,,,,,,VFR,,,,,,,,,,,,METAR,45.0
PHKO 180753Z 12006KT CLR 24/18 A3012 RMK AO2 SLP199 T02390183 $,PHKO,2014-12-18T07:53:00Z,19.73,-156.05,23.9,18.3,120,6,,,30.121063,1019.9,,,TRUE,TRUE,,,,,,CLR,,,,,,,,,,,,,,,,,,,,METAR,27.0
PHTO 180753Z 23004KT 10SM FEW024 BKN038 OVC045 22/20 A3017 RMK AO2 SLP216 T02220200 $,PHTO,2014-12-18T07:53:00Z,19.72,-155.05,22.2,20.0,230,4,,10.0,30.171259,1021.6,,,TRUE,TRUE,,,,,,FEW,2400,BKN,3800,OVC,4500,,,VFR,,,,,,,,,,,,METAR,12.0
PHNL 180753Z 06010KT 10SM FEW033 SCT041 24/19 A3016 RMK AO2 SLP211 T02440189,PHNL,2014-12-18T07:53:00Z,21.33,-157.92,24.4,18.9,60,10,,10.0,30.159449,1021.1,,,TRUE,,,,,,,FEW,3300,SCT,4100,,,,,VFR,,,,,,,,,,,,METAR,4.0
PTTP 180753Z 09008KT 15SM SCT018 OVC300 28/25 A2984 RMK SLP105 T02820248,PTTP,2014-12-18T07:53:00Z,6.97,158.22,28.2,24.8,90,8,,15.0,29.840551,1010.5,,,,,,,,,,SCT,1800,OVC,30000,,,,,VFR,,,,,,,,,,,,METAR,2.0
PAOM 180753Z 08011KT 10SM OVC023 M03/M04 A2960 RMK AO2 SLP023 T10281039,PAOM,2014-12-18T07:53:00Z,64.5,-165.43,-2.8,-3.9,80,11,,10.0,29.601377,1002.3,,,TRUE,,,,,,,OVC,2300,,,,,,,MVFR,,,,,,,,,,,,METAR,11.0
CYFB 180753Z 33009G15KT 15SM OVC048 M12/M16 A2963 RMK SC8 SLP036,CYFB,2014-12-18T07:53:00Z,63.75,-68.55,-12.0,-16.0,330,9,15,15.0,29.630905,1003.6,,,,,,,,,,OVC,4800,,,,,,,VFR,,,,,,,,,,,,SPECI,34.0
KRND 180753Z AUTO 05004KT 2 1/2SM R14L/3500FT BR OVC003 14/13 A3006 RMK AO2 VIS 2 1/2V3,KRND,2014-12-18T07:53:00Z,29.52,-98.27,14.0,13.0,50,4,,2.5,30.059055,,,TRUE,TRUE,,,,,,BR,OVC,300,,,,,,,LIFR,,,,,,,,,,,,SPECI,232.0
KCTY 180753Z AUTO 00000KT 03/02 A3015 RMK AO1 SLP208 T00280017,KCTY,2014-12-18T07:53:00Z,29.63,-83.1,2.8,1.7,0,0,,,30.15059,1020.8,,TRUE,TRUE,,,,,,,,,,,,,,,,,,,,,,,,,,,METAR,13.0
KP68 180753Z AUTO 17004KT M02/M03 A3005 RMK AO1 SLP169 T10171033 400441083,KP68,2014-12-18T07:53:00Z,39.6,-116.0,-1.7,-3.3,170,4,,,30.050198,1016.9,,TRUE,TRUE,,,,,,,,,,,,,,,,,,,4.4,-8.3,,,,,,,METAR,1809.0
MMMD 180753Z 11005KT 7SM SKC 17/15 A3009,MMMD,2014-12-18T07:53:00Z,20.95,-89.65,17.0,15.0,110,5,,7.0,30.088583,,,,,,,,,,,SKC,,,,,,,,VFR,,,,,,,,,,,,METAR,10.0
KLOR 180753Z AUTO 00000KT 5SM BR CLR 05/03 A3016 RMK AO2 SLP213 T00500033 TSNO $,KLOR,2014-12-18T07:53:00Z,31.35,-85.75,5.0,3.3,0,0,,5.0,30.159449,1021.3,,TRUE,TRUE,TRUE,,TRUE,,,BR,CLR,,,,,,,,MVFR,,,,,,,,,,,,METAR,74.0
KCQC 180753Z AUTO 28017KT 10SM CLR M03/M04 A3002 RMK AO2 SLP171 T10331044,KCQC,2014-12-18T07:53:00Z,35.0,-105.67,-3.3,-4.4,280,17,,10.0,30.02067,1017.1,,TRUE,TRUE,,,,,,,CLR,,,,,,,,VFR,,,,,,,,,,,,METAR,2160.0
KNUI 180753Z AUTO 30008KT 10SM CLR 03/M06 A3008 RMK AO2 SLP186 T00281056,KNUI,2014-12-18T07:53:00Z,38.15,-76.43,2.8,-5.6,300,8,,10.0,30.079725,1018.6,,TRUE,TRUE,,,,,,,CLR,,,,,,,,VFR,,,,,,,,,,,,METAR,7.0
KOQT 180753Z AUTO 00000KT 10SM CLR M01/M02 A3023 RMK AO2 SLP247 T10061022,KOQT,2014-12-18T07:53:00Z,36.02,-84.23,-0.6,-2.2,0,0,,10.0,30.230314,1024.7,,TRUE,TRUE,,,,,,,CLR,,,,,,,,VFR,,,,,,,,,,,,METAR,277.0
KP92 180753Z AUTO 11003KT 12/09 A3015 RMK AO1 SLP209 T01220089,KP92,2014-12-18T07:53:00Z,29.57,-91.53,12.2,8.9,110,3,,,30.15059,1020.9,,TRUE,TRUE,,,,,,,,,,,,,,,,,,,,,,,,,,,METAR,1.0
KNIP 180753Z 00000KT 10SM FEW250 10/06 A3015 RMK AO2 SLP204 T01000056,KNIP,2014-12-18T07:53:00Z,30.22,-81.67,10.0,5.6,0,0,,10.0,30.15059,1020.4,,,TRUE,,,,,,,FEW,25000,,,,,,,VFR,,,,,,,,,,,,METAR,7.0
KGRI 180753Z AUTO 11004KT 1 1/4SM -SN BR OVC019 M05/M06 A3018 RMK AO2 SLP249 P0002 T10501061,KGRI,2014-12-18T07:53:00Z,40.97,-98.32,-5.0,-6.1,110,4,,1.25,30.180119,1024.9,,TRUE,TRUE,,,,,,-SN BR,OVC,1900,,,,,,,IFR,,,,,,0.02,,,,,,METAR,561.0
KADC 180753Z AUTO 00000KT 10SM SCT020 M17/M18 A3028 RMK AO2,KADC,2014-12-18T07:53:00Z,46.45,-95.22,-17.0,-18.0,0,0,,10.0,30.280512,,,TRUE,TRUE,,,,,,,SCT,2000,,,,,,,VFR,,,,,,,,,,,,METAR,418.0
KODO 180753Z AUTO 25005KT 10SM CLR 07/02 A3008 RMK AO2 SLP163 T00670017 $,KODO,2014-12-18T07:53:00Z,31.92,-102.4,6.7,1.7,250,5,,10.0,30.079725,1016.3,,TRUE,TRUE,TRUE,,,,,,CLR,,,,,,,,VFR,,,,,,,,,,,,METAR,902.0
KOGB 180753Z AUTO 00000KT 5SM BR CLR 02/01 A3009 RMK AO2 SLP190 T00220011,KOGB,2014-12-18T07:53:00Z,33.47,-80.85,2.2,1.1,0,0,,5.0,30.088583,1019.0,,TRUE,TRUE,,,,,,BR,CLR,,,,,,,,MVFR,,,,,,,,,,,,METAR,59.0
KOLF 180753Z AUTO 07005KT 10SM OVC013 M05/M08 A3000 RMK AO2 SLP190 T10501078,KOLF,2014-12-18T07:53:00Z,48.1,-105.58,-5.0,-7.8,70,5,,10.0,30.0,1019.0,,TRUE,TRUE,,,,,,,OVC,1300,,,,,,,MVFR,,,,,,,,,,,,METAR,604.0
KOJC 180753Z AUTO 07004KT 2 1/2SM -SN BR OVC020 M02/M03 A3021 RMK AO2 SLP242 P0002 T10221028,KOJC,2014-12-18T07:53:00Z,38.85,-94.73,-2.2,-2.8,70,4,,2.5,30.209646,1024.2,,TRUE,TRUE,,,,,,-SN BR,OVC,2000,,,,,,,IFR,,,,,,0.02,,,,,,METAR,326.0
KOGD 180753Z AUTO 18007KT 10SM CLR M01/M03 A3006 RMK AO2 SLP181 T10061033 TSNO,KOGD,2014-12-18T07:53:00Z,41.2,-112.02,-0.6,-3.3,180,7,,10.0,30.059055,1018.1,,TRUE,TRUE,,,TRUE,,,,CLR,,,,,,,,VFR,,,,,,,,,,,,METAR,1353.0
KOPF 180753Z AUTO 29005KT 10SM OVC049 16/13 A3015 RMK AO2 SLP209 T01610133,KOPF,2014-12-18T07:53:00Z,25.92,-80.28,16.1,13.3,290,5,,10.0,30.15059,1020.9,,TRUE,TRUE,,,,,,,OVC,4900,,,,,,,VFR,,,,,,,,,,,,METAR,16.0
KONT 180753Z 03004KT 10SM SCT038 BKN110 11/06 A3011 RMK AO2 SLP196 T01110061 401560100,KONT,2014-12-18T07:53:00Z,34.05,-117.58,11.1,6.1,30,4,,10.0,30.109253,1019.6,,,TRUE,,,,,,,SCT,3800,BKN,11000,,,,,VFR,,,,15.6,10.0,,,,,,,METAR,274.0
KONO 180753Z AUTO 26004KT 7SM BKN065 OVC090 02/01 A3006 RMK AO2 SLP195 T00220006,KONO,2014-12-18T07:53:00Z,44.02,-117.02,2.2,0.6,260,4,,7.0,30.059055,1019.5,,TRUE,TRUE,,,,,,,BKN,6500,OVC,9000,,,,,VFR,,,,,,,,,,,,METAR,667.0
KOMK 180753Z AUTO 13003KT 1 1/2SM -RA BR FEW014 OVC024 01/00 A2998 RMK AO2 RAE31B47 SLP164 P0000 T00060000 400060000,KOMK,2014-12-18T07:53:00Z,48.47,-119.52,0.6,0.0,130,3,,1.5,29.97933,1016.4,,TRUE,TRUE,,,,,,-RA BR,FEW,1400,OVC,2400,,,,,IFR,,,,0.6,,0.0050,,,,,,METAR,395.0
KSEA 180753Z 18003KT 2SM BR SCT003 BKN012 OVC036 07/06 A2993 RMK AO2 SFC VIS 4 RAB09E40 SLP142 P0001 T00720061 400890061 $,KSEA,2014-12-18T07:53:00Z,47.45,-122.32,7.2,6.1,180,3,,2.0,29.929134,1014.2,,,TRUE,TRUE,,,,,BR,SCT,300,BKN,1200,OVC,3600,,,IFR,,,,8.9,6.1,0.01,,,,,,METAR,136.0
KSDM 180753Z AUTO 14003KT 10SM FEW055 09/07 A3013 RMK AO2 SLP201 T00940067 401780094 $,KSDM,2014-12-18T07:53:00Z,32.58,-117.0,9.4,6.7,140,3,,10.0,30.129921,1020.1,,TRUE,TRUE,TRUE,,,,,,FEW,5500,,,,,,,VFR,,,,17.8,9.4,,,,,,,METAR,159.0
KSDL 180753Z 00000KT 10SM BKN014 BKN024 BKN028 11/08 A3013 RMK AO2 SLP194 T01060083,KSDL,2014-12-18T07:53:00Z,33.62,-111.92,10.6,8.3,0,0,,10.0,30.129921,1019.4,,,TRUE,,,,,,,BKN,1400,BKN,2400,BKN,2800,,,MVFR,,,,,,,,,,,,METAR,447.0
KSBM 180753Z AUTO 31008KT 10SM OVC020 M04/M08 A3025 RMK AO2 SLP256 T10441083,KSBM,2014-12-18T07:53:00Z,43.78,-87.85,-4.4,-8.3,310,8,,10.0,30.250984,1025.6,,TRUE,TRUE,,,,,,,OVC,2000,,,,,,,MVFR,,,,,,,,,,,,METAR,232.0
KSBA 180753Z AUTO 00000KT 10SM BKN080 OVC110 10/06 A3010 RMK AO2 SLP193 T01000061 401830083,KSBA,2014-12-18T07:53:00Z,34.43,-119.85,10.0,6.1,0,0,,10.0,30.100393,1019.3,,TRUE,TRUE,,,,,,,BKN,8000,OVC,11000,,,,,VFR,,,,18.3,8.3,,,,,,,METAR,3.0
KSAV 180753Z AUTO 26003KT 10SM CLR 06/03 A3014 RMK AO2 SLP204 T00610028 TSNO,KSAV,2014-12-18T07:53:00Z,32.12,-81.2,6.1,2.8,260,3,,10.0,30.138779,1020.4,,TRUE,TRUE,,,TRUE,,,,CLR,,,,,,,,VFR,,,,,,,,,,,,METAR,14.0
KSAF 180753Z AUTO 26007KT 10SM CLR M01/M03 A3006 RMK AO2 SLP175 T10111028,KSAF,2014-12-18T07:53:00Z,35.62,-106.1,-1.1,-2.8,260,7,,10.0,30.059055,1017.5,,TRUE,TRUE,,,,,,,CLR,,,,,,,,VFR,,,,,,,,,,,,METAR,1930.0
KOVS 180753Z AUTO 00000KT 10SM CLR M11/M12 A3031 RMK AO2 SLP277 I1000 T11061122,KOVS,2014-12-18T07:53:00Z,43.15,-90.68,-10.6,-12.2,0,0,,10.0,30.31004,1027.7,,TRUE,TRUE,,,,,,,CLR,,,,,,,,VFR,,,,,,,,,,,,METAR,202.0
KOVE 180753Z AUTO 09005KT 8SM -RA SCT016 BKN034 OVC045 10/08 A3013 RMK AO2 SLP205 P0001 T01000083 401220100,KOVE,2014-12-18T07:53:00Z,39.5,-121.62,10.0,8.3,90,5,,8.0,30.129921,1020.5,,TRUE,TRUE,,,,,,-RA,SCT,1600,BKN,3400,OVC,4500,,,VFR,,,,12.2,10.0,0.01,,,,,,METAR,58.0
KOSU 180753Z AUTO 30005KT 10SM OVC025 M03/M07 A3024 RMK AO2 SLP251 T10281072,KOSU,2014-12-18T07:53:00Z,40.08,-83.08,-2.8,-7.2,300,5,,10.0,30.239174,1025.1,,TRUE,TRUE,,,,,,,OVC,2500,,,,,,,MVFR,,,,,,,,,,,,METAR,280.0
KOSH 180753Z 31008KT 10SM OVC019 M05/M08 A3026 RMK AO2 SLP266 T10501083,KOSH,2014-12-18T07:53:00Z,43.97,-88.55,-5.0,-8.3,310,8,,10.0,30.259842,1026.6,,,TRUE,,,,,,,OVC,1900,,,,,,,MVFR,,,,,,,,,,,,METAR,248.0
KORL 180753Z AUTO 28005KT 10SM CLR 11/08 A3014 RMK AO2 SLP209 T01060078,KORL,2014-12-18T07:53:00Z,28.55,-81.33,10.6,7.8,280,5,,10.0,30.138779,1020.9,,TRUE,TRUE,,,,,,,CLR,,,,,,,,VFR,,,,,,,,,,,,METAR,37.0
KORB 180753Z AUTO 00000KT 10SM CLR M20/M22 A3028 RMK AO2,KORB,2014-12-18T07:53:00Z,48.02,-92.87,-20.0,-22.0,0,0,,10.0,30.280512,,,TRUE,TRUE,,,,,,,CLR,,,,,,,,VFR,,,,,,,,,,,,METAR,397.0
KSEG 180753Z AUTO 27009G18KT 10SM SCT045 OVC055 02/M07 A3006 RMK AO2 SLP181 T00171072,KSEG,2014-12-18T07:53:00Z,40.82,-76.87,1.7,-7.2,270,9,18,10.0,30.059055,1018.1,,TRUE,TRUE,,,,,,,SCT,4500,OVC,5500,,,,,VFR,,,,,,,,,,,,METAR,134.0
KSFB 180753Z AUTO 30003KT 10SM CLR 08/07 A3014 RMK AO2 SLP206 T00830067,KSFB,2014-12-18T07:53:00Z,28.77,-81.22,8.3,6.7,300,3,,10.0,30.138779,1020.6,,TRUE,TRUE,,,,,,,CLR,,,,,,,,VFR,,,,,,,,,,,,METAR,17.0
KSHN 180753Z AUTO 00000KT 1 3/4SM BR SCT003 OVC012 07/06 A2991 RMK AO2 RAB35E50 SLP131 P0001 T00670061 400780028,KSHN,2014-12-18T07:53:00Z,47.23,-123.13,6.7,6.1,0,0,,1.75,29.911417,1013.1,,TRUE,TRUE,,,,,,BR,SCT,300,OVC,1200,,,,,IFR,,,,7.8,2.8,0.01,,,,,,METAR,82.0
KSGR 180753Z AUTO 08004KT 10SM SCT015 BKN026 BKN038 16/15 A3007 RMK AO2 CIG 021V034 SLP182 T01610150,KSGR,2014-12-18T07:53:00Z,29.62,-95.65,16.1,15.0,80,4,,10.0,30.070866,1018.2,,TRUE,TRUE,,,,,,,SCT,1500,BKN,2600,BKN,3800,,,MVFR,,,,,,,,,,,,METAR,2.0
KSFF 180753Z AUTO 06003KT 10SM FEW006 OVC039 03/01 A2997 RMK AO2 SLP160 T00280006 400500000,KSFF,2014-12-18T07:53:00Z,47.68,-117.32,2.8,0.6,60,3,,10.0,29.970472,1016.0,,TRUE,TRUE,,,,,,,FEW,600,OVC,3900,,,,,VFR,,,,5.0,,,,,,,,METAR,609.0
KSJC 180753Z 12012KT 10SM FEW049 BKN060 OVC080 11/08 A3007 RMK AO2 RAE04B22E41 SLP181 P0000 T01060083 401440072,KSJC,2014-12-18T07:53:00Z,37.37,-121.92,10.6,8.3,120,12,,10.0,30.070866,1018.1,,,TRUE,,,,,,,FEW,4900,BKN,6000,OVC,8000,,,VFR,,,,14.4,7.2,0.0050,,,,,,METAR,24.0
KSLC 180753Z 15004KT 8SM SCT080 01/M01 A3006 RMK AO2 SLP182 T00111006 $,KSLC,2014-12-18T07:53:00Z,40.77,-111.97,1.1,-0.6,150,4,,8.0,30.059055,1018.2,,,TRUE,TRUE,,,,,,SCT,8000,,,,,,,VFR,,,,,,,,,,,,METAR,1286.0
KSLN 180753Z 03004KT 1 1/4SM -SN BR BKN006 OVC012 M02/M03 A3018 RMK AO2 SLP231 P0000 T10171028,KSLN,2014-12-18T07:53:00Z,38.78,-97.65,-1.7,-2.8,30,4,,1.25,30.180119,1023.1,,,TRUE,,,,,,-SN BR,BKN,600,OVC,1200,,,,,IFR,,,,,,0.0050,,,,,,METAR,385.0
KSSI 180753Z AUTO 28003KT 10SM CLR 08/06 A3013 RMK AO2 SLP201 T00780056,KSSI,2014-12-18T07:53:00Z,31.15,-81.38,7.8,5.6,280,3,,10.0,30.129921,1020.1,,TRUE,TRUE,,,,,,,CLR,,,,,,,,VFR,,,,,,,,,,,,METAR,6.0
KSSF 180753Z AUTO 07004KT 6SM BR OVC007 16/13 A3004 RMK AO2 SLP172 T01560133,KSSF,2014-12-18T07:53:00Z,29.33,-98.47,15.6,13.3,70,4,,6.0,30.041338,1017.2,,TRUE,TRUE,,,,,,BR,OVC,700,,,,,,,IFR,,,,,,,,,,,,METAR,176.0
KSRQ 180753Z AUTO 13003KT 9SM CLR 09/09 A3014 RMK AO2 SLP205 T00940089,KSRQ,2014-12-18T07:53:00Z,27.4,-82.57,9.4,8.9,130,3,,9.0,30.138779,1020.5,,TRUE,TRUE,,,,,,,CLR,,,,,,,,VFR,,,,,,,,,,,,METAR,18.0
KSPW 180753Z AUTO 06005KT 10SM OVC075 M09/M12 A3028 RMK AO2 SLP275 T10941117 TSNO,KSPW,2014-12-18T07:53:00Z,43.17,-95.22,-9.4,-11.7,60,5,,10.0,30.280512,1027.5,,TRUE,TRUE,,,TRUE,,,,OVC,7500,,,,,,,VFR,,,,,,,,,,,,METAR,403.0
KSPG 180753Z AUTO 34003KT 10SM CLR 14/12 A3014 RMK AO2 SLP206 T01390117,KSPG,2014-12-18T07:53:00Z,27.77,-82.63,13.9,11.7,340,3,,10.0,30.138779,1020.6,,TRUE,TRUE,,,,,,,CLR,,,,,,,,VFR,,,,,,,,,,,,METAR,2.0
KSPB 180753Z AUTO 15003KT 10SM OVC016 07/06 A2997 RMK AO2 SLP149 T00720061 400830022,KSPB,2014-12-18T07:53:00Z,45.77,-122.87,7.2,6.1,150,3,,10.0,29.970472,1014.9,,TRUE,TRUE,,,,,,,OVC,1600,,,,,,,MVFR,,,,8.3,2.2,,,,,,,METAR,14.0
KSNY 180753Z AUTO 21007KT 1SM BR VV001 M08/M09 A2998 RMK AO2 SLP204 I1000 T10831094,KSNY,2014-12-18T07:53:00Z,41.1,-102.98,-8.3,-9.4,210,7,,1.0,29.97933,1020.4,,TRUE,TRUE,,,,,,BR,OVX,0,,,,,,,LIFR,,,,,,,,,,,100,METAR,1307.0
KSNS 180753Z 11015KT 10SM OVC042 12/09 A3007 RMK AO2 RAB25E43 SLP191 P0000 T01170089 401500083,KSNS,2014-12-18T07:53:00Z,36.67,-121.6,11.7,8.9,110,15,,10.0,30.070866,1019.1,,,TRUE,,,,,,,OVC,4200,,,,,,,VFR,,,,15.0,8.3,0.0050,,,,,,METAR,30.0
KSNA 180753Z AUTO 00000KT 10SM CLR 13/08 A3011 RMK AO2 SLP196 T01330078 401890128 TSNO,KSNA,2014-12-18T07:53:00Z,33.67,-117.87,13.3,7.8,0,0,,10.0,30.109253,1019.6,,TRUE,TRUE,,,TRUE,,,,CLR,,,,,,,,VFR,,,,18.9,12.8,,,,,,,METAR,16.0
KSMQ 180753Z AUTO 29009G17KT 10SM FEW044 OVC075 04/M04 A2993 RMK AO2 SLP136 T00391044,KSMQ,2014-12-18T07:53:00Z,40.62,-74.67,3.9,-4.4,290,9,17,10.0,29.929134,1013.6,,TRUE,TRUE,,,,,,,FEW,4400,OVC,7500,,,,,VFR,,,,,,,,,,,,METAR,30.0
PATK 180753Z AUTO 36006KT 10SM BKN120 M02/M07 A2961 RMK AO2 SLP032 T10221072 TSNO,PATK,2014-12-18T07:53:00Z,62.3,-150.1,-2.2,-7.2,360,6,,10.0,29.610237,1003.2,,TRUE,TRUE,,,TRUE,,,,BKN,12000,,,,,,,VFR,,,,,,,,,,,,METAR,109.0
PASO 180753Z AUTO 00000KT 10SM BKN060 OVC070 M01/M01 A2949 RMK AO2 SLP987 T10111011 TSNO,PASO,2014-12-18T07:53:00Z,59.45,-151.7,-1.1,-1.1,0,0,,10.0,29.489174,998.7,,TRUE,TRUE,,,TRUE,,,,BKN,6000,OVC,7000,,,,,VFR,,,,,,,,,,,,METAR,9.0
PASN 180753Z AUTO 18013KT 10SM CLR 01/M01 A2928 RMK AO2 SLP917 T00111006 TSNO $,PASN,2014-12-18T07:53:00Z,57.15,-170.22,1.1,-0.6,180,13,,10.0,29.279528,991.7,,TRUE,TRUE,TRUE,,TRUE,,,,CLR,,,,,,,,VFR,,,,,,,,,,,,METAR,29.0
PASI 180753Z 10007G18KT 10SM OVC055 06/M02 A2956 RMK AO2 SLP009 T00611017,PASI,2014-12-18T07:53:00Z,57.07,-135.35,6.1,-1.7,100,7,18,10.0,29.56004,1000.9,,,TRUE,,,,,,,OVC,5500,,,,,,,VFR,,,,,,,,,,,,METAR,5.0
PASC 180753Z 04009KT 10SM CLR M24/M27 A2988 RMK AO2 SLP122 T12391272,PASC,2014-12-18T07:53:00Z,70.2,-148.47,-23.9,-27.2,40,9,,10.0,29.878937,1012.2,,,TRUE,,,,,,,CLR,,,,,,,,VFR,,,,,,,,,,,,METAR,15.0
KSTC 180753Z AUTO 00000KT 10SM CLR M12/M14 A3032 RMK AO2 SLP297 T11171144,KSTC,2014-12-18T07:53:00Z,45.55,-94.05,-11.7,-14.4,0,0,,10.0,30.318897,1029.7,,TRUE,TRUE,,,,,,,CLR,,,,,,,,VFR,,,,,,,,,,,,METAR,314.0
PATO 180753Z AUTO 15012G21KT 130V190 9SM -RA OVC028 02/01 A2959 RMK AO2 SLP022 P0004 T00220011 TSNO,PATO,2014-12-18T07:53:00Z,60.78,-148.85,2.2,1.1,150,12,21,9.0,29.589567,1002.2,,TRUE,TRUE,,,TRUE,,,-RA,OVC,2800,,,,,,,MVFR,,,,,,0.04,,,,,,METAR,31.0
PAVL 180753Z AUTO 16012KT 10SM OVC007 M06/M07 A2964 RMK AO2 SLP037 T10561067 TSNO $,PAVL,2014-12-18T07:53:00Z,67.73,-164.55,-5.6,-6.7,160,12,,10.0,29.639763,1003.7,,TRUE,TRUE,TRUE,,TRUE,,,,OVC,700,,,,,,,IFR,,,,,,,,,,,,METAR,3.0
PAWD 180753Z AUTO 27004KT 10SM FEW060 00/M01 A2955 RMK AO2 SLP007 T00001011 TSNO,PAWD,2014-12-18T07:53:00Z,60.12,-149.42,0.0,-1.1,270,4,,10.0,29.551182,1000.7,,TRUE,TRUE,,,TRUE,,,,FEW,6000,,,,,,,VFR,,,,,,,,,,,,METAR,23.0
KSMF 180753Z 09003KT 10SM OVC060 11/09 A3011 RMK AO2 RAB27E48 SLP194 P0000 T01060089 401330089 $,KSMF,2014-12-18T07:53:00Z,38.7,-121.6,10.6,8.9,90,3,,10.0,30.109253,1019.4,,,TRUE,TRUE,,,,,,OVC,6000,,,,,,,VFR,,,,13.3,8.9,0.0050,,,,,,METAR,6.0
PAYA 180753Z AUTO 02004KT 10SM CLR M01/M02 A2959 RMK AO2 SLP021 I1001 T10111022 TSNO,PAYA,2014-12-18T07:53:00Z,59.52,-139.67,-1.1,-2.2,20,4,,10.0,29.589567,1002.1,,TRUE,TRUE,,,TRUE,,,,CLR,,,,,,,,VFR,,,,,,,,,,,,METAR,11.0
KPTK 180753Z AUTO 29010KT 10SM OVC016 M02/M06 A3014 RMK AO2 SLP219 T10221061 $,KPTK,2014-12-18T07:53:00Z,42.67,-83.42,-2.2,-6.1,290,10,,10.0,30.138779,1021.9,,TRUE,TRUE,TRUE,,,,,,OVC,1600,,,,,,,MVFR,,,,,,,,,,,,METAR,299.0
KPUB 180753Z AUTO 30005KT 7SM OVC060 M04/M05 A3001 RMK AO2 SLP189 T10441050,KPUB,2014-12-18T07:53:00Z,38.28,-104.5,-4.4,-5.0,300,5,,7.0,30.008858,1018.9,,TRUE,TRUE,,,,,,,OVC,6000,,,,,,,VFR,,,,,,,,,,,,METAR,1420.0
KPUC 180753Z AUTO 01005KT 10SM CLR M04/M07 A3005 RMK AO2 SLP210 T10391072,KPUC,2014-12-18T07:53:00Z,39.62,-110.75,-3.9,-7.2,10,5,,10.0,30.050198,1021.0,,TRUE,TRUE,,,,,,,CLR,,,,,,,,VFR,,,,,,,,,,,,METAR,2091.0
KRAC 180753Z AUTO 26005KT 10SM CLR M07/M11 A3029 RMK AO2 SLP270 T10721106,KRAC,2014-12-18T07:53:00Z,42.77,-87.82,-7.2,-10.6,260,5,,10.0,30.28937,1027.0,,TRUE,TRUE,,,,,,,CLR,,,,,,,,VFR,,,,,,,,,,,,METAR,203.0
KPWA 180753Z AUTO 16005KT 2SM BR OVC004 04/03 A3011 RMK AO2 SLP201 T00390028,KPWA,2014-12-18T07:53:00Z,35.53,-97.65,3.9,2.8,160,5,,2.0,30.109253,1020.1,,TRUE,TRUE,,,,,,BR,OVC,400,,,,,,,LIFR,,,,,,,,,,,,METAR,397.0
KPUW 180753Z AUTO 00000KT 10SM BKN037 OVC048 03/01 A2997 RMK AO2 SLP164 T00330011 400560006,KPUW,2014-12-18T07:53:00Z,46.75,-117.12,3.3,1.1,0,0,,10.0,29.970472,1016.4,,TRUE,TRUE,,,,,,,BKN,3700,OVC,4800,,,,,VFR,,,,5.6,0.6,,,,,,,METAR,773.0
KRDD 180753Z AUTO 00000KT 6SM -RA BR BKN006 OVC011 09/09 A3009 RMK AO2 CIG 004V008 SLP190 P0002 T00940089 401060094 $,KRDD,2014-12-18T07:53:00Z,40.52,-122.3,9.4,8.9,0,0,,6.0,30.088583,1019.0,,TRUE,TRUE,TRUE,,,,,-RA BR,BKN,600,OVC,1100,,,,,IFR,,,,10.6,9.4,0.02,,,,,,METAR,155.0
KRBG 180753Z AUTO 00000KT 4SM -RA BR OVC003 08/07 A2999 RMK AO2 RAB04 SLP156 P0001 T00830067 401110050,KRBG,2014-12-18T07:53:00Z,43.23,-123.35,8.3,6.7,0,0,,4.0,29.991142,1015.6,,TRUE,TRUE,,,,,,-RA BR,OVC,300,,,,,,,LIFR,,,,11.1,5.0,0.01,,,,,,METAR,154.0
KRBD 180753Z 10006KT 6SM BR OVC002 06/05 A3012 RMK AO2 RAE0654 SLP199 P0000 T00610050,KRBD,2014-12-18T07:53:00Z,32.68,-96.87,6.1,5.0,100,6,,6.0,30.121063,1019.9,,,TRUE,,,,,,BR,OVC,200,,,,,,,LIFR,,,,,,0.0050,,,,,,METAR,203.0
KRAL 180753Z AUTO 04004KT 10SM CLR 10/07 A3012 RMK AO2 SLP189 T01000072 401610089,KRAL,2014-12-18T07:53:00Z,33.95,-117.45,10.0,7.2,40,4,,10.0,30.121063,1018.9,,TRUE,TRUE,,,,,,,CLR,,,,,,,,VFR,,,,16.1,8.9,,,,,,,METAR,252.0
KRHI 180753Z AUTO 00000KT 10SM OVC009 M06/M08 A3024 RMK AO2 SLP269 T10611078,KRHI,2014-12-18T07:53:00Z,45.63,-89.48,-6.1,-7.8,0,0,,10.0,30.239174,1026.9,,TRUE,TRUE,,,,,,,OVC,900,,,,,,,IFR,,,,,,,,,,,,METAR,485.0
KRNM 180753Z 06003KT 10SM SCT030 08/06 A3013 RMK AO2 SLP198 T00780061 401440078,KRNM,2014-12-18T07:53:00Z,33.03,-116.92,7.8,6.1,60,3,,10.0,30.129921,1019.8,,,TRUE,,,,,,,SCT,3000,,,,,,,VFR,,,,14.4,7.8,,,,,,,METAR,427.0
KRMG 180753Z AUTO 34004KT 10SM CLR 03/M01 A3019 RMK AO2 SLP222 T00281006,KRMG,2014-12-18T07:53:00Z,34.35,-85.17,2.8,-0.6,340,4,,10.0,30.188976,1022.2,,TRUE,TRUE,,,,,,,CLR,,,,,,,,VFR,,,,,,,,,,,,METAR,193.0
KRME 180753Z AUTO 26011G19KT 4SM -SN BR OVC010 00/M02 A2991 RMK AO2 CIG 009V013 SLP131 P0000 T00001017,KRME,2014-12-18T07:53:00Z,43.22,-75.4,0.0,-1.7,260,11,19,4.0,29.911417,1013.1,,TRUE,TRUE,,,,,,-SN BR,OVC,1000,,,,,,,MVFR,,,,,,0.0050,,,,,,METAR,154.0
KRKP 180753Z AUTO 14005KT 9SM OVC031 20/18 A3003 RMK AO2 SLP171 T02000183,KRKP,2014-12-18T07:53:00Z,28.08,-97.05,20.0,18.3,140,5,,9.0,30.029528,1017.1,,TRUE,TRUE,,,,,,,OVC,3100,,,,,,,VFR,,,,,,,,,,,,METAR,6.0
KRIW 180753Z AUTO 00000KT 1/4SM HZ VV001 M12/M14 A2998 RMK AO2 SLP216 T11171144,KRIW,2014-12-18T07:53:00Z,43.07,-108.47,-11.7,-14.4,0,0,,0.25,29.97933,1021.6,,TRUE,TRUE,,,,,,HZ,OVX,0,,,,,,,LIFR,,,,,,,,,,,100,METAR,1697.0
KRIL 180753Z AUTO 00000KT 1 1/4SM -SN BR OVC002 01/00 A3004 RMK AO2 UPB15E40SNB40 SLP177 P0000 T00060000,KRIL,2014-12-18T07:53:00Z,39.53,-107.73,0.6,0.0,0,0,,1.25,30.041338,1017.7,,TRUE,TRUE,,,,,,-SN BR,OVC,200,,,,,,,LIFR,,,,,,0.0050,,,,,,METAR,1678.0
KRNT 180753Z AUTO 13003KT 8SM FEW025 OVC046 08/06 A2993 RMK AO2 RAB09E48 SLP139 P0001 T00780061 400890056,KRNT,2014-12-18T07:53:00Z,47.5,-122.22,7.8,6.1,130,3,,8.0,29.929134,1013.9,,TRUE,TRUE,,,,,,,FEW,2500,OVC,4600,,,,,VFR,,,,8.9,5.6,0.01,,,,,,METAR,21.0
KRQE 180753Z AUTO 00000KT 10SM FEW036 BKN060 M01/M03 A3010 RMK AO2 SLP176 T10111033 TSNO,KRQE,2014-12-18T07:53:00Z,35.65,-109.07,-1.1,-3.3,0,0,,10.0,30.100393,1017.6,,TRUE,TRUE,,,TRUE,,,,FEW,3600,BKN,6000,,,,,VFR,,,,,,,,,,,,METAR,2055.0
KLSE 180753Z AUTO 33003KT 10SM OVC021 M07/M10 A3032 RMK AO2 SLP283 T10671100,KLSE,2014-12-18T07:53:00Z,43.88,-91.25,-6.7,-10.0,330,3,,10.0,30.318897,1028.3,,TRUE,TRUE,,,,,,,OVC,2100,,,,,,,MVFR,,,,,,,,,,,,METAR,199.0
KRSW 180753Z 00000KT 10SM CLR 14/13 A3014 RMK AO2 SLP204 T01390128,KRSW,2014-12-18T07:53:00Z,26.53,-81.75,13.9,12.8,0,0,,10.0,30.138779,1020.4,,,TRUE,,,,,,,CLR,,,,,,,,VFR,,,,,,,,,,,,METAR,10.0
KRUE 180753Z AUTO 09005KT 7SM UP BKN041 BKN050 OVC070 02/01 A3022 RMK AO2 RAB40E52 SLP234 P0003 T00220006,KRUE,2014-12-18T07:53:00Z,35.25,-93.1,2.2,0.6,90,5,,7.0,30.221457,1023.4,,TRUE,TRUE,,,,,,UP,BKN,4100,BKN,5000,OVC,7000,,,VFR,,,,,,0.03,,,,,,METAR,115.0
KRTN 180753Z AUTO 06007KT 10SM CLR M04/M07 A2996 RMK AO2 SLP152 T10441067,KRTN,2014-12-18T07:53:00Z,36.73,-104.5,-4.4,-6.7,60,7,,10.0,29.958662,1015.2,,TRUE,TRUE,,,,,,,CLR,,,,,,,,VFR,,,,,,,,,,,,METAR,1936.0
KRVS 180753Z AUTO 10006KT 9SM OVC009 03/02 A3017 RMK AO2 CIG 007V011 SLP224 T00280017,KRVS,2014-12-18T07:53:00Z,36.05,-95.98,2.8,1.7,100,6,,9.0,30.171259,1022.4,,TRUE,TRUE,,,,,,,OVC,900,,,,,,,IFR,,,,,,,,,,,,METAR,200.0
KRWF 180753Z AUTO 00000KT 8SM CLR M13/M14 A3031 RMK AO2 SLP285 I1000 T11281144,KRWF,2014-12-18T07:53:00Z,44.55,-95.08,-12.8,-14.4,0,0,,8.0,30.31004,1028.5,,TRUE,TRUE,,,,,,,CLR,,,,,,,,VFR,,,,,,,,,,,,METAR,311.0
KRWI 180753Z AUTO 33004KT 10SM CLR 05/M02 A3010 RMK AO2 SLP193 T00501017,KRWI,2014-12-18T07:53:00Z,35.85,-77.9,5.0,-1.7,330,4,,10.0,30.100393,1019.3,,TRUE,TRUE,,,,,,,CLR,,,,,,,,VFR,,,,,,,,,,,,METAR,47.0
KRWL 180753Z AUTO 19005KT 10SM CLR M08/M11 A2999 RMK AO2 SLP186 T10781106,KRWL,2014-12-18T07:53:00Z,41.78,-107.2,-7.8,-10.6,190,5,,10.0,29.991142,1018.6,,TRUE,TRUE,,,,,,,CLR,,,,,,,,VFR,,,,,,,,,,,,METAR,2077.0
KRXE 180753Z AUTO 04003KT 5SM BR SCT039 OVC050 M04/M04 A3005 RMK AO2 SLP202 T10391039,KRXE,2014-12-18T07:53:00Z,43.83,-111.8,-3.9,-3.9,40,3,,5.0,30.050198,1020.2,,TRUE,TRUE,,,,,,BR,SCT,3900,OVC,5000,,,,,MVFR,,,,,,,,,,,,METAR,1480.0
PAAQ 180753Z AUTO 35013KT 10SM CLR M03/M08 A2958 RMK AO2 SLPNO T10281083 TSNO $,PAAQ,2014-12-18T07:53:00Z,61.6,-149.08,-2.8,-8.3,350,13,,10.0,29.58071,,,TRUE,TRUE,TRUE,,TRUE,,,,CLR,,,,,,,,VFR,,,,,,,,,,,,METAR,73.0
PABE 180753Z 03006KT 10SM CLR M10/M11 A2950 RMK AO2 SLP991 T11001111,PABE,2014-12-18T07:53:00Z,60.78,-161.85,-10.0,-11.1,30,6,,10.0,29.500984,999.1,,,TRUE,,,,,,,CLR,,,,,,,,VFR,,,,,,,,,,,,METAR,41.0
PABI 180753Z AUTO 08004KT 1/2SM FZFG VV003 M14/M16 A2965 RMK AO2 SLP086 T11441156 TSNO $,PABI,2014-12-18T07:53:00Z,64.0,-145.73,-14.4,-15.6,80,4,,0.5,29.648623,1008.6,,TRUE,TRUE,TRUE,,TRUE,,,FZFG,OVX,0,,,,,,,LIFR,,,,,,,,,,,300,METAR,386.0
KMZH 180753Z AUTO 36003KT 7SM -SN OVC017 M10/M11 A3030 RMK AO2,KMZH,2014-12-18T07:53:00Z,46.42,-92.8,-10.0,-11.0,360,3,,7.0,30.301182,,,TRUE,TRUE,,,,,,-SN,OVC,1700,,,,,,,MVFR,,,,,,,,,,,,METAR,328.0
KCKC 180753Z AUTO 00000KT 10SM CLR M17/M21 A3026 RMK AO2,KCKC,2014-12-18T07:53:00Z,47.83,-90.37,-17.0,-21.0,0,0,,10.0,30.259842,,,TRUE,TRUE,,,,,,,CLR,,,,,,,,VFR,,,,,,,,,,,,METAR,548.0
PABR 180753Z 06012KT 10SM BKN100 OVC110 M23/M26 A2993 RMK AO2 SLP138 T12331261,PABR,2014-12-18T07:53:00Z,71.28,-156.8,-23.3,-26.1,60,12,,10.0,29.929134,1013.8,,,TRUE,,,,,,,BKN,10000,OVC,11000,,,,,VFR,,,,,,,,,,,,METAR,7.0
PABT 180753Z 34004KT 10SM OVC016 M15/M18 A2969 RMK AO2 SLP075 T11501178,PABT,2014-12-18T07:53:00Z,66.92,-151.52,-15.0,-17.8,340,4,,10.0,29.68996,1007.5,,,TRUE,,,,,,,OVC,1600,,,,,,,MVFR,,,,,,,,,,,,METAR,195.0
PACD 180753Z AUTO 27006KT 10SM CLR 00/M01 A2931 RMK AO2 SLP925 T00001006 TSNO $,PACD,2014-12-18T07:53:00Z,55.2,-162.72,0.0,-0.6,270,6,,10.0,29.309055,992.5,,TRUE,TRUE,TRUE,,TRUE,,,,CLR,,,,,,,,VFR,,,,,,,,,,,,METAR,30.0
PACV 180753Z 00000KT 10SM CLR 00/M02 A2961 RMK AO2 SLP026 T00001017 $,PACV,2014-12-18T07:53:00Z,60.5,-145.5,0.0,-1.7,0,0,,10.0,29.610237,1002.6,,,TRUE,TRUE,,,,,,CLR,,,,,,,,VFR,,,,,,,,,,,,METAR,12.0
PADE 180753Z AUTO 26004KT 10SM OVC065 M07/M09 A2964 RMK AO2 SLP036 T10671089 TSNO $,PADE,2014-12-18T07:53:00Z,66.07,-162.77,-6.7,-8.9,260,4,,10.0,29.639763,1003.6,,TRUE,TRUE,TRUE,,TRUE,,,,OVC,6500,,,,,,,VFR,,,,,,,,,,,,METAR,5.0
PADQ 180753Z 03021KT 10SM SCT023 BKN031 OVC075 06/02 A2933 RMK AO2 RAE07 SLP934 P0001 T00560022,PADQ,2014-12-18T07:53:00Z,57.75,-152.5,5.6,2.2,30,21,,10.0,29.329725,993.4,,,TRUE,,,,,,,SCT,2300,BKN,3100,OVC,7500,,,VFR,,,,,,0.01,,,,,,METAR,34.0
PAEG 180753Z AUTO 11008G18KT 080V140 10SM FEW070 M07/M11 A2965 RMK AO2 SLP053 T10671106 TSNO,PAEG,2014-12-18T07:53:00Z,64.78,-141.15,-6.7,-10.6,110,8,18,10.0,29.648623,1005.3,,TRUE,TRUE,,,TRUE,,,,FEW,7000,,,,,,,VFR,,,,,,,,,,,,METAR,268.0
PAEN 180753Z AUTO 02012KT 10SM CLR M01/M02 A2956 RMK AO2 SLP011 T10111022 TSNO,PAEN,2014-12-18T07:53:00Z,60.57,-151.25,-1.1,-2.2,20,12,,10.0,29.56004,1001.1,,TRUE,TRUE,,,TRUE,,,,CLR,,,,,,,,VFR,,,,,,,,,,,,METAR,27.0
PAFA 180753Z 00000KT 5SM -SN BR SCT007 OVC013 M07/M10 A2968 RMK AO2 SLP062 T10721100,PAFA,2014-12-18T07:53:00Z,64.8,-147.88,-7.2,-10.0,0,0,,5.0,29.681103,1006.2,,,TRUE,,,,,,-SN BR,SCT,700,OVC,1300,,,,,MVFR,,,,,,,,,,,,METAR,132.0
PAGK 180753Z AUTO 31004KT 10SM CLR M21/M24 A2967 RMK AO2 SLP104 T12111239 TSNO,PAGK,2014-12-18T07:53:00Z,62.15,-145.45,-21.1,-23.9,310,4,,10.0,29.66929,1010.4,,TRUE,TRUE,,,TRUE,,,,CLR,,,,,,,,VFR,,,,,,,,,,,,METAR,481.0
PAGY 180753Z AUTO 03003KT 10SM CLR M01/M02 A2976 RMK AO2 SLP077 T10111022 TSNO,PAGY,2014-12-18T07:53:00Z,59.47,-135.3,-1.1,-2.2,30,3,,10.0,29.760826,1007.7,,TRUE,TRUE,,,TRUE,,,,CLR,,,,,,,,VFR,,,,,,,,,,,,METAR,5.0
PAHO 180753Z AUTO 00000KT 10SM BKN070 M01/M03 A2949 RMK AO2 SLP987 T10111028 TSNO,PAHO,2014-12-18T07:53:00Z,59.63,-151.5,-1.1,-2.8,0,0,,10.0,29.489174,998.7,,TRUE,TRUE,,,TRUE,,,,BKN,7000,,,,,,,VFR,,,,,,,,,,,,METAR,28.0
PAIL 180753Z AUTO 01013KT 10SM FEW070 M03/M07 A2948 RMK AO2 SLP987 T10331072 TSNO,PAIL,2014-12-18T07:53:00Z,59.75,-154.92,-3.3,-7.2,10,13,,10.0,29.480314,998.7,,TRUE,TRUE,,,TRUE,,,,FEW,7000,,,,,,,VFR,,,,,,,,,,,,METAR,49.0
PAJN 180753Z 00000KT 1/4SM R08/1600V2200FT FZFG VV002 M01/M02 A2971 RMK AO2 SLP059 T10111017,PAJN,2014-12-18T07:53:00Z,58.37,-134.58,-1.1,-1.7,0,0,,0.25,29.71063,1005.9,,,TRUE,,,,,,FZFG,OVX,0,,,,,,,LIFR,,,,,,,,,,,200,METAR,5.0
PAKT 180753Z AUTO 18009KT 10SM OVC043 05/M01 A2967 RMK AO2 RAE15 SLPNO P0000 T00501006 TSNO $,PAKT,2014-12-18T07:53:00Z,55.35,-131.7,5.0,-0.6,180,9,,10.0,29.66929,,,TRUE,TRUE,TRUE,,TRUE,,,,OVC,4300,,,,,,,VFR,,,,,,0.0050,,,,,,METAR,28.0
PAKV 180753Z AUTO 00000KT 10SM CLR M12/M14 A2972 RMK AO1 SLP068 T11221139 FZRANO TSNO,PAKV,2014-12-18T07:53:00Z,64.33,-158.75,-12.2,-13.9,0,0,,10.0,29.719488,1006.8,,TRUE,TRUE,,,TRUE,TRUE,,,CLR,,,,,,,,VFR,,,,,,,,,,,,METAR,61.0
PAKW 180753Z AUTO 06006KT 10SM FEW034 BKN041 BKN055 05/01 A2958 RMK AO2 SLP017 T00500006 TSNO,PAKW,2014-12-18T07:53:00Z,55.58,-133.07,5.0,0.6,60,6,,10.0,29.58071,1001.7,,TRUE,TRUE,,,TRUE,,,,FEW,3400,BKN,4100,BKN,5500,,,VFR,,,,,,,,,,,,METAR,15.0
PALH 180753Z 00000KT 10SM CLR M04/M07 A2961 RMK AO2 SLP026 T10441067,PALH,2014-12-18T07:53:00Z,61.18,-149.97,-4.4,-6.7,0,0,,10.0,29.610237,1002.6,,,TRUE,,,,,,,CLR,,,,,,,,VFR,,,,,,,,,,,,METAR,22.0
PAMC 180753Z AUTO 31005KT 10SM OVC010 M13/M15 A2965 RMK AO2 SLP051 T11281150 TSNO,PAMC,2014-12-18T07:53:00Z,62.97,-155.62,-12.8,-15.0,310,5,,10.0,29.648623,1005.1,,TRUE,TRUE,,,TRUE,,,,OVC,1000,,,,,,,MVFR,,,,,,,,,,,,METAR,103.0
PAMR 180753Z 00000KT 10SM FEW015 BKN220 M05/M07 A2959 RMK AO2 SLP022 I1000 T10501067,PAMR,2014-12-18T07:53:00Z,61.22,-149.85,-5.0,-6.7,0,0,,10.0,29.589567,1002.2,,,TRUE,,,,,,,FEW,1500,BKN,22000,,,,,VFR,,,,,,,,,,,,METAR,41.0
PANC 180753Z 00000KT 10SM FEW060 SCT110 BKN220 M03/M05 A2959 RMK AO2 SLP022 T10331050 $,PANC,2014-12-18T07:53:00Z,61.17,-150.02,-3.3,-5.0,0,0,,10.0,29.589567,1002.2,,,TRUE,TRUE,,,,,,FEW,6000,SCT,11000,BKN,22000,,,VFR,,,,,,,,,,,,METAR,38.0
PANN 180753Z AUTO 29003KT 10SM OVC004 M09/M11 A2967 RMK AO2 SLP060 I1000 T10941111 TSNO $,PANN,2014-12-18T07:53:00Z,64.55,-149.08,-9.4,-11.1,290,3,,10.0,29.66929,1006.0,,TRUE,TRUE,TRUE,,TRUE,,,,OVC,400,,,,,,,LIFR,,,,,,,,,,,,METAR,110.0
PANT 180753Z AUTO 11010G19KT 10SM BKN040 OVC049 07/M02 A2964 RMK AO2 SLP040 T00671017 TSNO,PANT,2014-12-18T07:53:00Z,55.03,-131.57,6.7,-1.7,110,10,19,10.0,29.639763,1004.0,,TRUE,TRUE,,,TRUE,,,,BKN,4000,OVC,4900,,,,,VFR,,,,,,,,,,,,METAR,36.0
PAOR 180753Z 00000KT 10SM CLR M28/M31 A2967 RMK AO2 SLP128 T12781311,PAOR,2014-12-18T07:53:00Z,62.97,-141.93,-27.8,-31.1,0,0,,10.0,29.66929,1012.8,,,TRUE,,,,,,,CLR,,,,,,,,VFR,,,,,,,,,,,,METAR,523.0
PAOT 180753Z 11009KT 10SM OVC014 M07/M08 A2967 RMK AO2 SLP046 T10671078,PAOT,2014-12-18T07:53:00Z,66.87,-162.58,-6.7,-7.8,110,9,,10.0,29.66929,1004.6,,,TRUE,,,,,,,OVC,1400,,,,,,,MVFR,,,,,,,,,,,,METAR,3.0
PAPB 180753Z AUTO 16006KT 10SM SCT008 BKN037 M01/M02 A2931 RMK AO2 SLP914 T10061017 TSNO $,PAPB,2014-12-18T07:53:00Z,56.58,-169.67,-0.6,-1.7,160,6,,10.0,29.309055,991.4,,TRUE,TRUE,TRUE,,TRUE,,,,SCT,800,BKN,3700,,,,,VFR,,,,,,,,,,,,METAR,35.0
PAQT 180753Z AUTO 05006KT 10SM CLR M27/M30 A2992 RMK AO2 SLP134 T12721300 TSNO,PAQT,2014-12-18T07:53:00Z,70.22,-151.0,-27.2,-30.0,50,6,,10.0,29.920275,1013.4,,TRUE,TRUE,,,TRUE,,,,CLR,,,,,,,,VFR,,,,,,,,,,,,METAR,12.0
YSWG 180753Z AUTO 25019G30KT 9999 // SCT120 28/M04 Q1006,YSWG,2014-12-18T07:53:00Z,-35.13,147.47,28.0,-4.0,250,19,30,6.21,29.704725,,,TRUE,,,,,,,,SCT,12000,,,,,,,VFR,,,,,,,,,,,,SPECI,213.0
KOWD 180753Z AUTO 27008KT 10SM BKN050 OVC070 04/M01 A2973 RMK AO2 SLP067 T00441011,KOWD,2014-12-18T07:53:00Z,42.18,-71.17,4.4,-1.1,270,8,,10.0,29.731298,1006.7,,TRUE,TRUE,,,,,,,BKN,5000,OVC,7000,,,,,VFR,,,,,,,,,,,,METAR,19.0
KOXB 180753Z AUTO 31003KT 10SM CLR 01/M03 A3005 RMK AO2 SLP176 T00111033 TSNO,KOXB,2014-12-18T07:53:00Z,38.32,-75.12,1.1,-3.3,310,3,,10.0,30.050198,1017.6,,TRUE,TRUE,,,TRUE,,,,CLR,,,,,,,,VFR,,,,,,,,,,,,METAR,3.0
KPAE 180753Z 16006KT 10SM OVC022 07/06 A2991 RMK AO2 RAE53 SLP132 P0000 T00670056 400830061,KPAE,2014-12-18T07:53:00Z,47.92,-122.28,6.7,5.6,160,6,,10.0,29.911417,1013.2,,,TRUE,,,,,,,OVC,2200,,,,,,,MVFR,,,,8.3,6.1,0.0050,,,,,,METAR,180.0
KPAH 180753Z AUTO 08004KT 6SM -RA BR OVC075 01/M01 A3027 RMK AO2 SLP253 P0006 T00061011,KPAH,2014-12-18T07:53:00Z,37.07,-88.77,0.6,-1.1,80,4,,6.0,30.268702,1025.3,,TRUE,TRUE,,,,,,-RA BR,OVC,7500,,,,,,,VFR,,,,,,0.06,,,,,,METAR,119.0
KPBF 180753Z AUTO 06007KT 8SM -RA OVC055 03/02 A3025 RMK AO2 RAB04SNE04 SLP243 P0006 T00330017,KPBF,2014-12-18T07:53:00Z,34.18,-91.93,3.3,1.7,60,7,,8.0,30.250984,1024.3,,TRUE,TRUE,,,,,,-RA,OVC,5500,,,,,,,VFR,,,,,,0.06,,,,,,METAR,62.0
KPBG 180753Z AUTO 00000KT 3SM -RA BR SCT004 BKN037 OVC044 01/01 A2976 RMK AO2 RAB11 SLP081 P0001 T00060006,KPBG,2014-12-18T07:53:00Z,44.65,-73.47,0.6,0.6,0,0,,3.0,29.760826,1008.1,,TRUE,TRUE,,,,,,-RA BR,SCT,400,BKN,3700,OVC,4400,,,MVFR,,,,,,0.01,,,,,,METAR,72.0
KPBI 180753Z 29004KT 10SM CLR 17/14 A3012 RMK AO2 SLP199 T01670144,KPBI,2014-12-18T07:53:00Z,26.68,-80.1,16.7,14.4,290,4,,10.0,30.121063,1019.9,,,TRUE,,,,,,,CLR,,,,,,,,VFR,,,,,,,,,,,,METAR,6.0
KPDT 180753Z AUTO 11003KT 2SM BR SCT070 BKN110 01/01 A2997 RMK AO2 SLP156 T00110011 400281017,KPDT,2014-12-18T07:53:00Z,45.7,-118.83,1.1,1.1,110,3,,2.0,29.970472,1015.6,,TRUE,TRUE,,,,,,BR,SCT,7000,BKN,11000,,,,,IFR,,,,2.8,-1.7,,,,,,,METAR,462.0
KPDK 180753Z AUTO 31005KT 10SM CLR 03/00 A3012 RMK AO2 SLP210 T00330000,KPDK,2014-12-18T07:53:00Z,33.88,-84.3,3.3,0.0,310,5,,10.0,30.121063,1021.0,,TRUE,TRUE,,,,,,,CLR,,,,,,,,VFR,,,,,,,,,,,,METAR,302.0
KPDX 180753Z 12007KT 10SM BKN017 OVC070 07/05 A2999 RMK AO2 SLP155 T00670050 400830022,KPDX,2014-12-18T07:53:00Z,45.6,-122.62,6.7,5.0,120,7,,10.0,29.991142,1015.5,,,TRUE,,,,,,,BKN,1700,OVC,7000,,,,,MVFR,,,,8.3,2.2,,,,,,,METAR,7.0
KPEO 180753Z AUTO 26013G19KT 10SM OVC025 00/M05 A2997 RMK AO2 SLP159 T00001050,KPEO,2014-12-18T07:53:00Z,42.65,-77.05,0.0,-5.0,260,13,19,10.0,29.970472,1015.9,,TRUE,TRUE,,,,,,,OVC,2500,,,,,,,MVFR,,,,,,,,,,,,METAR,256.0
KPIE 180753Z AUTO 00000KT 10SM CLR 10/09 A3015 RMK AO2 SLP210 T01000089,KPIE,2014-12-18T07:53:00Z,27.92,-82.68,10.0,8.9,0,0,,10.0,30.15059,1021.0,,TRUE,TRUE,,,,,,,CLR,,,,,,,,VFR,,,,,,,,,,,,METAR,4.0
KPHD 180753Z AUTO 31010KT 10SM OVC024 M02/M07 A3022 RMK AO2 SLP243 T10171067,KPHD,2014-12-18T07:53:00Z,40.47,-81.42,-1.7,-6.7,310,10,,10.0,30.221457,1024.3,,TRUE,TRUE,,,,,,,OVC,2400,,,,,,,MVFR,,,,,,,,,,,,METAR,272.0
KPGD 180753Z AUTO 00000KT 10SM CLR 11/09 A3015 RMK AO2 SLP211 T01110094,KPGD,2014-12-18T07:53:00Z,26.92,-82.0,11.1,9.4,0,0,,10.0,30.15059,1021.1,,TRUE,TRUE,,,,,,,CLR,,,,,,,,VFR,,,,,,,,,,,,METAR,7.0
KPGA 180753Z AUTO 00000KT 4SM BR FEW001 OVC080 03/01 A3009 RMK AO2 SLP184 T00330011 TSNO,KPGA,2014-12-18T07:53:00Z,36.92,-111.45,3.3,1.1,0,0,,4.0,30.088583,1018.4,,TRUE,TRUE,,,TRUE,,,BR,FEW,100,OVC,8000,,,,,MVFR,,,,,,,,,,,,METAR,1307.0
KPIH 180753Z AUTO 05003KT 5SM BR CLR M04/M04 A3005 RMK AO2 SLP200 I1000 T10441044,KPIH,2014-12-18T07:53:00Z,42.92,-112.57,-4.4,-4.4,50,3,,5.0,30.050198,1020.0,,TRUE,TRUE,,,,,,BR,CLR,,,,,,,,MVFR,,,,,,,,,,,,METAR,1359.0
KPIR 180753Z AUTO 13008KT 4SM BR OVC003 M07/M08 A3012 RMK AO2 SLP227 I1001 T10721083,KPIR,2014-12-18T07:53:00Z,44.38,-100.28,-7.2,-8.3,130,8,,4.0,30.121063,1022.7,,TRUE,TRUE,,,,,,BR,OVC,300,,,,,,,LIFR,,,,,,,,,,,,METAR,526.0
KPOU 180753Z AUTO 28010G17KT 10SM OVC047 04/M03 A2987 RMK AO2 RAB12E21 SLP112 P0000 T00441033 TSNO,KPOU,2014-12-18T07:53:00Z,41.63,-73.88,4.4,-3.3,280,10,17,10.0,29.870079,1011.2,,TRUE,TRUE,,,TRUE,,,,OVC,4700,,,,,,,VFR,,,,,,0.0050,,,,,,METAR,46.0
KPOF 180753Z AUTO 00000KT 4SM -RA BR OVC050 01/M01 A3027 RMK AO2 SLP255 P0002 T00061006,KPOF,2014-12-18T07:53:00Z,36.77,-90.32,0.6,-0.6,0,0,,4.0,30.268702,1025.5,,TRUE,TRUE,,,,,,-RA BR,OVC,5000,,,,,,,MVFR,,,,,,0.02,,,,,,METAR,99.0
KPNS 180753Z AUTO 00000KT 10SM CLR 07/04 A3018 RMK AO2 SLP222 T00720044,KPNS,2014-12-18T07:53:00Z,30.48,-87.18,7.2,4.4,0,0,,10.0,30.180119,1022.2,,TRUE,TRUE,,,,,,,CLR,,,,,,,,VFR,,,,,,,,,,,,METAR,38.0
KPMP 180753Z AUTO 27005KT 10SM CLR 17/12 A3013 RMK AO2 SLP205 T01720122,KPMP,2014-12-18T07:53:00Z,26.25,-80.12,17.2,12.2,270,5,,10.0,30.129921,1020.5,,TRUE,TRUE,,,,,,,CLR,,,,,,,,VFR,,,,,,,,,,,,METAR,6.0
KPMD 180753Z AUTO 00000KT 10SM CLR 04/02 A3011 RMK AO2 SLP195 T00390017 401170039,KPMD,2014-12-18T07:53:00Z,34.63,-118.08,3.9,1.7,0,0,,10.0,30.109253,1019.5,,TRUE,TRUE,,,,,,,CLR,,,,,,,,VFR,,,,11.7,3.9,,,,,,,METAR,780.0
KPKD 180753Z AUTO 00000KT 10SM CLR M16/M18 A3026 RMK AO2 SLP282 T11611178,KPKD,2014-12-18T07:53:00Z,46.9,-95.07,-16.1,-17.8,0,0,,10.0,30.259842,1028.2,,TRUE,TRUE,,,,,,,CLR,,,,,,,,VFR,,,,,,,,,,,,METAR,442.0
KPKB 180753Z AUTO 28005KT 10SM OVC020 M02/M07 A3027 RMK AO2 SLP258 T10221072,KPKB,2014-12-18T07:53:00Z,39.35,-81.42,-2.2,-7.2,280,5,,10.0,30.268702,1025.8,,TRUE,TRUE,,,,,,,OVC,2000,,,,,,,MVFR,,,,,,,,,,,,METAR,262.0
KPQL 180753Z AUTO 00000KT 10SM CLR 04/03 A3019 RMK AO2 SLP224 T00390033 TSNO $,KPQL,2014-12-18T07:53:00Z,30.47,-88.53,3.9,3.3,0,0,,10.0,30.188976,1022.4,,TRUE,TRUE,TRUE,,TRUE,,,,CLR,,,,,,,,VFR,,,,,,,,,,,,METAR,6.0
KPRB 180753Z AUTO 12004KT 9SM -RA BKN041 OVC070 09/07 A3012 RMK AO2 RAB45 SLP198 P0001 T00940072 401330056 TSNO,KPRB,2014-12-18T07:53:00Z,35.67,-120.63,9.4,7.2,120,4,,9.0,30.121063,1019.8,,TRUE,TRUE,,,TRUE,,,-RA,BKN,4100,OVC,7000,,,,,VFR,,,,13.3,5.6,0.01,,,,,,METAR,245.0
KPRC 180753Z AUTO 16005KT 10SM FEW024 SCT028 BKN033 01/M01 A3012 RMK AO2 SLP183 T00111011,KPRC,2014-12-18T07:53:00Z,34.65,-112.42,1.1,-1.1,160,5,,10.0,30.121063,1018.3,,TRUE,TRUE,,,,,,,FEW,2400,SCT,2800,BKN,3300,,,VFR,,,,,,,,,,,,METAR,1524.0
KPSC 180753Z AUTO 00000KT 8SM FEW010 OVC017 04/04 A3003 RMK AO2 SLP172 T00390039 400440017,KPSC,2014-12-18T07:53:00Z,46.27,-119.12,3.9,3.9,0,0,,8.0,30.029528,1017.2,,TRUE,TRUE,,,,,,,FEW,1000,OVC,1700,,,,,MVFR,,,,4.4,1.7,,,,,,,METAR,121.0
KPSP 180753Z 21004KT 7SM BKN060 12/09 A3012 RMK AO2 SLP200 T01220094 401560100,KPSP,2014-12-18T07:53:00Z,33.82,-116.5,12.2,9.4,210,4,,7.0,30.121063,1020.0,,,TRUE,,,,,,,BKN,6000,,,,,,,VFR,,,,15.6,10.0,,,,,,,METAR,135.0
KMCI 180753Z 08005KT 1SM R19R/P6000FT -SN BR BKN016 OVC022 M02/M03 A3023 RMK AO2 SFC VIS 1 1/4 SLP247 P0005 T10221033,KMCI,2014-12-18T07:53:00Z,39.3,-94.73,-2.2,-3.3,80,5,,1.0,30.230314,1024.7,,,TRUE,,,,,,-SN BR,BKN,1600,OVC,2200,,,,,IFR,,,,,,0.05,,,,,,METAR,320.0
KMCK 180753Z AUTO 12003KT 2 1/2SM -SN BR SCT025 OVC080 M04/M05 A3010 RMK AO2 SLP226 P0002 T10391050,KMCK,2014-12-18T07:53:00Z,40.2,-100.58,-3.9,-5.0,120,3,,2.5,30.100393,1022.6,,TRUE,TRUE,,,,,,-SN BR,SCT,2500,OVC,8000,,,,,IFR,,,,,,0.02,,,,,,METAR,782.0
KMCN 180753Z AUTO VRB04KT 9SM CLR 02/02 A3012 RMK AO2 SLP197 T00220022 TSNO $,KMCN,2014-12-18T07:53:00Z,32.68,-83.65,2.2,2.2,0,4,,9.0,30.121063,1019.7,,TRUE,TRUE,TRUE,,TRUE,,,,CLR,,,,,,,,VFR,,,,,,,,,,,,METAR,109.0
KMCO 180753Z 26003KT 10SM FEW250 09/08 A3014 RMK AO2 SLP205 T00940078,KMCO,2014-12-18T07:53:00Z,28.42,-81.33,9.4,7.8,260,3,,10.0,30.138779,1020.5,,,TRUE,,,,,,,FEW,25000,,,,,,,VFR,,,,,,,,,,,,METAR,29.0
KMDW 180753Z 33006KT 10SM OVC022 M03/M08 A3029 RMK AO2 SLP271 T10331083,KMDW,2014-12-18T07:53:00Z,41.78,-87.75,-3.3,-8.3,330,6,,10.0,30.28937,1027.1,,,TRUE,,,,,,,OVC,2200,,,,,,,MVFR,,,,,,,,,,,,METAR,188.0
KMFE 180753Z AUTO 16005KT 8SM SCT014 BKN040 OVC050 22/20 A3002 RMK AO2 SLP162 T02170200,KMFE,2014-12-18T07:53:00Z,26.18,-98.25,21.7,20.0,160,5,,8.0,30.02067,1016.2,,TRUE,TRUE,,,,,,,SCT,1400,BKN,4000,OVC,5000,,,VFR,,,,,,,,,,,,METAR,38.0
KMFR 180753Z AUTO 00000KT 7SM SCT011 OVC060 07/06 A2999 RMK AO2 RAE03 SLP159 P0000 T00720061 401060044,KMFR,2014-12-18T07:53:00Z,42.38,-122.87,7.2,6.1,0,0,,7.0,29.991142,1015.9,,TRUE,TRUE,,,,,,,SCT,1100,OVC,6000,,,,,VFR,,,,10.6,4.4,0.0050,,,,,,METAR,396.0
KMGM 180753Z AUTO 00000KT 9SM CLR 03/02 A3019 RMK AO2 SLP222 T00330017,KMGM,2014-12-18T07:53:00Z,32.3,-86.4,3.3,1.7,0,0,,9.0,30.188976,1022.2,,TRUE,TRUE,,,,,,,CLR,,,,,,,,VFR,,,,,,,,,,,,METAR,63.0
KMGW 180753Z AUTO 30005KT 10SM OVC026 M02/M09 A3018 RMK AO2 SLP233 T10171089 TSNO,KMGW,2014-12-18T07:53:00Z,39.65,-79.92,-1.7,-8.9,300,5,,10.0,30.180119,1023.3,,TRUE,TRUE,,,TRUE,,,,OVC,2600,,,,,,,MVFR,,,,,,,,,,,,METAR,378.0
KMGY 180753Z AUTO 28004KT 10SM OVC028 M03/M07 A3026 RMK AO2 SLP258 T10331067,KMGY,2014-12-18T07:53:00Z,39.6,-84.23,-3.3,-6.7,280,4,,10.0,30.259842,1025.8,,TRUE,TRUE,,,,,,,OVC,2800,,,,,,,MVFR,,,,,,,,,,,,METAR,289.0
KMHT 180753Z 28007KT 10SM -SN OVC060 03/M01 A2969 RMK AO2 RAB34E39SNB52 SLP071 P0000 T00331006,KMHT,2014-12-18T07:53:00Z,42.93,-71.43,3.3,-0.6,280,7,,10.0,29.68996,1007.1,,,TRUE,,,,,,-SN,OVC,6000,,,,,,,VFR,,,,,,0.0050,,,,,,METAR,81.0
KMIA 180753Z 29004KT 10SM SCT065 18/12 A3015 RMK AO2 SLP208 T01780122,KMIA,2014-12-18T07:53:00Z,25.8,-80.28,17.8,12.2,290,4,,10.0,30.15059,1020.8,,,TRUE,,,,,,,SCT,6500,,,,,,,VFR,,,,,,,,,,,,METAR,3.0
KMIE 180753Z AUTO 24003KT 10SM OVC025 M03/M07 A3027 RMK AO2 SLP259 T10331072,KMIE,2014-12-18T07:53:00Z,40.23,-85.4,-3.3,-7.2,240,3,,10.0,30.268702,1025.9,,TRUE,TRUE,,,,,,,OVC,2500,,,,,,,MVFR,,,,,,,,,,,,METAR,285.0
KMIW 180753Z AUTO 02005KT 10SM CLR M11/M12 A3028 RMK AO2 SLP271 I1000 T11061117 $,KMIW,2014-12-18T07:53:00Z,42.12,-92.92,-10.6,-11.7,20,5,,10.0,30.280512,1027.1,,TRUE,TRUE,TRUE,,,,,,CLR,,,,,,,,VFR,,,,,,,,,,,,METAR,296.0
KMKL 180753Z AUTO 04004KT 6SM -RA BR OVC070 02/01 A3028 RMK AO2 RAE25B45UPB25E45 SLP255 P0006 T00220006,KMKL,2014-12-18T07:53:00Z,35.6,-88.92,2.2,0.6,40,4,,6.0,30.280512,1025.5,,TRUE,TRUE,,,,,,-RA BR,OVC,7000,,,,,,,VFR,,,,,,0.06,,,,,,METAR,128.0
KMKO 180753Z AUTO 14006KT 10SM OVC011 02/01 A3019 RMK AO2 SLP226 T00220006,KMKO,2014-12-18T07:53:00Z,35.65,-95.37,2.2,0.6,140,6,,10.0,30.188976,1022.6,,TRUE,TRUE,,,,,,,OVC,1100,,,,,,,MVFR,,,,,,,,,,,,METAR,185.0
KMLB 180753Z AUTO 27006KT 10SM CLR 11/08 A3012 RMK AO2 SLP200 T01060083,KMLB,2014-12-18T07:53:00Z,28.1,-80.65,10.6,8.3,270,6,,10.0,30.121063,1020.0,,TRUE,TRUE,,,,,,,CLR,,,,,,,,VFR,,,,,,,,,,,,METAR,11.0
KMLC 180753Z AUTO VRB03KT 10SM OVC006 04/03 A3015 RMK AO2 SLP212 T00440033,KMLC,2014-12-18T07:53:00Z,34.88,-95.78,4.4,3.3,0,3,,10.0,30.15059,1021.2,,TRUE,TRUE,,,,,,,OVC,600,,,,,,,IFR,,,,,,,,,,,,METAR,232.0
KMLP 180753Z AUTO 00000KT 1 1/2SM BR OVC002 M03/M03 A2989 RMK AO2 VIS 1V5 SNE31 SLP150 P0000 T10281028 410111039,KMLP,2014-12-18T07:53:00Z,47.45,-115.67,-2.8,-2.8,0,0,,1.5,29.890747,1015.0,,TRUE,TRUE,,,,,,BR,OVC,200,,,,,,,LIFR,,,,-1.1,-3.9,0.0050,,,,,,METAR,1837.0
KMLS 180753Z AUTO 08003KT 10SM FEW019 OVC026 M04/M06 A2995 RMK AO2 SLP173 T10391056,KMLS,2014-12-18T07:53:00Z,46.43,-105.88,-3.9,-5.6,80,3,,10.0,29.949802,1017.3,,TRUE,TRUE,,,,,,,FEW,1900,OVC,2600,,,,,MVFR,,,,,,,,,,,,METAR,801.0
KMLU 180753Z AUTO 05007KT 10SM OVC043 07/05 A3023 RMK AO2 RAB15E30 SLP235 P0000 T00720050,KMLU,2014-12-18T07:53:00Z,32.52,-92.03,7.2,5.0,50,7,,10.0,30.230314,1023.5,,TRUE,TRUE,,,,,,,OVC,4300,,,,,,,VFR,,,,,,0.0050,,,,,,METAR,29.0
KMMK 180753Z AUTO 30004KT 10SM FEW040 BKN070 OVC095 04/M02 A2983 RMK AO2 SLP101 T00391017 TSNO,KMMK,2014-12-18T07:53:00Z,41.52,-72.83,3.9,-1.7,300,4,,10.0,29.828741,1010.1,,TRUE,TRUE,,,TRUE,,,,FEW,4000,BKN,7000,OVC,9500,,,VFR,,,,,,,,,,,,METAR,31.0
KMMV 180753Z AUTO 14004KT 10SM SCT014 OVC048 08/07 A2999 RMK AO2 SLP153 T00830072 400890039,KMMV,2014-12-18T07:53:00Z,45.2,-123.13,8.3,7.2,140,4,,10.0,29.991142,1015.3,,TRUE,TRUE,,,,,,,SCT,1400,OVC,4800,,,,,VFR,,,,8.9,3.9,,,,,,,METAR,48.0
KMNN 180753Z AUTO 31008KT 10SM OVC019 M03/M07 A3023 RMK AO2 SLP249 T10281072 TSNO,KMNN,2014-12-18T07:53:00Z,40.62,-83.07,-2.8,-7.2,310,8,,10.0,30.230314,1024.9,,TRUE,TRUE,,,TRUE,,,,OVC,1900,,,,,,,MVFR,,,,,,,,,,,,METAR,301.0
KMOD 180753Z AUTO 13005KT 10SM BKN046 OVC065 11/09 A3012 RMK AO2 RAE14 SLP198 P0000 T01110094 401560072,KMOD,2014-12-18T07:53:00Z,37.62,-120.95,11.1,9.4,130,5,,10.0,30.121063,1019.8,,TRUE,TRUE,,,,,,,BKN,4600,OVC,6500,,,,,VFR,,,,15.6,7.2,0.0050,,,,,,METAR,29.0
KMPO 180753Z AUTO 29013G18KT 6SM -SN SCT031 BKN075 M02/M06 A2988 RMK AO2 SNE27B42 SLP134 P0000 T10171061,KMPO,2014-12-18T07:53:00Z,41.13,-75.38,-1.7,-6.1,290,13,18,6.0,29.878937,1013.4,,TRUE,TRUE,,,,,,-SN,SCT,3100,BKN,7500,,,,,VFR,,,,,,0.0050,,,,,,METAR,577.0
KMRB 180753Z AUTO 33009KT 10SM OVC043 02/M08 A3010 RMK AO2 SLP196 T00221083 TSNO,KMRB,2014-12-18T07:53:00Z,39.4,-77.98,2.2,-8.3,330,9,,10.0,30.100393,1019.6,,TRUE,TRUE,,,TRUE,,,,OVC,4300,,,,,,,VFR,,,,,,,,,,,,METAR,164.0
KMSL 180753Z AUTO 01004KT 10SM BKN085 04/M01 A3026 RMK AO2 SLP248 T00441006,KMSL,2014-12-18T07:53:00Z,34.75,-87.6,4.4,-0.6,10,4,,10.0,30.259842,1024.8,,TRUE,TRUE,,,,,,,BKN,8500,,,,,,,VFR,,,,,,,,,,,,METAR,164.0
KMSN 180753Z AUTO 00000KT 10SM CLR M08/M11 A3027 RMK AO2 SLP266 T10831106,KMSN,2014-12-18T07:53:00Z,43.13,-89.35,-8.3,-10.6,0,0,,10.0,30.268702,1026.6,,TRUE,TRUE,,,,,,,CLR,,,,,,,,VFR,,,,,,,,,,,,METAR,261.0
KSIY 180753Z AUTO 03006KT 10SM OVC055 04/04 A3001 RMK AO2 RAE53 SLP179 P0000 T00440039 400890000,KSIY,2014-12-18T07:53:00Z,41.77,-122.47,4.4,3.9,30,6,,10.0,30.008858,1017.9,,TRUE,TRUE,,,,,,,OVC,5500,,,,,,,VFR,,,,8.9,,0.0050,,,,,,METAR,807.0
KSHR 180753Z AUTO 17003KT 10SM CLR M11/M12 A2993 RMK AO2 SLP196 T11061122,KSHR,2014-12-18T07:53:00Z,44.77,-106.97,-10.6,-12.2,170,3,,10.0,29.929134,1019.6,,TRUE,TRUE,,,,,,,CLR,,,,,,,,VFR,,,,,,,,,,,,METAR,1202.0
KSAC 180753Z 13003KT 10SM -RA OVC060 11/09 A3011 RMK AO2 RAE0654B51 SLP196 P0000 T01110094 401390094,KSAC,2014-12-18T07:53:00Z,38.5,-121.5,11.1,9.4,130,3,,10.0,30.109253,1019.6,,,TRUE,,,,,,-RA,OVC,6000,,,,,,,VFR,,,,13.9,9.4,0.0050,,,,,,METAR,11.0
KHEY 180753Z AUTO 35004KT 10SM CLR 06/03 A3017 RMK AO2 SLP205 T00560033,KHEY,2014-12-18T07:53:00Z,31.35,-85.65,5.6,3.3,350,4,,10.0,30.171259,1020.5,,TRUE,TRUE,,,,,,,CLR,,,,,,,,VFR,,,,,,,,,,,,METAR,97.0
KIAB 180753Z AUTO 07008KT 3SM R19/4000FT -SN BR SCT004 OVC016 00/M01 A3014 RMK AO2 RAB0729E0745SNE0729B0745 CIG 004V016,KIAB,2014-12-18T07:53:00Z,37.62,-97.27,0.0,-1.0,70,8,,3.0,30.138779,,,TRUE,TRUE,,,,,,-SN BR,SCT,400,OVC,1600,,,,,MVFR,,,,,,,,,,,,SPECI,418.0
KHLR 180753Z AUTO 08005KT 1 3/4SM BR OVC003 08/08 A3010 RMK AO2,KHLR,2014-12-18T07:53:00Z,31.13,-97.72,8.0,8.0,80,5,,1.75,30.100393,,,TRUE,TRUE,,,,,,BR,OVC,300,,,,,,,LIFR,,,,,,,,,,,,SPECI,283.0
KGRF 180753Z AUTO 13004KT 6SM DZ BR FEW003 OVC009 06/06 A2993 RMK AO2,KGRF,2014-12-18T07:53:00Z,47.07,-122.57,6.0,6.0,130,4,,6.0,29.929134,,,TRUE,TRUE,,,,,,DZ BR,FEW,300,OVC,900,,,,,IFR,,,,,,,,,,,,SPECI,92.0
KCWN 180753Z AUTO 16003KT 1/8SM FG VV002 M01/M01 A2995 RMK AO2 SNE0656RAB0656E16SNB39E53,KCWN,2014-12-18T07:53:00Z,38.75,-104.85,-1.0,-1.0,160,3,,0.13,29.949802,,,TRUE,TRUE,,,,,,FG,OVX,0,,,,,,,LIFR,,,,,,,,,,,200,SPECI,2040.0
KPIL 180753Z AUTO 18007KT 7SM BKN046 OVC060 22/19 A3002 RMK AO2 SLP165 T02170194,KPIL,2014-12-18T07:53:00Z,26.17,-97.33,21.7,19.4,180,7,,7.0,30.02067,1016.5,,TRUE,TRUE,,,,,,,BKN,4600,OVC,6000,,,,,VFR,,,,,,,,,,,,METAR,5.0
KOTM 180753Z AUTO 00000KT 10SM OVC085 M06/M09 A3029 RMK AO2 SLP269 T10561094,KOTM,2014-12-18T07:53:00Z,41.1,-92.45,-5.6,-9.4,0,0,,10.0,30.28937,1026.9,,TRUE,TRUE,,,,,,,OVC,8500,,,,,,,VFR,,,,,,,,,,,,METAR,256.0
TIST 180753Z AUTO 02007G20KT 330V100 10SM FEW036 25/19 A2998 RMK AO2 SLP152 T02500189 TSNO,TIST,2014-12-18T07:53:00Z,18.33,-64.98,25.0,18.9,20,7,20,10.0,29.97933,1015.2,,TRUE,TRUE,,,TRUE,,,,FEW,3600,,,,,,,VFR,,,,,,,,,,,,METAR,7.0
KTXK 180753Z AUTO 04006KT 4SM -RA BR OVC004 03/03 A3021 RMK AO2 RAB29 SLP231 P0002 T00330028,KTXK,2014-12-18T07:53:00Z,33.45,-93.98,3.3,2.8,40,6,,4.0,30.209646,1023.1,,TRUE,TRUE,,,,,,-RA BR,OVC,400,,,,,,,LIFR,,,,,,0.02,,,,,,METAR,111.0
KTWF 180753Z AUTO 16005KT 10SM CLR 01/M05 A3003 RMK AO2 SLP167 T00061050,KTWF,2014-12-18T07:53:00Z,42.48,-114.48,0.6,-5.0,160,5,,10.0,30.029528,1016.7,,TRUE,TRUE,,,,,,,CLR,,,,,,,,VFR,,,,,,,,,,,,METAR,1266.0
KTVR 180753Z AUTO 02005KT 10SM FEW065 BKN085 OVC100 08/04 A3022 RMK AO2 SLP240 T00780039,KTVR,2014-12-18T07:53:00Z,32.35,-91.03,7.8,3.9,20,5,,10.0,30.221457,1024.0,,TRUE,TRUE,,,,,,,FEW,6500,BKN,8500,OVC,10000,,,VFR,,,,,,,,,,,,METAR,26.0
KTVL 180753Z AUTO 17005KT 10SM BKN075 00/M05 A3003 RMK AO2 SLP161 T00001050 400441022,KTVL,2014-12-18T07:53:00Z,38.9,-120.0,0.0,-5.0,170,5,,10.0,30.029528,1016.1,,TRUE,TRUE,,,,,,,BKN,7500,,,,,,,VFR,,,,4.4,-2.2,,,,,,,METAR,1924.0
KTVC 180753Z AUTO 34007KT 9SM OVC013 M01/M04 A3019 RMK AO2 SNB43E52 SLP231 P0000 T10111039,KTVC,2014-12-18T07:53:00Z,44.73,-85.57,-1.1,-3.9,340,7,,9.0,30.188976,1023.1,,TRUE,TRUE,,,,,,,OVC,1300,,,,,,,MVFR,,,,,,0.0050,,,,,,METAR,190.0
KTUS 180753Z 15003KT 6SM BR BKN065 08/07 A3014 RMK AO2 SLP190 T00830072 $,KTUS,2014-12-18T07:53:00Z,32.13,-110.95,8.3,7.2,150,3,,6.0,30.138779,1019.0,,,TRUE,TRUE,,,,,BR,BKN,6500,,,,,,,VFR,,,,,,,,,,,,METAR,776.0
KTUL 180753Z 10005KT 5SM -DZ BR OVC009 03/02 A3018 RMK AO2 DZB47 SLP222 P0000 T00280017,KTUL,2014-12-18T07:53:00Z,36.2,-95.88,2.8,1.7,100,5,,5.0,30.180119,1022.2,,,TRUE,,,,,,-DZ BR,OVC,900,,,,,,,IFR,,,,,,0.0050,,,,,,METAR,207.0
KTTN 180753Z AUTO 30011G22KT 10SM FEW041 BKN070 03/M06 A2995 RMK AO2 SLP139 T00281056,KTTN,2014-12-18T07:53:00Z,40.28,-74.82,2.8,-5.6,300,11,22,10.0,29.949802,1013.9,,TRUE,TRUE,,,,,,,FEW,4100,BKN,7000,,,,,VFR,,,,,,,,,,,,METAR,59.0
KTTD 180753Z AUTO 09012KT 10SM FEW045 BKN055 OVC075 06/03 A2999 RMK AO2 RAB41E53 SLP154 P0000 T00610033 400780061,KTTD,2014-12-18T07:53:00Z,45.55,-122.42,6.1,3.3,90,12,,10.0,29.991142,1015.4,,TRUE,TRUE,,,,,,,FEW,4500,BKN,5500,OVC,7500,,,VFR,,,,7.8,6.1,0.0050,,,,,,METAR,14.0
KTRL 180753Z AUTO 09009KT 10SM FEW005 OVC022 06/04 A3014 RMK AO2 RAE06 SLP207 P0000 T00610044,KTRL,2014-12-18T07:53:00Z,32.72,-96.27,6.1,4.4,90,9,,10.0,30.138779,1020.7,,TRUE,TRUE,,,,,,,FEW,500,OVC,2200,,,,,MVFR,,,,,,0.0050,,,,,,METAR,145.0
KTRI 180753Z 36003KT 10SM CLR M03/M04 A3019 RMK AO2 SLP221 T10281039,KTRI,2014-12-18T07:53:00Z,36.48,-82.4,-2.8,-3.9,360,3,,10.0,30.188976,1022.1,,,TRUE,,,,,,,CLR,,,,,,,,VFR,,,,,,,,,,,,METAR,474.0
KTPA 180753Z 00000KT 10SM FEW280 10/08 A3016 RMK AO2 SLP213 T01000078,KTPA,2014-12-18T07:53:00Z,27.97,-82.53,10.0,7.8,0,0,,10.0,30.159449,1021.3,,,TRUE,,,,,,,FEW,28000,,,,,,,VFR,,,,,,,,,,,,METAR,11.0
KTOR 180753Z AUTO 00000KT 1/4SM FZFG VV002 M12/M12 A2999 RMK AO2 SLP210 T11171122,KTOR,2014-12-18T07:53:00Z,42.07,-104.15,-11.7,-12.2,0,0,,0.25,29.991142,1021.0,,TRUE,TRUE,,,,,,FZFG,OVX,0,,,,,,,LIFR,,,,,,,,,,,200,METAR,1277.0
KTOP 180753Z AUTO 07004KT 1 1/4SM -SN BR OVC025 M02/M03 A3023 RMK AO2 SLP245 P0002 T10171028,KTOP,2014-12-18T07:53:00Z,39.07,-95.63,-1.7,-2.8,70,4,,1.25,30.230314,1024.5,,TRUE,TRUE,,,,,,-SN BR,OVC,2500,,,,,,,IFR,,,,,,0.02,,,,,,METAR,268.0
KTOI 180753Z AUTO 00000KT 10SM CLR 03/02 A3017 RMK AO2 SLP215 T00330022,KTOI,2014-12-18T07:53:00Z,31.85,-86.02,3.3,2.2,0,0,,10.0,30.171259,1021.5,,TRUE,TRUE,,,,,,,CLR,,,,,,,,VFR,,,,,,,,,,,,METAR,118.0
KTMB 180753Z 30004KT 10SM BKN050 14/12 A3015 RMK AO2 SLP209 T01390122,KTMB,2014-12-18T07:53:00Z,25.65,-80.43,13.9,12.2,300,4,,10.0,30.15059,1020.9,,,TRUE,,,,,,,BKN,5000,,,,,,,VFR,,,,,,,,,,,,METAR,2.0
KTLH 180753Z AUTO 00000KT 10SM CLR 04/02 A3015 RMK AO2 SLP210 T00440017 $,KTLH,2014-12-18T07:53:00Z,30.4,-84.35,4.4,1.7,0,0,,10.0,30.15059,1021.0,,TRUE,TRUE,TRUE,,,,,,CLR,,,,,,,,VFR,,,,,,,,,,,,METAR,19.0
KTKI 180753Z AUTO 12004KT 5SM BR OVC004 04/04 A3014 RMK AO2 SLP218 T00440039,KTKI,2014-12-18T07:53:00Z,33.18,-96.58,4.4,3.9,120,4,,5.0,30.138779,1021.8,,TRUE,TRUE,,,,,,BR,OVC,400,,,,,,,LIFR,,,,,,,,,,,,METAR,179.0
KTIW 180753Z AUTO 19006KT 4SM -RA BR OVC004 07/06 A2993 RMK AO2 CIG 002V007 SLP136 P0002 T00720061 400780039,KTIW,2014-12-18T07:53:00Z,47.27,-122.58,7.2,6.1,190,6,,4.0,29.929134,1013.6,,TRUE,TRUE,,,,,,-RA BR,OVC,400,,,,,,,LIFR,,,,7.8,3.9,0.02,,,,,,METAR,89.0
KTHV 180753Z AUTO 30014G19KT 10SM OVC048 02/M06 A3005 RMK AO2 SLP182 T00171056,KTHV,2014-12-18T07:53:00Z,39.92,-76.88,1.7,-5.6,300,14,19,10.0,30.050198,1018.2,,TRUE,TRUE,,,,,,,OVC,4800,,,,,,,VFR,,,,,,,,,,,,METAR,144.0
KTDZ 180753Z AUTO 27008KT 10SM BKN030 OVC045 M02/M07 A3022 RMK AO2 SLP242 T10171067 TSNO,KTDZ,2014-12-18T07:53:00Z,41.57,-83.48,-1.7,-6.7,270,8,,10.0,30.221457,1024.2,,TRUE,TRUE,,,TRUE,,,,BKN,3000,OVC,4500,,,,,MVFR,,,,,,,,,,,,METAR,189.0
KTCL 180753Z AUTO 00000KT 9SM CLR 02/01 A3023 RMK AO2 SLP237 T00220006,KTCL,2014-12-18T07:53:00Z,33.22,-87.62,2.2,0.6,0,0,,9.0,30.230314,1023.7,,TRUE,TRUE,,,,,,,CLR,,,,,,,,VFR,,,,,,,,,,,,METAR,49.0
KTCC 180753Z AUTO 05003KT 10SM CLR 00/M02 A2998 RMK AO2 SLP143 T00001022,KTCC,2014-12-18T07:53:00Z,35.18,-103.6,0.0,-2.2,50,3,,10.0,29.97933,1014.3,,TRUE,TRUE,,,,,,,CLR,,,,,,,,VFR,,,,,,,,,,,,METAR,1235.0
KSTS 180753Z AUTO 09004KT 7SM -RA OVC019 10/09 A3005 RMK AO2 RAE10B44 SLP169 P0001 T01000089 401330083,KSTS,2014-12-18T07:53:00Z,38.5,-122.82,10.0,8.9,90,4,,7.0,30.050198,1016.9,,TRUE,TRUE,,,,,,-RA,OVC,1900,,,,,,,MVFR,,,,13.3,8.3,0.01,,,,,,METAR,39.0
KSTP 180753Z AUTO 32003KT 10SM OVC026 M11/M13 A3035 RMK AO2 SLP288 T11061128,KSTP,2014-12-18T07:53:00Z,44.93,-93.05,-10.6,-12.8,320,3,,10.0,30.351377,1028.8,,TRUE,TRUE,,,,,,,OVC,2600,,,,,,,MVFR,,,,,,,,,,,,METAR,219.0
KSTJ 180753Z AUTO 08004KT 9SM OVC050 M02/M04 A3025 RMK AO2 SNE48 SLP252 P0000 T10171044,KSTJ,2014-12-18T07:53:00Z,39.77,-94.92,-1.7,-4.4,80,4,,9.0,30.250984,1025.2,,TRUE,TRUE,,,,,,,OVC,5000,,,,,,,VFR,,,,,,0.0050,,,,,,METAR,247.0
KZZV 180753Z AUTO 30008KT 10SM OVC022 M03/M08 A3023 RMK AO2 SLP246 T10281078,KZZV,2014-12-18T07:53:00Z,39.95,-81.9,-2.8,-7.8,300,8,,10.0,30.230314,1024.6,,TRUE,TRUE,,,,,,,OVC,2200,,,,,,,MVFR,,,,,,,,,,,,METAR,268.0
KYKM 180753Z AUTO 00000KT 7SM BKN014 OVC023 04/02 A2998 RMK AO2 SLP160 T00440022 400610028,KYKM,2014-12-18T07:53:00Z,46.57,-120.53,4.4,2.2,0,0,,7.0,29.97933,1016.0,,TRUE,TRUE,,,,,,,BKN,1400,OVC,2300,,,,,MVFR,,,,6.1,2.8,,,,,,,METAR,324.0
KYIP 180753Z AUTO 27012KT 10SM OVC024 00/M06 A3019 RMK AO2 SLP229 T00001061 TSNO,KYIP,2014-12-18T07:53:00Z,42.23,-83.53,0.0,-6.1,270,12,,10.0,30.188976,1022.9,,TRUE,TRUE,,,TRUE,,,,OVC,2400,,,,,,,MVFR,,,,,,,,,,,,METAR,215.0
KXNA 180753Z AUTO 11005KT 10SM OVC025 03/ A3014 RMK AO2 SLP212 T0028 $,KXNA,2014-12-18T07:53:00Z,36.28,-94.3,2.8,,110,5,,10.0,30.138779,1021.2,,TRUE,TRUE,TRUE,,,,,,OVC,2500,,,,,,,MVFR,,,,,,,,,,,,METAR,392.0
KWVI 180753Z AUTO 34003KT 7SM -RA OVC035 11/10 A3009 RMK AO2 RAE22B44 SLP190 P0001 T01110100 401560078,KWVI,2014-12-18T07:53:00Z,36.93,-121.78,11.1,10.0,340,3,,7.0,30.088583,1019.0,,TRUE,TRUE,,,,,,-RA,OVC,3500,,,,,,,VFR,,,,15.6,7.8,0.01,,,,,,METAR,43.0
KWST 180753Z AUTO 24005KT 10SM BKN065 03/M01 A2980 RMK AO2 SLP090 T00281006,KWST,2014-12-18T07:53:00Z,41.35,-71.8,2.8,-0.6,240,5,,10.0,29.799213,1009.0,,TRUE,TRUE,,,,,,,BKN,6500,,,,,,,VFR,,,,,,,,,,,,METAR,21.0
KWRL 180753Z AUTO 00000KT 10SM CLR M18/M19 A2999 RMK AO2 SLP235 T11781194,KWRL,2014-12-18T07:53:00Z,43.97,-107.95,-17.8,-19.4,0,0,,10.0,29.991142,1023.5,,TRUE,TRUE,,,,,,,CLR,,,,,,,,VFR,,,,,,,,,,,,METAR,1271.0
KVUO 180753Z AUTO 11007KT 10SM OVC015 07/04 A2998 RMK AO2 SLP154 T00720044 400830011,KVUO,2014-12-18T07:53:00Z,45.62,-122.65,7.2,4.4,110,7,,10.0,29.97933,1015.4,,TRUE,TRUE,,,,,,,OVC,1500,,,,,,,MVFR,,,,8.3,1.1,,,,,,,METAR,8.0
KVRB 180753Z AUTO 25004KT 10SM CLR 13/11 A3012 RMK AO2 SLP199 T01280111,KVRB,2014-12-18T07:53:00Z,27.65,-80.42,12.8,11.1,250,4,,10.0,30.121063,1019.9,,TRUE,TRUE,,,,,,,CLR,,,,,,,,VFR,,,,,,,,,,,,METAR,10.0
KVPC 180753Z AUTO 00000KT 10SM CLR 02/M01 A3018 RMK AO2 SLP219 T00171006,KVPC,2014-12-18T07:53:00Z,34.13,-84.85,1.7,-0.6,0,0,,10.0,30.180119,1021.9,,TRUE,TRUE,,,,,,,CLR,,,,,,,,VFR,,,,,,,,,,,,METAR,222.0
KVLD 180753Z AUTO 00000KT 4SM BR CLR 04/03 A3015 RMK AO2 SLP217 T00390033 $,KVLD,2014-12-18T07:53:00Z,30.78,-83.27,3.9,3.3,0,0,,4.0,30.15059,1021.7,,TRUE,TRUE,TRUE,,,,,BR,CLR,,,,,,,,MVFR,,,,,,,,,,,,METAR,62.0
KVGT 180753Z AUTO 07004KT 10SM SCT065 BKN080 OVC100 09/06 A3008 RMK AO2 SLP205 T00890061 401110072 TSNO,KVGT,2014-12-18T07:53:00Z,36.22,-115.2,8.9,6.1,70,4,,10.0,30.079725,1020.5,,TRUE,TRUE,,,TRUE,,,,SCT,6500,BKN,8000,OVC,10000,,,VFR,,,,11.1,7.2,,,,,,,METAR,671.0
KVEL 180753Z AUTO 12003KT 5SM BR OVC003 M04/M04 A3009 RMK AO2 CIG 003V007 SLP226 T10391044,KVEL,2014-12-18T07:53:00Z,40.45,-109.52,-3.9,-4.4,120,3,,5.0,30.088583,1022.6,,TRUE,TRUE,,,,,,BR,OVC,300,,,,,,,LIFR,,,,,,,,,,,,METAR,1604.0
KVCB 180753Z AUTO 00000KT 10SM OVC035 11/09 A3011 RMK AO2 SLP195 T01060089 401500083 TSNO,KVCB,2014-12-18T07:53:00Z,38.38,-121.95,10.6,8.9,0,0,,10.0,30.109253,1019.5,,TRUE,TRUE,,,TRUE,,,,OVC,3500,,,,,,,VFR,,,,15.0,8.3,,,,,,,METAR,33.0
KUUU 180753Z AUTO 28007KT 10SM OVC055 03/M01 A2976 RMK AO2 SLP076 T00331011,KUUU,2014-12-18T07:53:00Z,41.53,-71.28,3.3,-1.1,280,7,,10.0,29.760826,1007.6,,TRUE,TRUE,,,,,,,OVC,5500,,,,,,,VFR,,,,,,,,,,,,METAR,51.0
KUTS 180753Z AUTO 00000KT 9SM -RA OVC012 13/09 A3010 RMK AO2 RAB50 SLP190 P0000 T01280094,KUTS,2014-12-18T07:53:00Z,30.75,-95.58,12.8,9.4,0,0,,9.0,30.100393,1019.0,,TRUE,TRUE,,,,,,-RA,OVC,1200,,,,,,,MVFR,,,,,,0.0050,,,,,,METAR,104.0
KUNO 180753Z AUTO 12003KT 6SM BR BKN004 OVC027 01/M01 A3022 RMK AO2 UPE42RAB0656E06SNB28E39 CIG 003V008 SLP241 P0001 T00061006,KUNO,2014-12-18T07:53:00Z,36.88,-91.9,0.6,-0.6,120,3,,6.0,30.221457,1024.1,,TRUE,TRUE,,,,,,BR,BKN,400,OVC,2700,,,,,LIFR,,,,,,0.01,,,,,,METAR,372.0
KUIL 180753Z AUTO 00000KT 8SM FEW017 BKN026 OVC050 07/07 A2989 RMK AO2 SLP123 T00720067 400940067,KUIL,2014-12-18T07:53:00Z,47.93,-124.55,7.2,6.7,0,0,,8.0,29.890747,1012.3,,TRUE,TRUE,,,,,,,FEW,1700,BKN,2600,OVC,5000,,,MVFR,,,,9.4,6.7,,,,,,,METAR,54.0
KUAO 180753Z AUTO 00000KT 10SM BKN042 OVC050 08/07 A2999 RMK AO2 RAB0658E09 SLP156 P0001 T00780067 400940039,KUAO,2014-12-18T07:53:00Z,45.25,-122.77,7.8,6.7,0,0,,10.0,29.991142,1015.6,,TRUE,TRUE,,,,,,,BKN,4200,OVC,5000,,,,,VFR,,,,9.4,3.9,0.01,,,,,,METAR,59.0
KTYS 180753Z 00000KT 10SM FEW150 SCT250 01/M02 A3022 RMK AO2 SLP236 T00061022,KTYS,2014-12-18T07:53:00Z,35.82,-83.98,0.6,-2.2,0,0,,10.0,30.221457,1023.6,,,TRUE,,,,,,,FEW,15000,SCT,25000,,,,,VFR,,,,,,,,,,,,METAR,302.0
KTYR 180753Z 04006KT 7SM -RA OVC004 07/05 A3015 RMK AO2 RAB51 SLP210 P0000 T00670050,KTYR,2014-12-18T07:53:00Z,32.37,-95.4,6.7,5.0,40,6,,7.0,30.15059,1021.0,,,TRUE,,,,,,-RA,OVC,400,,,,,,,LIFR,,,,,,0.0050,,,,,,METAR,165.0
KY70 180753Z AUTO 28008KT 10SM OVC021 M01/M04 A3019 RMK AO2 T10101040,KY70,2014-12-18T07:53:00Z,42.93,-85.07,-1.0,-4.0,280,8,,10.0,30.188976,,,TRUE,TRUE,,,,,,,OVC,2100,,,,,,,MVFR,,,,,,,,,,,,METAR,250.0
KVVV 180753Z AUTO 00000KT 10SM CLR M14/M17 A3029 RMK AO2,KVVV,2014-12-18T07:53:00Z,45.3,-96.42,-14.0,-17.0,0,0,,10.0,30.28937,,,TRUE,TRUE,,,,,,,CLR,,,,,,,,VFR,,,,,,,,,,,,METAR,335.0
KULM 180753Z AUTO 00000KT 5SM -SN OVC013 M09/M10 A3030 RMK AO2,KULM,2014-12-18T07:53:00Z,44.32,-94.5,-9.0,-10.0,0,0,,5.0,30.301182,,,TRUE,TRUE,,,,,,-SN,OVC,1300,,,,,,,MVFR,,,,,,,,,,,,METAR,308.0
KTEW 180753Z AUTO 28010KT 10SM OVC023 M02/M06 A3018 RMK AO2 T10211056,KTEW,2014-12-18T07:53:00Z,42.57,-84.42,-2.1,-5.6,280,10,,10.0,30.180119,,,TRUE,TRUE,,,,,,,OVC,2300,,,,,,,MVFR,,,,,,,,,,,,METAR,280.0
KPCW 180753Z AUTO 26010KT 240V300 10SM OVC034 M01/M05 A3021 RMK AO2,KPCW,2014-12-18T07:53:00Z,41.52,-82.87,-1.0,-5.0,260,10,,10.0,30.209646,,,TRUE,TRUE,,,,,,,OVC,3400,,,,,,,VFR,,,,,,,,,,,,METAR,178.0
KMWM 180753Z AUTO 00000KT 10SM M15/M16 A3027 RMK AO2,KMWM,2014-12-18T07:53:00Z,43.9,-95.1,-15.0,-16.0,0,0,,10.0,30.268702,,,TRUE,TRUE,,,,,,,,,,,,,,,,,,,,,,,,,,,METAR,430.0
KMVE 180753Z AUTO 00000KT 10SM CLR M15/M16 A3031 RMK AO2,KMVE,2014-12-18T07:53:00Z,44.97,-95.72,-15.0,-16.0,0,0,,10.0,30.31004,,,TRUE,TRUE,,,,,,,CLR,,,,,,,,VFR,,,,,,,,,,,,METAR,315.0
KMRT 180753Z AUTO 33008KT 10SM OVC021 M03/M07 A3024 RMK AO2 T10301074,KMRT,2014-12-18T07:53:00Z,40.22,-83.35,-3.0,-7.4,330,8,,10.0,30.239174,,,TRUE,TRUE,,,,,,,OVC,2100,,,,,,,MVFR,,,,,,,,,,,,METAR,312.0
KMOX 180753Z AUTO 09005KT 10SM CLR M14/M16 A3027 RMK AO2,KMOX,2014-12-18T07:53:00Z,45.57,-95.97,-14.0,-16.0,90,5,,10.0,30.268702,,,TRUE,TRUE,,,,,,,CLR,,,,,,,,VFR,,,,,,,,,,,,METAR,344.0
KMJQ 180753Z AUTO 00000KT 10SM SCT110 M12/M14 A3027 RMK AO2,KMJQ,2014-12-18T07:53:00Z,43.63,-94.97,-12.0,-14.0,0,0,,10.0,30.268702,,,TRUE,TRUE,,,,,,,SCT,11000,,,,,,,VFR,,,,,,,,,,,,METAR,441.0
KLJF 180753Z AUTO 00000KT 10SM CLR M12/M12 A3031 RMK AO2,KLJF,2014-12-18T07:53:00Z,45.1,-94.52,-12.0,-12.0,0,0,,10.0,30.31004,,,TRUE,TRUE,,,,,,,CLR,,,,,,,,VFR,,,,,,,,,,,,METAR,348.0
KHCD 180753Z AUTO 00000KT 10SM BKN016 M11/M12 A3031 RMK AO2 T11111124,KHCD,2014-12-18T07:53:00Z,44.87,-94.38,-11.1,-12.4,0,0,,10.0,30.31004,,,TRUE,TRUE,,,,,,,BKN,1600,,,,,,,MVFR,,,,,,,,,,,,METAR,323.0
KGHW 180753Z AUTO 09003KT 10SM CLR M13/M14 A3028 RMK AO2,KGHW,2014-12-18T07:53:00Z,45.63,-95.32,-13.0,-14.0,90,3,,10.0,30.280512,,,TRUE,TRUE,,,,,,,CLR,,,,,,,,VFR,,,,,,,,,,,,METAR,425.0
KFOZ 180753Z AUTO 00000KT 10SM CLR M18/M20 A3030 RMK AO2,KFOZ,2014-12-18T07:53:00Z,47.77,-93.65,-18.0,-20.0,0,0,,10.0,30.301182,,,TRUE,TRUE,,,,,,,CLR,,,,,,,,VFR,,,,,,,,,,,,METAR,411.0
KDYT 180753Z AUTO 00000KT 10SM OVC021 M06/M08 A3035 RMK AO2,KDYT,2014-12-18T07:53:00Z,46.72,-92.03,-6.0,-8.0,0,0,,10.0,30.351377,,,TRUE,TRUE,,,,,,,OVC,2100,,,,,,,MVFR,,,,,,,,,,,,METAR,186.0
KDXX 180753Z AUTO 00000KT 10SM CLR M14/M16 A3030 RMK AO2,KDXX,2014-12-18T07:53:00Z,44.98,-96.18,-14.0,-16.0,0,0,,10.0,30.301182,,,TRUE,TRUE,,,,,,,CLR,,,,,,,,VFR,,,,,,,,,,,,METAR,330.0
KD95 180753Z AUTO 28009KT 7SM OVC010 M02/M03 A3016 RMK AO2 T10211031,KD95,2014-12-18T07:53:00Z,43.07,-83.27,-2.1,-3.1,280,9,,7.0,30.159449,,,TRUE,TRUE,,,,,,,OVC,1000,,,,,,,MVFR,,,,,,,,,,,,METAR,255.0
K9MN 180753Z AUTO 00000KT 10SM CLR M09/M12 A3029 RMK AO1 T10951120,K9MN,2014-12-18T07:53:00Z,44.02,-92.48,-9.5,-12.0,0,0,,10.0,30.28937,,,TRUE,TRUE,,,,,,,CLR,,,,,,,,VFR,,,,,,,,,,,,METAR,355.0
KN60 180752Z AUTO 14007KT M08/M10 A3010 RMK AO1 SLP228 T10831100,KN60,2014-12-18T07:52:00Z,47.65,-101.43,-8.3,-10.0,140,7,,,30.100393,1022.8,,TRUE,TRUE,,,,,,,,,,,,,,,,,,,,,,,,,,,METAR,582.0
KPWK 180752Z AUTO 33004KT 10SM CLR M07/M10 A3030 RMK AO2 SLP271 T10671100,KPWK,2014-12-18T07:52:00Z,42.12,-87.9,-6.7,-10.0,330,4,,10.0,30.301182,1027.1,,TRUE,TRUE,,,,,,,CLR,,,,,,,,VFR,,,,,,,,,,,,METAR,203.0
KORE 180752Z AUTO 28007KT 10SM BKN060 OVC080 02/M02 A2974 RMK AO2 SLP076 T00221022,KORE,2014-12-18T07:52:00Z,42.57,-72.28,2.2,-2.2,280,7,,10.0,29.740158,1007.6,,TRUE,TRUE,,,,,,,BKN,6000,OVC,8000,,,,,VFR,,,,,,,,,,,,METAR,164.0
KOMA 180752Z 10004KT 10SM OVC080 M02/M06 A3026 RMK AO2 SLP257 T10221061,KOMA,2014-12-18T07:52:00Z,41.32,-95.9,-2.2,-6.1,100,4,,10.0,30.259842,1025.7,,,TRUE,,,,,,,OVC,8000,,,,,,,VFR,,,,,,,,,,,,METAR,312.0
KOKC 180752Z 16007KT 1 1/4SM R35R/5500VP6000FT -DZ BR OVC002 04/03 A3010 RMK AO2 TWR VIS 3 SLP198 P0000 T00390028,KOKC,2014-12-18T07:52:00Z,35.38,-97.6,3.9,2.8,160,7,,1.25,30.100393,1019.8,,,TRUE,,,,,,-DZ BR,OVC,200,,,,,,,LIFR,,,,,,0.0050,,,,,,METAR,390.0
KOKB 180752Z AUTO 05003KT 10SM CLR 09/07 A3011 RMK AO2 SLP197 T00890072 401780089,KOKB,2014-12-18T07:52:00Z,33.22,-117.35,8.9,7.2,50,3,,10.0,30.109253,1019.7,,TRUE,TRUE,,,,,,,CLR,,,,,,,,VFR,,,,17.8,8.9,,,,,,,METAR,8.0
KMWH 180752Z AUTO 22003KT 10SM OVC015 02/02 A2998 RMK AO2 SLP162 T00220017 400500011,KMWH,2014-12-18T07:52:00Z,47.2,-119.32,2.2,1.7,220,3,,10.0,29.97933,1016.2,,TRUE,TRUE,,,,,,,OVC,1500,,,,,,,MVFR,,,,5.0,1.1,,,,,,,METAR,362.0
KMLI 180752Z AUTO 20004KT 10SM CLR M08/M11 A3031 RMK AO2 SLP274 T10831106 $,KMLI,2014-12-18T07:52:00Z,41.45,-90.52,-8.3,-10.6,200,4,,10.0,30.31004,1027.4,,TRUE,TRUE,TRUE,,,,,,CLR,,,,,,,,VFR,,,,,,,,,,,,METAR,184.0
KMKE 180752Z 29007KT 10SM CLR M07/M11 A3027 RMK AO2 SLP262 T10671106,KMKE,2014-12-18T07:52:00Z,42.95,-87.9,-6.7,-10.6,290,7,,10.0,30.268702,1026.2,,,TRUE,,,,,,,CLR,,,,,,,,VFR,,,,,,,,,,,,METAR,206.0
KMHK 180752Z AUTO 06006KT 1 3/4SM -SN BR SCT022 OVC038 M03/M03 A3020 RMK AO2 SLP239 P0000 T10281033 TSNO,KMHK,2014-12-18T07:52:00Z,39.13,-96.68,-2.8,-3.3,60,6,,1.75,30.200787,1023.9,,TRUE,TRUE,,,TRUE,,,-SN BR,SCT,2200,OVC,3800,,,,,IFR,,,,,,0.0050,,,,,,METAR,317.0
KMFD 180752Z 29008G15KT 10SM OVC016 M03/M07 A3019 RMK AO2 SLP240 T10331067,KMFD,2014-12-18T07:52:00Z,40.82,-82.52,-3.3,-6.7,290,8,15,10.0,30.188976,1024.0,,,TRUE,,,,,,,OVC,1600,,,,,,,MVFR,,,,,,,,,,,,METAR,395.0
KMEB 180752Z AUTO 00000KT 9SM CLR 02/01 A3010 RMK AO2 SLP191 T00220011,KMEB,2014-12-18T07:52:00Z,34.78,-79.37,2.2,1.1,0,0,,9.0,30.100393,1019.1,,TRUE,TRUE,,,,,,,CLR,,,,,,,,VFR,,,,,,,,,,,,METAR,67.0
KMBG 180752Z AUTO 11008KT 7SM OVC005 M08/M09 A3011 RMK AO2 SLP227 T10781094,KMBG,2014-12-18T07:52:00Z,45.55,-100.42,-7.8,-9.4,110,8,,7.0,30.109253,1022.7,,TRUE,TRUE,,,,,,,OVC,500,,,,,,,IFR,,,,,,,,,,,,METAR,510.0
KLWC 180752Z AUTO 09003KT 4SM BR FEW025 BKN032 OVC044 M02/M03 A3024 RMK AO2 SNE0654B25E47 SLP248 P0000 T10221033,KLWC,2014-12-18T07:52:00Z,39.02,-95.22,-2.2,-3.3,90,3,,4.0,30.239174,1024.8,,TRUE,TRUE,,,,,,BR,FEW,2500,BKN,3200,OVC,4400,,,MVFR,,,,,,0.0050,,,,,,METAR,253.0
KISN 180752Z AUTO 15008KT 10SM OVC011 M07/M09 A3003 RMK AO2 SLP205 T10671094,KISN,2014-12-18T07:52:00Z,48.17,-103.63,-6.7,-9.4,150,8,,10.0,30.029528,1020.5,,TRUE,TRUE,,,,,,,OVC,1100,,,,,,,MVFR,,,,,,,,,,,,METAR,579.0
KIOW 180752Z AUTO 28004KT 10SM CLR M09/M11 A3032 RMK AO2 SLP279 T10891106,KIOW,2014-12-18T07:52:00Z,41.63,-91.55,-8.9,-10.6,280,4,,10.0,30.318897,1027.9,,TRUE,TRUE,,,,,,,CLR,,,,,,,,VFR,,,,,,,,,,,,METAR,198.0
KIJD 180752Z AUTO VRB04KT 10SM SCT034 OVC070 04/M02 A2978 RMK AO2 SLP084 T00391017,KIJD,2014-12-18T07:52:00Z,41.75,-72.18,3.9,-1.7,0,4,,10.0,29.778543,1008.4,,TRUE,TRUE,,,,,,,SCT,3400,OVC,7000,,,,,VFR,,,,,,,,,,,,METAR,75.0
KVTN 180752Z AUTO 20008KT 10SM OVC008 M04/M06 A3007 RMK AO2 SLP217 T10441061,KVTN,2014-12-18T07:52:00Z,42.87,-100.55,-4.4,-6.1,200,8,,10.0,30.070866,1021.7,,TRUE,TRUE,,,,,,,OVC,800,,,,,,,IFR,,,,,,,,,,,,METAR,788.0
PATA 180752Z AUTO 00000KT 10SM OVC009 M08/M11 A2972 RMK AO2 SLP071 T10831111 TSNO,PATA,2014-12-18T07:52:00Z,65.17,-152.1,-8.3,-11.1,0,0,,10.0,29.719488,1007.1,,TRUE,TRUE,,,TRUE,,,,OVC,900,,,,,,,IFR,,,,,,,,,,,,METAR,67.0
KMLF 180752Z AUTO 21012KT 10SM OVC085 01/M01 A3005 RMK AO2 SLP176 T00111011 TSNO,KMLF,2014-12-18T07:52:00Z,38.42,-113.02,1.1,-1.1,210,12,,10.0,30.050198,1017.6,,TRUE,TRUE,,,TRUE,,,,OVC,8500,,,,,,,VFR,,,,,,,,,,,,METAR,1534.0
KHRL 180752Z 17010KT 10SM OVC033 22/20 A3001 RMK AO2 SLP162 T02220200,KHRL,2014-12-18T07:52:00Z,26.23,-97.65,22.2,20.0,170,10,,10.0,30.008858,1016.2,,,TRUE,,,,,,,OVC,3300,,,,,,,VFR,,,,,,,,,,,,METAR,10.0
KGLS 180752Z AUTO 10007KT 10SM BKN055 19/18 A3009 RMK AO1 SLP188 T01890183,KGLS,2014-12-18T07:52:00Z,29.27,-94.87,18.9,18.3,100,7,,10.0,30.088583,1018.8,,TRUE,TRUE,,,,,,,BKN,5500,,,,,,,VFR,,,,,,,,,,,,METAR,6.0
KTCM 180752Z AUTO 20004KT 6SM -RA BR BKN005 BKN011 OVC026 06/06 A2993 RMK AO2 RAE05DZB05E08RAB08E09RAB11E13DZB13E19RAB19E28DZB28E38DZB42E51 RAB51 CIG 005V011 BKN005 V SCT $,KTCM,2014-12-18T07:52:00Z,47.12,-122.47,6.0,6.0,200,4,,6.0,29.929134,,,TRUE,TRUE,TRUE,,,,,-RA BR,BKN,500,BKN,1100,OVC,2600,,,IFR,,,,,,,,,,,,SPECI,98.0
KTRM 180752Z AUTO 00000KT 4SM BR SCT060 BKN120 10/09 A3009 RMK AO2 SLP191 T01000089 401610061 TSNO,KTRM,2014-12-18T07:52:00Z,33.63,-116.17,10.0,8.9,0,0,,4.0,30.088583,1019.1,,TRUE,TRUE,,,TRUE,,,BR,SCT,6000,BKN,12000,,,,,MVFR,,,,16.1,6.1,,,,,,,METAR,-35.0
KTOL 180752Z 27007KT 10SM OVC030 M02/M07 A3022 RMK AO2 SLP241 T10221067,KTOL,2014-12-18T07:52:00Z,41.58,-83.8,-2.2,-6.7,270,7,,10.0,30.221457,1024.1,,,TRUE,,,,,,,OVC,3000,,,,,,,MVFR,,,,,,,,,,,,METAR,210.0
KTAN 180752Z AUTO 26006KT 10SM OVC060 04/M02 A2974 RMK AO2 SLP072 T00441017,KTAN,2014-12-18T07:52:00Z,41.88,-71.02,4.4,-1.7,260,6,,10.0,29.740158,1007.2,,TRUE,TRUE,,,,,,,OVC,6000,,,,,,,VFR,,,,,,,,,,,,METAR,7.0
KSUX 180752Z AUTO 12006KT 10SM OVC080 M03/M07 A3025 RMK AO2 SLP259 T10331072,KSUX,2014-12-18T07:52:00Z,42.38,-96.38,-3.3,-7.2,120,6,,10.0,30.250984,1025.9,,TRUE,TRUE,,,,,,,OVC,8000,,,,,,,VFR,,,,,,,,,,,,METAR,338.0
KSPS 180752Z AUTO 14008KT 3/4SM BR OVC002 04/04 A3009 RMK AO2 SLP193 T00440039 TSNO $,KSPS,2014-12-18T07:52:00Z,33.98,-98.5,4.4,3.9,140,8,,0.75,30.088583,1019.3,,TRUE,TRUE,TRUE,,TRUE,,,BR,OVC,200,,,,,,,LIFR,,,,,,,,,,,,METAR,308.0
KSGF 180752Z 14008KT 4SM BR OVC006 01/M01 A3017 RMK AO2 UPE02 SLP226 P0000 T00061006,KSGF,2014-12-18T07:52:00Z,37.23,-93.38,0.6,-0.6,140,8,,4.0,30.171259,1022.6,,,TRUE,,,,,,BR,OVC,600,,,,,,,IFR,,,,,,0.0050,,,,,,METAR,390.0
KRAP 180752Z AUTO 16007KT 6SM BR OVC009 M06/M07 A2999 RMK AO2 SLP198 T10561067,KRAP,2014-12-18T07:52:00Z,44.05,-103.05,-5.6,-6.7,160,7,,6.0,29.991142,1019.8,,TRUE,TRUE,,,,,,BR,OVC,900,,,,,,,IFR,,,,,,,,,,,,METAR,965.0
KPYM 180752Z AUTO 25007KT 10SM OVC070 04/M01 A2973 RMK AO2 SLP069 T00391006 $,KPYM,2014-12-18T07:52:00Z,41.92,-70.73,3.9,-0.6,250,7,,10.0,29.731298,1006.9,,TRUE,TRUE,TRUE,,,,,,OVC,7000,,,,,,,VFR,,,,,,,,,,,,METAR,43.0
PGWT 180752Z 07012KT 7SM FEW016 27/24 A2991,PGWT,2014-12-18T07:52:00Z,14.98,145.62,27.0,24.0,70,12,,7.0,29.911417,,,,,,,,,,,FEW,1600,,,,,,,VFR,,,,,,,,,,,,METAR,82.0
KNZY 180752Z 11004KT 10SM FEW030 BKN048 BKN100 BKN200 13/08 A3012 RMK AO2 SLP200 T01280083 401780122 $,KNZY,2014-12-18T07:52:00Z,32.7,-117.22,12.8,8.3,110,4,,10.0,30.121063,1020.0,,,TRUE,TRUE,,,,,,FEW,3000,BKN,4800,BKN,10000,BKN,20000,VFR,,,,17.8,12.2,,,,,,,METAR,8.0
KIEN 180752Z AUTO 20007KT 9SM OVC004 M08/M10 A3001 RMK AO2 SLP206 T10831100,KIEN,2014-12-18T07:52:00Z,43.03,-102.52,-8.3,-10.0,200,7,,9.0,30.008858,1020.6,,TRUE,TRUE,,,,,,,OVC,400,,,,,,,LIFR,,,,,,,,,,,,METAR,998.0
KIAD 180752Z 30012KT 10SM BKN044 02/M06 A3010 RMK AO2 SLP195 T00171056,KIAD,2014-12-18T07:52:00Z,38.93,-77.45,1.7,-5.6,300,12,,10.0,30.100393,1019.5,,,TRUE,,,,,,,BKN,4400,,,,,,,VFR,,,,,,,,,,,,METAR,93.0
KHUT 180752Z AUTO 06003KT 2SM -SN BR BKN007 OVC013 M01/M03 A3014 RMK AO2 SLP213 P0000 T10111028,KHUT,2014-12-18T07:52:00Z,38.07,-97.87,-1.1,-2.8,60,3,,2.0,30.138779,1021.3,,TRUE,TRUE,,,,,,-SN BR,BKN,700,OVC,1300,,,,,IFR,,,,,,0.0050,,,,,,METAR,467.0
KFIT 180752Z AUTO 30008KT 10SM SCT070 OVC090 03/M02 A2973 RMK AO2 SLP071 T00331017,KFIT,2014-12-18T07:52:00Z,42.55,-71.75,3.3,-1.7,300,8,,10.0,29.731298,1007.1,,TRUE,TRUE,,,,,,,SCT,7000,OVC,9000,,,,,VFR,,,,,,,,,,,,METAR,103.0
KEST 180752Z AUTO 00000KT 10SM CLR M13/M14 A3028 RMK AO2 SLP281 I1000 T11281144,KEST,2014-12-18T07:52:00Z,43.4,-94.75,-12.8,-14.4,0,0,,10.0,30.280512,1028.1,,TRUE,TRUE,,,,,,,CLR,,,,,,,,VFR,,,,,,,,,,,,METAR,401.0
KDVN 180752Z AUTO 00000KT 10SM CLR M09/M12 A3030 RMK AO2 SLP274 T10941117,KDVN,2014-12-18T07:52:00Z,41.62,-90.58,-9.4,-11.7,0,0,,10.0,30.301182,1027.4,,TRUE,TRUE,,,,,,,CLR,,,,,,,,VFR,,,,,,,,,,,,METAR,230.0
KDPA 180752Z 34006KT 10SM OVC020 M04/M09 A3027 RMK AO2 SLP262 T10441089,KDPA,2014-12-18T07:52:00Z,41.92,-88.25,-4.4,-8.9,340,6,,10.0,30.268702,1026.2,,,TRUE,,,,,,,OVC,2000,,,,,,,MVFR,,,,,,,,,,,,METAR,231.0
KDDC 180752Z AUTO 08005KT 2SM -SN BR BKN004 BKN015 OVC022 M02/M03 A3007 RMK AO2 SLP199 P0001 T10171033,KDDC,2014-12-18T07:52:00Z,37.77,-99.97,-1.7,-3.3,80,5,,2.0,30.070866,1019.9,,TRUE,TRUE,,,,,,-SN BR,BKN,400,BKN,1500,OVC,2200,,,LIFR,,,,,,0.01,,,,,,METAR,789.0
KDCA 180752Z 28006KT 10SM BKN050 04/M06 A3011 RMK AO2 SLP194 T00441056,KDCA,2014-12-18T07:52:00Z,38.85,-77.03,4.4,-5.6,280,6,,10.0,30.109253,1019.4,,,TRUE,,,,,,,BKN,5000,,,,,,,VFR,,,,,,,,,,,,METAR,18.0
KCVG 180752Z 36006KT 10SM OVC015 M03/M08 A3028 RMK AO2 SLP260 T10331078,KCVG,2014-12-18T07:52:00Z,39.05,-84.67,-3.3,-7.8,360,6,,10.0,30.280512,1026.0,,,TRUE,,,,,,,OVC,1500,,,,,,,MVFR,,,,,,,,,,,,METAR,269.0
KCQX 180752Z AUTO VRB05KT 10SM OVC070 04/00 A2973 RMK AO2 SLP068 T00440000,KCQX,2014-12-18T07:52:00Z,41.68,-70.0,4.4,0.0,0,5,,10.0,29.731298,1006.8,,TRUE,TRUE,,,,,,,OVC,7000,,,,,,,VFR,,,,,,,,,,,,METAR,19.0
KCNU 180752Z AUTO 06004KT 2SM -FZRA BR FEW005 OVC014 M01/M01 A3019 RMK AO2 UPB0658E24FZRAB24 SLP231 P0000 I1001 T10061011 $,KCNU,2014-12-18T07:52:00Z,37.67,-95.48,-0.6,-1.1,60,4,,2.0,30.188976,1023.1,,TRUE,TRUE,TRUE,,,,,-FZRA BR,FEW,500,OVC,1400,,,,,IFR,,,,,,0.0050,,,,,,METAR,297.0
KCLT 180752Z 34003KT 10SM SCT250 01/M01 A3011 RMK AO2 SLP195 T00111011 $,KCLT,2014-12-18T07:52:00Z,35.22,-80.95,1.1,-1.1,340,3,,10.0,30.109253,1019.5,,,TRUE,TRUE,,,,,,SCT,25000,,,,,,,VFR,,,,,,,,,,,,METAR,220.0
KCKV 180752Z AUTO 00000KT 7SM -FZRA OVC080 00/M02 A3028 RMK AO2 RAB12E22UPB22E46FZRAB46 SLP259 P0002 I1001 T00001022,KCKV,2014-12-18T07:52:00Z,36.62,-87.42,0.0,-2.2,0,0,,7.0,30.280512,1025.9,,TRUE,TRUE,,,,,,-FZRA,OVC,8000,,,,,,,VFR,,,,,,0.02,,,,,,METAR,165.0
KCID 180752Z AUTO 00000KT 9SM CLR M11/M12 A3028 RMK AO2 SLP269 T11111122 $,KCID,2014-12-18T07:52:00Z,41.88,-91.72,-11.1,-12.2,0,0,,9.0,30.280512,1026.9,,TRUE,TRUE,TRUE,,,,,,CLR,,,,,,,,VFR,,,,,,,,,,,,METAR,264.0
KCFV 180752Z AUTO 05005KT 1 3/4SM BR OVC008 01/00 A3019 RMK AO2 SLP231 T00060000 PNO $,KCFV,2014-12-18T07:52:00Z,37.08,-95.57,0.6,0.0,50,5,,1.75,30.188976,1023.1,,TRUE,TRUE,TRUE,,,,,BR,OVC,800,,,,,,,IFR,,,,,,,,,,,,METAR,225.0
KBML 180752Z AUTO VRB04KT 5SM -SN BR OVC027 01/M01 A2964 RMK AO2 SLP050 P0000 T00111011,KBML,2014-12-18T07:52:00Z,44.58,-71.18,1.1,-1.1,0,4,,5.0,29.639763,1005.0,,TRUE,TRUE,,,,,,-SN BR,OVC,2700,,,,,,,MVFR,,,,,,0.0050,,,,,,METAR,345.0
KBLH 180752Z AUTO 01003KT 10SM OVC080 11/10 A3010 RMK AO2 SLP189 T01110100 401560083,KBLH,2014-12-18T07:52:00Z,33.62,-114.72,11.1,10.0,10,3,,10.0,30.100393,1018.9,,TRUE,TRUE,,,,,,,OVC,8000,,,,,,,VFR,,,,15.6,8.3,,,,,,,METAR,119.0
KBLF 180752Z AUTO 30009G19KT 10SM OVC011 M02/M06 A3011 RMK AO2 SLP208 T10221061,KBLF,2014-12-18T07:52:00Z,37.3,-81.2,-2.2,-6.1,300,9,19,10.0,30.109253,1020.8,,TRUE,TRUE,,,,,,,OVC,1100,,,,,,,MVFR,,,,,,,,,,,,METAR,873.0
KBIS 180752Z AUTO 16009KT 10SM BKN014 M08/M11 A3015 RMK AO2 SLP241 T10831111,KBIS,2014-12-18T07:52:00Z,46.77,-100.75,-8.3,-11.1,160,9,,10.0,30.15059,1024.1,,TRUE,TRUE,,,,,,,BKN,1400,,,,,,,MVFR,,,,,,,,,,,,METAR,505.0
KBDR 180752Z 27009KT 10SM FEW035 BKN050 OVC080 05/M02 A2986 RMK AO2 SLP109 T00501017,KBDR,2014-12-18T07:52:00Z,41.17,-73.13,5.0,-1.7,270,9,,10.0,29.861221,1010.9,,,TRUE,,,,,,,FEW,3500,BKN,5000,OVC,8000,,,VFR,,,,,,,,,,,,METAR,7.0
KATL 180752Z 31007KT 10SM BKN200 OVC250 04/00 A3013 RMK AO2 SLP206 T00390000,KATL,2014-12-18T07:52:00Z,33.63,-84.45,3.9,0.0,310,7,,10.0,30.129921,1020.6,,,TRUE,,,,,,,BKN,20000,OVC,25000,,,,,VFR,,,,,,,,,,,,METAR,296.0
KARR 180752Z AUTO 33007KT 9SM OVC018 M04/M09 A3028 RMK AO2 SLP264 T10441089,KARR,2014-12-18T07:52:00Z,41.77,-88.48,-4.4,-8.9,330,7,,9.0,30.280512,1026.4,,TRUE,TRUE,,,,,,,OVC,1800,,,,,,,MVFR,,,,,,,,,,,,METAR,215.0
KAQW 180752Z AUTO 28012G17KT 2SM -SN BR SCT021 OVC030 01/M02 A2980 RMK AO2 SNB0658 SLP096 P0000 T00061017,KAQW,2014-12-18T07:52:00Z,42.7,-73.17,0.6,-1.7,280,12,17,2.0,29.799213,1009.6,,TRUE,TRUE,,,,,,-SN BR,SCT,2100,OVC,3000,,,,,IFR,,,,,,0.0050,,,,,,METAR,199.0
KALS 180752Z AUTO 24003KT 9SM OVC011 M04/M06 A3003 RMK AO2 SLP189 T10391056,KALS,2014-12-18T07:52:00Z,37.43,-105.87,-3.9,-5.6,240,3,,9.0,30.029528,1018.9,,TRUE,TRUE,,,,,,,OVC,1100,,,,,,,MVFR,,,,,,,,,,,,METAR,2299.0
KABI 180752Z 14006KT 10SM BKN008 09/08 A3006 RMK AO2 SLP173 T00890078,KABI,2014-12-18T07:52:00Z,32.42,-99.68,8.9,7.8,140,6,,10.0,30.059055,1017.3,,,TRUE,,,,,,,BKN,800,,,,,,,IFR,,,,,,,,,,,,METAR,548.0
KSPI 180752Z AUTO 06003KT 10SM CLR M04/M06 A3030 RMK AO2 SLP269 T10391061,KSPI,2014-12-18T07:52:00Z,39.85,-89.68,-3.9,-6.1,60,3,,10.0,30.301182,1026.9,,TRUE,TRUE,,,,,,,CLR,,,,,,,,VFR,,,,,,,,,,,,METAR,181.0
KNHK 180752Z AUTO 31015KT 10SM CLR 03/M06 A3007 RMK AO2 SLP184 T00331061 ,KNHK,2014-12-18T07:52:00Z,38.27,-76.4,3.3,-6.1,310,15,,10.0,30.070866,1018.4,,TRUE,TRUE,,,,,,,CLR,,,,,,,,VFR,,,,,,,,,,,,METAR,12.0
KDRA 180752Z AUTO 05003KT 10SM FEW025 BKN065 05/04 A3007 RMK AO2 SLP175 T00500044 400720050 $ ,KDRA,2014-12-18T07:52:00Z,36.62,-116.03,5.0,4.4,50,3,,10.0,30.070866,1017.5,,TRUE,TRUE,TRUE,,,,,,FEW,2500,BKN,6500,,,,,VFR,,,,7.2,5.0,,,,,,,METAR,1006.0
KREO 180752Z AUTO 00000KT M02/M03 A3000 RMK AO1 SLP183 T10171028 400281050,KREO,2014-12-18T07:52:00Z,42.58,-117.87,-1.7,-2.8,0,0,,,30.0,1018.3,,TRUE,TRUE,,,,,,,,,,,,,,,,,,,2.8,-5.0,,,,,,,SPECI,1235.0
KNFW 180752Z AUTO 11005KT 3SM HZ OVC005 08/05 A3016 RMK AO2 VIS 2 1/2 N SLP195 T00830050,KNFW,2014-12-18T07:52:00Z,32.78,-97.43,8.3,5.0,110,5,,3.0,30.159449,1019.5,,TRUE,TRUE,,,,,,HZ,OVC,500,,,,,,,IFR,,,,,,,,,,,,METAR,198.0
KAFN 180752Z AUTO 00000KT 10SM SCT016 OVC055 01/M02 A2971 RMK AO2 SLP073 T00111017,KAFN,2014-12-18T07:52:00Z,42.8,-72.0,1.1,-1.7,0,0,,10.0,29.71063,1007.3,,TRUE,TRUE,,,,,,,SCT,1600,OVC,5500,,,,,VFR,,,,,,,,,,,,SPECI,313.0
KHIE 180752Z AUTO 19003KT 2 1/2SM -SN BR BKN009 BKN015 OVC023 01/00 A2968 RMK AO2 SLP061 P0003 T00110000,KHIE,2014-12-18T07:52:00Z,44.37,-71.55,1.1,0.0,190,3,,2.5,29.681103,1006.1,,TRUE,TRUE,,,,,,-SN BR,BKN,900,BKN,1500,OVC,2300,,,IFR,,,,,,0.03,,,,,,SPECI,318.0
KP69 180752Z AUTO 00000KT 02/01 A3004 RMK AO1 SLP189 T00170006 400671006,KP69,2014-12-18T07:52:00Z,46.15,-115.6,1.7,0.6,0,0,,,30.041338,1018.9,,TRUE,TRUE,,,,,,,,,,,,,,,,,,,6.7,-0.6,,,,,,,METAR,480.0
KNRB 180752Z AUTO 27003KT 10SM CLR 10/08 A3014 RMK AO2 SLP204 T01000078 $,KNRB,2014-12-18T07:52:00Z,30.38,-81.42,10.0,7.8,270,3,,10.0,30.138779,1020.4,,TRUE,TRUE,TRUE,,,,,,CLR,,,,,,,,VFR,,,,,,,,,,,,METAR,5.0
KBLU 180752Z AUTO 15006KT 2 1/2SM BR OVC004 01/M01 A3008 RMK AO2 SLP195 T00061011 400060000,KBLU,2014-12-18T07:52:00Z,39.28,-120.7,0.6,-1.1,150,6,,2.5,30.079725,1019.5,,TRUE,TRUE,,,,,,BR,OVC,400,,,,,,,LIFR,,,,0.6,,,,,,,,METAR,1609.0
KCZZ 180752Z AUTO 06005KT 02/01 A3010 RMK AO1 SLP185 T00220011 401170017,KCZZ,2014-12-18T07:52:00Z,32.63,-116.47,2.2,1.1,60,5,,,30.100393,1018.5,,TRUE,TRUE,,,,,,,,,,,,,,,,,,,11.7,1.7,,,,,,,SPECI,807.0
KCDJ 180752Z AUTO 07003KT M01/M06 A3027 RMK AO1 SLP267 T10111056,KCDJ,2014-12-18T07:52:00Z,39.82,-93.58,-1.1,-5.6,70,3,,,30.268702,1026.7,,TRUE,TRUE,,,,,,,,,,,,,,,,,,,,,,,,,,,SPECI,234.0
KBAN 180752Z AUTO 00000KT SCT046 BKN055 OVC075 M04/M08 A3001 RMK AO2 SLP163 T10391078 400501044 FZRANO $,KBAN,2014-12-18T07:52:00Z,38.35,-119.52,-3.9,-7.8,0,0,,,30.008858,1016.3,,TRUE,TRUE,TRUE,,,TRUE,,,SCT,4600,BKN,5500,OVC,7500,,,,,,,5.0,-4.4,,,,,,,SPECI,2057.0
CZCP 180752Z AUTO 09037KT 1/4SM BKN001 M17/ A2978 RMK ICG,CZCP,2014-12-18T07:52:00Z,70.17,-124.72,-17.0,,90,37,,0.25,29.778543,,,TRUE,,,,,,,,BKN,100,,,,,,,LIFR,,,,,,,,,,,,SPECI,93.0
CYVM 180752Z AUTO 10004KT 050V120 8SM -SN BKN026 M19/M22 A2970 RMK SLP059,CYVM,2014-12-18T07:52:00Z,67.53,-64.02,-19.0,-22.0,100,4,,8.0,29.698818,1005.9,,TRUE,,,,,,,-SN,BKN,2600,,,,,,,MVFR,,,,,,,,,,,,SPECI,6.0
KABQ 180752Z 00000KT 10SM FEW035 SCT120 01/M01 A3011 RMK AO2 SLP192 MTNS OBSC NE-SE T00061011,KABQ,2014-12-18T07:52:00Z,35.05,-106.62,0.6,-1.1,0,0,,10.0,30.109253,1019.2,,,TRUE,,,,,,,FEW,3500,SCT,12000,,,,,VFR,,,,,,,,,,,,METAR,1618.0
LESO 180752Z 21006KT 3000 -RADZ BR SCT005 BKN011 OVC021 11/11 Q1030,LESO,2014-12-18T07:52:00Z,43.35,-1.8,11.0,11.0,210,6,,1.86,30.413385,,,,,,,,,,-RA -DZ BR,SCT,500,BKN,1100,OVC,2100,,,IFR,,,,,,,,,,,,SPECI,8.0
CYZR 180752Z AUTO 27007G15KT 5SM BR OVC013 M02/M03 A3015 RMK SLP218,CYZR,2014-12-18T07:52:00Z,43.0,-82.3,-2.0,-3.0,270,7,15,5.0,30.15059,1021.8,,TRUE,,,,,,,BR,OVC,1300,,,,,,,MVFR,,,,,,,,,,,,SPECI,181.0
CYDL 180752Z AUTO 06003KT 300V100 9SM FEW002 M15/M16 A2976 RMK ICG PAST HR SLP135,CYDL,2014-12-18T07:52:00Z,58.42,-130.02,-15.0,-16.0,60,3,,9.0,29.760826,1013.5,,TRUE,,,,,,,,FEW,200,,,,,,,VFR,,,,,,,,,,,,SPECI,816.0
PTKR 180752Z 06005KT 15SM SCT017TCU BKN120 OVC300 29/25 A2981 RMK TCU ALQDS SLP096 T02940249,PTKR,2014-12-18T07:52:00Z,7.33,134.48,29.4,24.9,60,5,,15.0,29.811024,1009.6,,,,,,,,,,SCT,1700,BKN,12000,OVC,30000,,,VFR,,,,,,,,,,,,SPECI,30.0
CYRV 180752Z AUTO 00000KT 9SM -SN BKN006 OVC032 M02/M03 A3001 RMK SLP184,CYRV,2014-12-18T07:52:00Z,50.97,-118.17,-2.0,-3.0,0,0,,9.0,30.008858,1018.4,,TRUE,,,,,,,-SN,BKN,600,OVC,3200,,,,,IFR,,,,,,,,,,,,SPECI,443.0
PTKK 180752Z VRB05KT 15SM FEW014 BKN120 BKN290 29/25 A2981 RMK SLP096 T02870245,PTKK,2014-12-18T07:52:00Z,7.47,151.85,28.7,24.5,0,5,,15.0,29.811024,1009.6,,,,,,,,,,FEW,1400,BKN,12000,BKN,29000,,,VFR,,,,,,,,,,,,METAR,2.0
KMDH 180752Z AUTO 06006KT 10SM OVC080 00/M03 A3028 RMK AO2 SLP258 T00001033,KMDH,2014-12-18T07:52:00Z,37.78,-89.25,0.0,-3.3,60,6,,10.0,30.280512,1025.8,,TRUE,TRUE,,,,,,,OVC,8000,,,,,,,VFR,,,,,,,,,,,,SPECI,130.0
KPPF 180752Z AUTO VRB03KT 2 1/2SM -RA BR OVC004 01/00 A3019 RMK AO2 UPB0658E41RAB06E15B41 SLP232 P0000 T00060000,KPPF,2014-12-18T07:52:00Z,37.33,-95.5,0.6,0.0,0,3,,2.5,30.188976,1023.2,,TRUE,TRUE,,,,,,-RA BR,OVC,400,,,,,,,LIFR,,,,,,0.0050,,,,,,SPECI,274.0
KIMS 180752Z AUTO 05003KT 10SM OVC015 M02/M06 A3030 RMK AO1,KIMS,2014-12-18T07:52:00Z,,,-2.0,-6.0,50,3,,10.0,30.301182,,,TRUE,TRUE,,,,,,,OVC,1500,,,,,,,MVFR,,,,,,,,,,,,METAR,
KTKC 180752Z AUTO 00000KT 10SM CLR M14/M16 A3028 RMK AO2 T11431159,KTKC,2014-12-18T07:52:00Z,44.25,-95.62,-14.3,-15.9,0,0,,10.0,30.280512,,,TRUE,TRUE,,,,,,,CLR,,,,,,,,VFR,,,,,,,,,,,,METAR,408.0
KGDB 180752Z AUTO 00000KT 7SM CLR M15/M17 A3033 RMK AO2 T11551170,KGDB,2014-12-18T07:52:00Z,44.75,-95.55,-15.5,-17.0,0,0,,7.0,30.33071,,,TRUE,TRUE,,,,,,,CLR,,,,,,,,VFR,,,,,,,,,,,,METAR,319.0
KELO 180752Z AUTO 00000KT 10SM CLR M21/M22 A3032 RMK AO2,KELO,2014-12-18T07:52:00Z,47.82,-91.82,-21.0,-22.0,0,0,,10.0,30.318897,,,TRUE,TRUE,,,,,,,CLR,,,,,,,,VFR,,,,,,,,,,,,METAR,443.0
KD39 180752Z AUTO 00000KT 10SM CLR M15/M16 A3030 RMK AO2 T11471161,KD39,2014-12-18T07:52:00Z,45.7,-94.93,-14.7,-16.1,0,0,,10.0,30.301182,,,TRUE,TRUE,,,,,,,CLR,,,,,,,,VFR,,,,,,,,,,,,METAR,380.0
KAXV 180752Z AUTO 28003KT 10SM OVC021 M02/M05 A3025 RMK AO2,KAXV,2014-12-18T07:52:00Z,40.5,-84.3,-2.0,-5.0,280,3,,10.0,30.250984,,,TRUE,TRUE,,,,,,,OVC,2100,,,,,,,MVFR,,,,,,,,,,,,METAR,279.0
KAEL 180752Z AUTO 00000KT 10SM BKN014 M09/M11 A3028 RMK AO2,KAEL,2014-12-18T07:52:00Z,43.68,-93.37,-9.0,-11.0,0,0,,10.0,30.280512,,,TRUE,TRUE,,,,,,,BKN,1400,,,,,,,MVFR,,,,,,,,,,,,METAR,383.0
KSJT 180751Z AUTO 23008KT 7SM OVC003 10/09 A3008 RMK AO2 SLP183 T01000089,KSJT,2014-12-18T07:51:00Z,31.37,-100.5,10.0,8.9,230,8,,7.0,30.079725,1018.3,,TRUE,TRUE,,,,,,,OVC,300,,,,,,,LIFR,,,,,,,,,,,,SPECI,576.0
NSTU 180751Z 16013KT 12SM SCT018 BKN050 OVC100 28/25 A2984 RMK SLP105 T02820249,NSTU,2014-12-18T07:51:00Z,-14.33,-170.72,28.2,24.9,160,13,,12.0,29.840551,1010.5,,,,,,,,,,SCT,1800,BKN,5000,OVC,10000,,,VFR,,,,,,,,,,,,METAR,3.0
KRGK 180751Z AUTO 00000KT 10SM OVC024 M10/M12 A3032 RMK AO2,KRGK,2014-12-18T07:51:00Z,44.58,-92.48,-10.0,-12.0,0,0,,10.0,30.318897,,,TRUE,TRUE,,,,,,,OVC,2400,,,,,,,MVFR,,,,,,,,,,,,METAR,239.0
KFFX 180751Z AUTO 29006KT 10SM OVC023 M01/M03 A3020 RMK AO2 T10111028,KFFX,2014-12-18T07:51:00Z,43.43,-86.0,-1.1,-2.8,290,6,,10.0,30.200787,,,TRUE,TRUE,,,,,,,OVC,2300,,,,,,,MVFR,,,,,,,,,,,,METAR,236.0
KIGM 180751Z AUTO 17006KT 10SM OVC060 03/02 A3010 RMK AO2 SLP168 T00330017 $,KIGM,2014-12-18T07:51:00Z,35.25,-113.93,3.3,1.7,170,6,,10.0,30.100393,1016.8,,TRUE,TRUE,TRUE,,,,,,OVC,6000,,,,,,,VFR,,,,,,,,,,,,SPECI,1032.0
KHTS 180751Z 32003KT 10SM OVC025 M01/M06 A3025 RMK AO2 SLP248 T10111056,KHTS,2014-12-18T07:51:00Z,38.37,-82.55,-1.1,-5.6,320,3,,10.0,30.250984,1024.8,,,TRUE,,,,,,,OVC,2500,,,,,,,MVFR,,,,,,,,,,,,SPECI,254.0
KHSE 180751Z AUTO 30006KT 10SM CLR 09/07 A3005 RMK AO2 SLP176 T00940072 TSNO,KHSE,2014-12-18T07:51:00Z,35.23,-75.62,9.4,7.2,300,6,,10.0,30.050198,1017.6,,TRUE,TRUE,,,TRUE,,,,CLR,,,,,,,,VFR,,,,,,,,,,,,SPECI,3.0
KSLK 180751Z AUTO 25005KT 1 1/2SM -SN BKN010 BKN016 OVC020 M01/ A2972 RMK AO2 UPB00E01SNB07E36B44 SLP081 P0000 T1011 $,KSLK,2014-12-18T07:51:00Z,44.4,-74.2,-1.1,,250,5,,1.5,29.719488,1008.1,,TRUE,TRUE,TRUE,,,,,-SN,BKN,1000,BKN,1600,OVC,2000,,,IFR,,,,,,0.0050,,,,,,SPECI,498.0
KSMO 180751Z AUTO 04004KT 10SM CLR 11/07 A3011 RMK AO2 SLP196 T01110067 401720106,KSMO,2014-12-18T07:51:00Z,34.02,-118.45,11.1,6.7,40,4,,10.0,30.109253,1019.6,,TRUE,TRUE,,,,,,,CLR,,,,,,,,VFR,,,,17.2,10.6,,,,,,,SPECI,57.0
KSTL 180751Z 09006KT 10SM FEW015 OVC080 M01/M05 A3028 RMK AO2 SLP263 T10061050,KSTL,2014-12-18T07:51:00Z,38.75,-90.37,-0.6,-5.0,90,6,,10.0,30.280512,1026.3,,,TRUE,,,,,,,FEW,1500,OVC,8000,,,,,VFR,,,,,,,,,,,,SPECI,171.0
KALB 180751Z 26008KT 9SM -SN OVC023 02/M02 A2985 RMK AO2 SLP111 P0000 T00171017,KALB,2014-12-18T07:51:00Z,42.75,-73.8,1.7,-1.7,260,8,,9.0,29.84941,1011.1,,,TRUE,,,,,,-SN,OVC,2300,,,,,,,MVFR,,,,,,0.0050,,,,,,SPECI,92.0
KAHN 180751Z AUTO 31005KT 10SM CLR 03/01 A3009 RMK AO2 SLP192 T00330006,KAHN,2014-12-18T07:51:00Z,33.95,-83.33,3.3,0.6,310,5,,10.0,30.088583,1019.2,,TRUE,TRUE,,,,,,,CLR,,,,,,,,VFR,,,,,,,,,,,,SPECI,244.0
KACT 180751Z 07006KT 4SM BR OVC004 08/07 A3012 RMK AO2 SLP199 T00780067,KACT,2014-12-18T07:51:00Z,31.62,-97.23,7.8,6.7,70,6,,4.0,30.121063,1019.9,,,TRUE,,,,,,BR,OVC,400,,,,,,,LIFR,,,,,,,,,,,,SPECI,151.0
KABE 180751Z 29012KT 10SM FEW045 BKN075 02/M06 A2996 RMK AO2 SLP149 T00221061,KABE,2014-12-18T07:51:00Z,40.65,-75.45,2.2,-6.1,290,12,,10.0,29.958662,1014.9,,,TRUE,,,,,,,FEW,4500,BKN,7500,,,,,VFR,,,,,,,,,,,,SPECI,114.0
KYNG 180751Z 28011G16KT 9SM -SN OVC019 M02/M06 A3014 RMK AO2 SLP222 P0000 T10221061,KYNG,2014-12-18T07:51:00Z,41.25,-80.67,-2.2,-6.1,280,11,16,9.0,30.138779,1022.2,,,TRUE,,,,,,-SN,OVC,1900,,,,,,,MVFR,,,,,,0.0050,,,,,,SPECI,360.0
KVNY 180751Z AUTO 00000KT 10SM CLR 08/06 A3010 RMK AO2 SLP192 T00830061 401670083,KVNY,2014-12-18T07:51:00Z,34.22,-118.48,8.3,6.1,0,0,,10.0,30.100393,1019.2,,TRUE,TRUE,,,,,,,CLR,,,,,,,,VFR,,,,16.7,8.3,,,,,,,SPECI,245.0
KVCT 180751Z AUTO 05004KT 2 1/2SM BR BKN020 BKN030 OVC035 17/17 A3005 RMK AO2 SLP175 T01720167,KVCT,2014-12-18T07:51:00Z,28.87,-96.93,17.2,16.7,50,4,,2.5,30.050198,1017.5,,TRUE,TRUE,,,,,,BR,BKN,2000,BKN,3000,OVC,3500,,,IFR,,,,,,,,,,,,SPECI,31.0
KTEB 180751Z 32009G17KT 10SM -SN SCT045 BKN055 OVC065 04/M04 A2991 RMK AO2 SNB48 SLP128 P0000 T00441039,KTEB,2014-12-18T07:51:00Z,40.87,-74.05,4.4,-3.9,320,9,17,10.0,29.911417,1012.8,,,TRUE,,,,,,-SN,SCT,4500,BKN,5500,OVC,6500,,,VFR,,,,,,0.0050,,,,,,SPECI,7.0
KBHK 180751Z AUTO 15007KT 8SM OVC019 M05/M06 A2995 RMK AO2 SNE0658 SLP180 P0000 T10501056,KBHK,2014-12-18T07:51:00Z,46.35,-104.25,-5.0,-5.6,150,7,,8.0,29.949802,1018.0,,TRUE,TRUE,,,,,,,OVC,1900,,,,,,,MVFR,,,,,,0.0050,,,,,,SPECI,902.0
KBGD 180751Z AUTO 00000KT 10SM OVC006 04/02 A3000 RMK AO2 SLP163 T00390022,KBGD,2014-12-18T07:51:00Z,35.7,-101.4,3.9,2.2,0,0,,10.0,30.0,1016.3,,TRUE,TRUE,,,,,,,OVC,600,,,,,,,IFR,,,,,,,,,,,,SPECI,927.0
KBDL 180751Z 30009KT 10SM BKN034 OVC080 04/M02 A2979 RMK AO2 SLP088 T00441022,KBDL,2014-12-18T07:51:00Z,41.93,-72.68,4.4,-2.2,300,9,,10.0,29.790354,1008.8,,,TRUE,,,,,,,BKN,3400,OVC,8000,,,,,VFR,,,,,,,,,,,,SPECI,60.0
KBAZ 180751Z AUTO 04008KT 2SM BR OVC002 13/12 A3006 RMK AO2 SLP178 T01280122,KBAZ,2014-12-18T07:51:00Z,29.72,-98.05,12.8,12.2,40,8,,2.0,30.059055,1017.8,,TRUE,TRUE,,,,,,BR,OVC,200,,,,,,,LIFR,,,,,,,,,,,,SPECI,195.0
KAVX 180751Z AUTO 29008KT 10SM FEW024 11/06 A3012 RMK AO2 SLP200 T01060056 401330089,KAVX,2014-12-18T07:51:00Z,33.4,-118.42,10.6,5.6,290,8,,10.0,30.121063,1020.0,,TRUE,TRUE,,,,,,,FEW,2400,,,,,,,VFR,,,,13.3,8.9,,,,,,,SPECI,482.0
KASH 180751Z 30008KT 10SM CLR 04/M01 A2972 RMK AO2 T00441005 SLP315,KASH,2014-12-18T07:51:00Z,42.78,-71.52,4.4,-0.5,300,8,,10.0,29.719488,1031.5,,,TRUE,,,,,,,CLR,,,,,,,,VFR,,,,,,,,,,,,SPECI,61.0
KCLE 180751Z 28015KT 10SM OVC032 M02/M07 A3021 RMK AO2 SLP240 T10171072,KCLE,2014-12-18T07:51:00Z,41.42,-81.85,-1.7,-7.2,280,15,,10.0,30.209646,1024.0,,,TRUE,,,,,,,OVC,3200,,,,,,,VFR,,,,,,,,,,,,SPECI,233.0
KCAK 180751Z 28011KT 10SM OVC019 M02/M07 A3017 RMK AO2 SLP232 T10221067,KCAK,2014-12-18T07:51:00Z,40.92,-81.45,-2.2,-6.7,280,11,,10.0,30.171259,1023.2,,,TRUE,,,,,,,OVC,1900,,,,,,,MVFR,,,,,,,,,,,,SPECI,377.0
KBKW 180751Z AUTO 31009KT 10SM OVC017 M03/M07 A3013 RMK AO2 SLP226 T10281067,KBKW,2014-12-18T07:51:00Z,37.8,-81.12,-2.8,-6.7,310,9,,10.0,30.129921,1022.6,,TRUE,TRUE,,,,,,,OVC,1700,,,,,,,MVFR,,,,,,,,,,,,SPECI,764.0
KHDO 180751Z AUTO 04003KT 4SM BR SCT007 OVC026 15/14 A3007 RMK AO2 SLP176 T01500139,KHDO,2014-12-18T07:51:00Z,29.37,-99.17,15.0,13.9,40,3,,4.0,30.070866,1017.6,,TRUE,TRUE,,,,,,BR,SCT,700,OVC,2600,,,,,MVFR,,,,,,,,,,,,SPECI,282.0
KEWR 180751Z 27010KT 10SM FEW047 OVC075 04/M04 A2993 RMK AO2 SLP133 T00391039 PNO $,KEWR,2014-12-18T07:51:00Z,40.68,-74.17,3.9,-3.9,270,10,,10.0,29.929134,1013.3,,,TRUE,TRUE,,,,,,FEW,4700,OVC,7500,,,,,VFR,,,,,,,,,,,,SPECI,7.0
KERI 180751Z 28013G23KT 10SM OVC024 M01/M06 A3013 RMK AO2 SLP211 T10061061,KERI,2014-12-18T07:51:00Z,42.08,-80.18,-0.6,-6.1,280,13,23,10.0,30.129921,1021.1,,,TRUE,,,,,,,OVC,2400,,,,,,,MVFR,,,,,,,,,,,,SPECI,222.0
KELP 180751Z 10003KT 10SM FEW055 FEW240 05/01 A3012 RMK AO2 SLP169 T00500006,KELP,2014-12-18T07:51:00Z,31.82,-106.38,5.0,0.6,100,3,,10.0,30.121063,1016.9,,,TRUE,,,,,,,FEW,5500,FEW,24000,,,,,VFR,,,,,,,,,,,,SPECI,1197.0
KEKN 180751Z AUTO 31008KT 10SM OVC017 M02/M06 A3013 RMK AO2 SLP229 T10221056 TSNO,KEKN,2014-12-18T07:51:00Z,38.88,-79.85,-2.2,-5.6,310,8,,10.0,30.129921,1022.9,,TRUE,TRUE,,,TRUE,,,,OVC,1700,,,,,,,MVFR,,,,,,,,,,,,SPECI,603.0
KDAW 180751Z AUTO VRB06KT 10SM OVC050 03/01 A2965 RMK AO2 SLP041 T00330006,KDAW,2014-12-18T07:51:00Z,43.28,-70.92,3.3,0.6,0,6,,10.0,29.648623,1004.1,,TRUE,TRUE,,,,,,,OVC,5000,,,,,,,VFR,,,,,,,,,,,,SPECI,100.0
KCSG 180751Z AUTO 27003KT 10SM CLR 04/02 A3015 RMK AO2 SLP209 T00390022 $,KCSG,2014-12-18T07:51:00Z,32.52,-84.95,3.9,2.2,270,3,,10.0,30.15059,1020.9,,TRUE,TRUE,TRUE,,,,,,CLR,,,,,,,,VFR,,,,,,,,,,,,SPECI,135.0
KCRP 180751Z 14006KT 10SM FEW027 SCT065 BKN250 20/19 A3002 RMK AO2 RAE37 SLP166 P0000 T02000189,KCRP,2014-12-18T07:51:00Z,27.77,-97.5,20.0,18.9,140,6,,10.0,30.02067,1016.6,,,TRUE,,,,,,,FEW,2700,SCT,6500,BKN,25000,,,VFR,,,,,,0.0050,,,,,,SPECI,14.0
KCON 180751Z AUTO 28009KT 10SM -RA BKN026 OVC031 02/00 A2970 RMK AO2 RAB0659UPB08E22 SLP061 P0000 T00220000,KCON,2014-12-18T07:51:00Z,43.2,-71.5,2.2,0.0,280,9,,10.0,29.698818,1006.1,,TRUE,TRUE,,,,,,-RA,BKN,2600,OVC,3100,,,,,MVFR,,,,,,0.0050,,,,,,SPECI,103.0
KCMH 180751Z 30007KT 10SM OVC024 M03/M08 A3024 RMK AO2 SLP250 T10281078,KCMH,2014-12-18T07:51:00Z,40.0,-82.88,-2.8,-7.8,300,7,,10.0,30.239174,1025.0,,,TRUE,,,,,,,OVC,2400,,,,,,,MVFR,,,,,,,,,,,,SPECI,247.0
KP59 180751Z AUTO 09008G15KT M03/M09 A3030 RMK AO1 SLP275 T10281089,KP59,2014-12-18T07:51:00Z,47.47,-87.88,-2.8,-8.9,90,8,15,,30.301182,1027.5,,TRUE,TRUE,,,,,,,,,,,,,,,,,,,,,,,,,,,METAR,190.0
KSMX 180751Z AUTO 11005KT 10SM OVC060 11/08 A3013 RMK AO2 RAE0654B10E51 SLP205 P0000 T01110083 401610078 TSNO,KSMX,2014-12-18T07:51:00Z,34.9,-120.45,11.1,8.3,110,5,,10.0,30.129921,1020.5,,TRUE,TRUE,,,TRUE,,,,OVC,6000,,,,,,,VFR,,,,16.1,7.8,0.0050,,,,,,SPECI,74.0
KNYC 180751Z AUTO 31009G20KT 10SM BKN045 OVC060 05/M05 A2993 RMK AO2 SLP127 T00501050 $,KNYC,2014-12-18T07:51:00Z,40.78,-73.97,5.0,-5.0,310,9,20,10.0,29.929134,1012.7,,TRUE,TRUE,TRUE,,,,,,BKN,4500,OVC,6000,,,,,VFR,,,,,,,,,,,,SPECI,11.0
KATT 180751Z AUTO 02004KT 2 1/2SM BR OVC004 10/09 A3011 RMK AO2 SLP197 T01000094,KATT,2014-12-18T07:51:00Z,30.32,-97.77,10.0,9.4,20,4,,2.5,30.109253,1019.7,,TRUE,TRUE,,,,,,BR,OVC,400,,,,,,,LIFR,,,,,,,,,,,,SPECI,201.0
KBVE 180751Z AUTO 10005KT 10SM CLR 13/10 A3016 RMK AO2 SLP214 T01280100,KBVE,2014-12-18T07:51:00Z,29.32,-89.4,12.8,10.0,100,5,,10.0,30.159449,1021.4,,TRUE,TRUE,,,,,,,CLR,,,,,,,,VFR,,,,,,,,,,,,METAR,1.0
KP58 180751Z AUTO VRB06KT M02/M05 A3012 RMK AO1 SLP212 T10221050,KP58,2014-12-18T07:51:00Z,44.02,-82.8,-2.2,-5.0,0,6,,,30.121063,1021.2,,TRUE,TRUE,,,,,,,,,,,,,,,,,,,,,,,,,,,SPECI,179.0
KSNT 180751Z AUTO 08004KT M06/M08 A3000 RMK AO1 SLP164 T10561083,KSNT,2014-12-18T07:51:00Z,44.17,-114.93,-5.6,-8.3,80,4,,,30.0,1016.4,,TRUE,TRUE,,,,,,,,,,,,,,,,,,,,,,,,,,,SPECI,1980.0
KSAD 180751Z AUTO 00000KT 10SM OVC035 07/06 A3014 RMK AO2 SLP190 T00720061,KSAD,2014-12-18T07:51:00Z,32.85,-109.63,7.2,6.1,0,0,,10.0,30.138779,1019.0,,TRUE,TRUE,,,,,,,OVC,3500,,,,,,,VFR,,,,,,,,,,,,SPECI,962.0
RJNT 180751Z 26008KT 230V290 3200 -SHSN SCT005 BKN010 BKN020 00/M01 Q1023 RMK 3CU005 5CU010 6CU020 A3023,RJNT,2014-12-18T07:51:00Z,36.63,137.17,0.0,-1.0,260,8,,1.99,30.206694,,,,,,,,,,-SHSN,SCT,500,BKN,1000,BKN,2000,,,IFR,,,,,,,,,,,,METAR,27.0
KNJK 180751Z AUTO 30003KT 1 1/4SM BR CLR 10/09 A3010 RMK AO2 VIS 1/2V4 SLP207 T01000094 401780072 $,KNJK,2014-12-18T07:51:00Z,32.82,-115.67,10.0,9.4,300,3,,1.25,30.100393,1020.7,,TRUE,TRUE,TRUE,,,,,BR,CLR,,,,,,,,IFR,,,,17.8,7.2,,,,,,,METAR,-13.0
CYGV 180751Z AUTO 05015KT 6SM -SN BKN013 OVC019 M03/M04 A2992 RMK SLP133,CYGV,2014-12-18T07:51:00Z,50.27,-63.62,-3.0,-4.0,50,15,,6.0,29.920275,1013.3,,TRUE,,,,,,,-SN,BKN,1300,OVC,1900,,,,,MVFR,,,,,,,,,,,,SPECI,33.0
KMTN 180751Z AUTO 27010KT 10SM OVC047 03/M03 A3008 RMK AO2,KMTN,2014-12-18T07:51:00Z,39.32,-76.42,3.0,-3.0,270,10,,10.0,30.079725,,,TRUE,TRUE,,,,,,,OVC,4700,,,,,,,VFR,,,,,,,,,,,,METAR,7.0
FOOL 180751Z VRB02KT 9999 FEW011 FEW020CB 27/24 Q1013 NOSIG,FOOL,2014-12-18T07:51:00Z,0.45,9.42,27.0,24.0,0,2,,6.21,29.911417,,,,,,TRUE,,,,,FEW,1100,FEW,2000,,,,,VFR,,,,,,,,,,,,SPECI,15.0
PKMR 180751Z 07006KT 15SM FEW015 SCT050 BKN300 29/25 A2980 RMK SLP093 T02860249,PKMR,2014-12-18T07:51:00Z,7.08,171.38,28.6,24.9,70,6,,15.0,29.799213,1009.3,,,,,,,,,,FEW,1500,SCT,5000,BKN,30000,,,VFR,,,,,,,,,,,,SPECI,4.0
KMYL 180751Z AUTO 00000KT 8SM -SN FEW020 BKN037 OVC070 M01/M02 A2997 RMK AO2 SLP168 P0002 T10061017,KMYL,2014-12-18T07:51:00Z,44.9,-116.1,-0.6,-1.7,0,0,,8.0,29.970472,1016.8,,TRUE,TRUE,,,,,,-SN,FEW,2000,BKN,3700,OVC,7000,,,VFR,,,,,,0.02,,,,,,SPECI,1533.0
KMPV 180751Z AUTO 00000KT 9SM SCT014 BKN019 OVC027 01/00 A2974 RMK AO2 UPE07SNB0654E05 SLP083 P0000 T00060000,KMPV,2014-12-18T07:51:00Z,44.2,-72.57,0.6,0.0,0,0,,9.0,29.740158,1008.3,,TRUE,TRUE,,,,,,,SCT,1400,BKN,1900,OVC,2700,,,MVFR,,,,,,0.0050,,,,,,SPECI,343.0
KLGU 180751Z AUTO 00000KT 10SM OVC070 M01/M03 A3006 RMK AO2 SLP188 T10111033,KLGU,2014-12-18T07:51:00Z,41.78,-111.85,-1.1,-3.3,0,0,,10.0,30.059055,1018.8,,TRUE,TRUE,,,,,,,OVC,7000,,,,,,,VFR,,,,,,,,,,,,SPECI,1355.0
KLGA 180751Z 31018G26KT 10SM OVC042 04/M03 A2991 RMK AO2 PK WND 32026/0742 RAB46E48 SLP127 P0000 T00441033,KLGA,2014-12-18T07:51:00Z,40.78,-73.88,4.4,-3.3,310,18,26,10.0,29.911417,1012.7,,,TRUE,,,,,,,OVC,4200,,,,,,,VFR,,,,,,0.0050,,,,,,SPECI,11.0
KJFK 180751Z 29011G19KT 10SM OVC042 05/M04 A2991 RMK AO2 SLP129 T00501039,KJFK,2014-12-18T07:51:00Z,40.63,-73.77,5.0,-3.9,290,11,19,10.0,29.911417,1012.9,,,TRUE,,,,,,,OVC,4200,,,,,,,VFR,,,,,,,,,,,,METAR,9.0
KJCT 180751Z AUTO 00000KT 1SM BR OVC003 11/11 A3008 RMK AO2 SLP167 T01110111,KJCT,2014-12-18T07:51:00Z,30.5,-99.77,11.1,11.1,0,0,,1.0,30.079725,1016.7,,TRUE,TRUE,,,,,,BR,OVC,300,,,,,,,LIFR,,,,,,,,,,,,SPECI,522.0
KILG 180751Z AUTO 31013KT 10SM FEW055 02/M07 A3003 RMK AO2 PK WND 31028/0708 SLP170 T00221067,KILG,2014-12-18T07:51:00Z,39.67,-75.6,2.2,-6.7,310,13,,10.0,30.029528,1017.0,,TRUE,TRUE,,,,,,,FEW,5500,,,,,,,VFR,,,,,,,,,,,,SPECI,28.0
KOXR 180751Z AUTO 03007KT 10SM CLR 11/06 A3010 RMK AO2 SLP192 T01060061 401720089,KOXR,2014-12-18T07:51:00Z,34.2,-119.2,10.6,6.1,30,7,,10.0,30.100393,1019.2,,TRUE,TRUE,,,,,,,CLR,,,,,,,,VFR,,,,17.2,8.9,,,,,,,SPECI,20.0
KORF 180751Z AUTO 36010KT 10SM CLR 06/M02 A3009 RMK AO2 SLP188 T00561022 TSNO $,KORF,2014-12-18T07:51:00Z,36.9,-76.2,5.6,-2.2,360,10,,10.0,30.088583,1018.8,,TRUE,TRUE,TRUE,,TRUE,,,,CLR,,,,,,,,VFR,,,,,,,,,,,,SPECI,14.0
KORD 180751Z 30005KT 10SM OVC022 M05/M09 A3028 RMK AO2 SLP264 T10501094,KORD,2014-12-18T07:51:00Z,41.98,-87.93,-5.0,-9.4,300,5,,10.0,30.280512,1026.4,,,TRUE,,,,,,,OVC,2200,,,,,,,MVFR,,,,,,,,,,,,SPECI,200.0
KSAT 180751Z 02003KT 5SM BR OVC004 14/13 A3006 RMK AO2 SLP169 T01390128,KSAT,2014-12-18T07:51:00Z,29.53,-98.47,13.9,12.8,20,3,,5.0,30.059055,1016.9,,,TRUE,,,,,,BR,OVC,400,,,,,,,LIFR,,,,,,,,,,,,SPECI,243.0
KSAN 180751Z 00000KT 10SM FEW036 SCT045 SCT060 14/07 A3014 RMK AO2 SLP207 T01390072 401890128,KSAN,2014-12-18T07:51:00Z,32.73,-117.18,13.9,7.2,0,0,,10.0,30.138779,1020.7,,,TRUE,,,,,,,FEW,3600,SCT,4500,SCT,6000,,,VFR,,,,18.9,12.8,,,,,,,METAR,12.0
KROW 180751Z AUTO 18007KT 10SM CLR 01/M02 A3007 RMK AO2 SLP162 T00111022,KROW,2014-12-18T07:51:00Z,33.3,-104.5,1.1,-2.2,180,7,,10.0,30.070866,1016.2,,TRUE,TRUE,,,,,,,CLR,,,,,,,,VFR,,,,,,,,,,,,SPECI,1112.0
KRDU 180751Z 00000KT 10SM SCT250 04/M03 A3011 RMK AO2 SLP194 T00441028 $,KRDU,2014-12-18T07:51:00Z,35.9,-78.78,4.4,-2.8,0,0,,10.0,30.109253,1019.4,,,TRUE,TRUE,,,,,,SCT,25000,,,,,,,VFR,,,,,,,,,,,,SPECI,130.0
KPWM 180751Z AUTO 00000KT 10SM BKN027 OVC038 03/02 A2964 RMK AO2 RAB00E09 SLP039 P0000 T00330022,KPWM,2014-12-18T07:51:00Z,43.65,-70.3,3.3,2.2,0,0,,10.0,29.639763,1003.9,,TRUE,TRUE,,,,,,,BKN,2700,OVC,3800,,,,,MVFR,,,,,,0.0050,,,,,,SPECI,15.0
KPVD 180751Z 28009KT 10SM OVC060 04/M02 A2976 RMK AO2 SLP076 T00391017,KPVD,2014-12-18T07:51:00Z,41.72,-71.43,3.9,-1.7,280,9,,10.0,29.760826,1007.6,,,TRUE,,,,,,,OVC,6000,,,,,,,VFR,,,,,,,,,,,,SPECI,16.0
KPIT 180751Z 27011KT 9SM -SN BKN020 OVC027 M02/M07 A3016 RMK AO2 SLP234 P0000 T10221067,KPIT,2014-12-18T07:51:00Z,40.5,-80.27,-2.2,-6.7,270,11,,9.0,30.159449,1023.4,,,TRUE,,,,,,-SN,BKN,2000,OVC,2700,,,,,MVFR,,,,,,0.0050,,,,,,SPECI,357.0
KPHX 180751Z 11005KT 10SM BKN030 BKN047 12/09 A3011 RMK AO2 SLP190 T01170094,KPHX,2014-12-18T07:51:00Z,33.43,-112.02,11.7,9.4,110,5,,10.0,30.109253,1019.0,,,TRUE,,,,,,,BKN,3000,BKN,4700,,,,,MVFR,,,,,,,,,,,,SPECI,336.0
KJKJ 180751Z AUTO 13004KT 10SM CLR M13/M13 A3030 RMK AO2,KJKJ,2014-12-18T07:51:00Z,46.83,-96.67,-13.0,-13.0,130,4,,10.0,30.301182,,,TRUE,TRUE,,,,,,,CLR,,,,,,,,VFR,,,,,,,,,,,,METAR,280.0
KEVM 180751Z AUTO 06003KT 10SM -SN OVC011 M11/M12 A3031 RMK AO2,KEVM,2014-12-18T07:51:00Z,47.42,-92.5,-11.0,-12.0,60,3,,10.0,30.31004,,,TRUE,TRUE,,,,,,-SN,OVC,1100,,,,,,,MVFR,,,,,,,,,,,,METAR,421.0
KBJI 180751Z AUTO 00000KT 10SM CLR M16/M19 A3027 RMK AO2 T11651188,KBJI,2014-12-18T07:51:00Z,47.5,-94.92,-16.5,-18.8,0,0,,10.0,30.268702,,,TRUE,TRUE,,,,,,,CLR,,,,,,,,VFR,,,,,,,,,,,,METAR,420.0
K21D 180751Z AUTO 00000KT 10SM OVC021 M10/M12 A3032 RMK AO2,K21D,2014-12-18T07:51:00Z,45.0,-92.85,-10.0,-12.0,0,0,,10.0,30.318897,,,TRUE,TRUE,,,,,,,OVC,2100,,,,,,,MVFR,,,,,,,,,,,,METAR,285.0
EGJJ 180750Z 26015KT 2500 -DZ BR FEW001 BKN003 11/11 Q1019 REDZ TEMPO 1200 DZ BKN001,EGJJ,2014-12-18T07:50:00Z,49.22,-2.2,11.0,11.0,260,15,,1.55,30.088583,,,,,,,,,,-DZ BR,FEW,100,BKN,300,,,,,LIFR,,,,,,,,,,,,METAR,84.0
EGSS 180750Z 25017KT 9999 OVC014 12/10 Q1008,EGSS,2014-12-18T07:50:00Z,51.88,0.22,12.0,10.0,250,17,,6.21,29.763779,,,,,,,,,,,OVC,1400,,,,,,,MVFR,,,,,,,,,,,,METAR,106.0
EGPK 180750Z 21013KT 8000 -RA SCT009 BKN015 11/10 Q0995,EGPK,2014-12-18T07:50:00Z,55.5,-4.57,11.0,10.0,210,13,,4.97,29.379921,,,,,,,,,,-RA,SCT,900,BKN,1500,,,,,MVFR,,,,,,,,,,,,METAR,20.0
EGPH 180750Z 25009KT 9999 -RA BKN016 BKN024 10/09 Q0993,EGPH,2014-12-18T07:50:00Z,55.95,-3.35,10.0,9.0,250,9,,6.21,29.320866,,,,,,,,,,-RA,BKN,1600,BKN,2400,,,,,MVFR,,,,,,,,,,,,METAR,41.0
EGPF 180750Z 23013KT 5000 RA SCT010 BKN015 11/10 Q0993 REDZ,EGPF,2014-12-18T07:50:00Z,55.87,-4.42,11.0,10.0,230,13,,3.11,29.320866,,,,,,,,,,RA,SCT,1000,BKN,1500,,,,,MVFR,,,,,,,,,,,,METAR,8.0
EGLL 180750Z 24013KT 9999 FEW011 BKN014 13/11 Q1010 TEMPO SCT014 BKN018,EGLL,2014-12-18T07:50:00Z,51.48,-0.45,13.0,11.0,240,13,,6.21,29.822834,,,,,,,,,,,FEW,1100,BKN,1400,,,,,MVFR,,,,,,,,,,,,METAR,24.0
EGKK 180750Z 22008KT 9999 BKN009 12/11 Q1011,EGKK,2014-12-18T07:50:00Z,51.13,-0.17,12.0,11.0,220,8,,6.21,29.852362,,,,,,,,,,,BKN,900,,,,,,,IFR,,,,,,,,,,,,METAR,62.0
EGCC 180750Z 22016KT 9999 -RA FEW015 SCT020 BKN029 12/10 Q1003,EGCC,2014-12-18T07:50:00Z,53.35,-2.27,12.0,10.0,220,16,,6.21,29.616142,,,,,,,,,,-RA,FEW,1500,SCT,2000,BKN,2900,,,MVFR,,,,,,,,,,,,METAR,78.0
EGBB 180750Z 23011KT 190V260 9999 BKN015 12/10 Q1006,EGBB,2014-12-18T07:50:00Z,52.47,-1.75,12.0,10.0,230,11,,6.21,29.704725,,,,,,,,,,,BKN,1500,,,,,,,MVFR,,,,,,,,,,,,METAR,99.0
EGTE 180750Z 26007KT 230V290 9999 BKN015 13/11 Q1013,EGTE,2014-12-18T07:50:00Z,50.72,-3.42,13.0,11.0,260,7,,6.21,29.911417,,,,,,,,,,,BKN,1500,,,,,,,MVFR,,,,,,,,,,,,METAR,30.0
LSZC 180750Z 23003KT 9999 FEW007 SCT050 OVC075 05/04 Q1020,LSZC,2014-12-18T07:50:00Z,46.97,8.38,5.0,4.0,230,3,,6.21,30.11811,,,,,,,,,,,FEW,700,SCT,5000,OVC,7500,,,VFR,,,,,,,,,,,,METAR,450.0
LSZS 180750Z VRB02KT 9999 FEW040 M06/M06 Q1019,LSZS,2014-12-18T07:50:00Z,46.53,9.88,-6.0,-6.0,0,2,,6.21,30.088583,,,,,,,,,,,FEW,4000,,,,,,,VFR,,,,,,,,,,,,METAR,1706.0
LSZR 180750Z 30003KT 9999 BKN043 07/07 Q1018 NOSIG RMK C,LSZR,2014-12-18T07:50:00Z,47.48,9.57,7.0,7.0,300,3,,6.21,30.059055,,,,,,TRUE,,,,,BKN,4300,,,,,,,VFR,,,,,,,,,,,,METAR,398.0
LSZG 180750Z 23004KT 4000 -RA BR OVC006 06/06 Q1020 NOSIG,LSZG,2014-12-18T07:50:00Z,47.17,7.42,6.0,6.0,230,4,,2.49,30.11811,,,,,,TRUE,,,,-RA BR,OVC,600,,,,,,,IFR,,,,,,,,,,,,METAR,430.0
LSGS 180750Z 00000KT 9999 -RA OVC080 03/02 Q1023,LSGS,2014-12-18T07:50:00Z,46.22,7.32,3.0,2.0,0,0,,6.21,30.206694,,,,,,,,,,-RA,OVC,8000,,,,,,,VFR,,,,,,,,,,,,METAR,481.0
LSGC 180750Z AUTO 24003KT 7000 -DZ OVC006 04/04 Q1019,LSGC,2014-12-18T07:50:00Z,47.08,6.8,4.0,4.0,240,3,,4.35,30.088583,,,TRUE,,,,,,,-DZ,OVC,600,,,,,,,IFR,,,,,,,,,,,,METAR,1027.0
EGYP 180750Z 01013KT 9999 FEW010 BKN120 BKN200 08/07 Q0990 BLU,EGYP,2014-12-18T07:50:00Z,-51.82,-58.45,8.0,7.0,10,13,,6.21,29.232283,,,,,,,,,,,FEW,1000,BKN,12000,BKN,20000,,,VFR,,,,,,,,,,,,METAR,74.0
KQGX 180750Z AUTO 31011KT 9999 CLR 26/14 A3017 RMK AO2 WSHFT 44,KQGX,2014-12-18T07:50:00Z,100.65,-1000.65,26.0,14.0,310,11,,6.21,30.171259,,,TRUE,TRUE,,,,,,,CLR,,,,,,,,VFR,,,,,,,,,,,,SPECI,999.0
ESUD 180750Z AUTO 13003KT 100V170 9000 OVC004/// M08/M09 Q0992,ESUD,2014-12-18T07:50:00Z,64.97,17.7,-8.0,-9.0,130,3,,5.59,29.291338,,,TRUE,,,,,,,,,,,,,,,,,,,,,,,,,,,,METAR,279.0
ESNX 180750Z 12003KT 4300 -FZFG BR SCT002 BKN003 OVC004 M06/M07 Q0991,ESNX,2014-12-18T07:50:00Z,65.58,19.28,-6.0,-7.0,120,3,,2.67,29.26181,,,,,,,,,,-FZFG BR,SCT,200,BKN,300,OVC,400,,,LIFR,,,,,,,,,,,,METAR,379.0
ESNL 180750Z 15004KT 7000 BR OVC002 M06/M08 Q0993,ESNL,2014-12-18T07:50:00Z,64.55,18.72,-6.0,-8.0,150,4,,4.35,29.320866,,,,,,,,,,BR,OVC,200,,,,,,,LIFR,,,,,,,,,,,,METAR,214.0
ESGR 180750Z AUTO 20012KT 6000 -RA BKN010/// BKN023/// 04/03 Q0995,ESGR,2014-12-18T07:50:00Z,58.45,13.97,4.0,3.0,200,12,,3.73,29.379921,,,TRUE,,,,,,,-RA,,,,,,,,,,,,,,,,,,,,,METAR,105.0
ESDF 180750Z 22005KT 8000 BR SCT006 OVC008 04/03 Q1001,ESDF,2014-12-18T07:50:00Z,56.27,15.27,4.0,3.0,220,5,,4.97,29.557087,,,,,,,,,,BR,SCT,600,OVC,800,,,,,IFR,,,,,,,,,,,,METAR,74.0
EGSH 180750Z 23015KT 9999 BKN014 12/11 Q1006 TEMPO SCT014,EGSH,2014-12-18T07:50:00Z,52.68,1.28,12.0,11.0,230,15,,6.21,29.704725,,,,,,,,,,,BKN,1400,,,,,,,MVFR,,,,,,,,,,,,METAR,36.0
ESSL 180750Z 22007KT 180V260 9999 SCT014 BKN022 03/02 Q0996,ESSL,2014-12-18T07:50:00Z,58.38,15.67,3.0,2.0,220,7,,6.21,29.409449,,,,,,,,,,,SCT,1400,BKN,2200,,,,,MVFR,,,,,,,,,,,,METAR,52.0
ESPE 180750Z AUTO 00000KT 9999NDV BR OVC004/// M07/M08 Q0993,ESPE,2014-12-18T07:50:00Z,65.88,20.15,-7.0,-8.0,0,0,,,29.320866,,,TRUE,,,,,,,BR,,,,,,,,,,,,,,,,,,,,,METAR,182.0
ESPA 180750Z 31003KT 9999 BKN012 M05/M05 Q0994,ESPA,2014-12-18T07:50:00Z,65.53,22.12,-5.0,-5.0,310,3,,6.21,29.350393,,,,,,,,,,,BKN,1200,,,,,,,MVFR,,,,,,,,,,,,METAR,34.0
ESCF 180750Z 22009KT 9999 FEW013 OVC025 03/02 Q0996,ESCF,2014-12-18T07:50:00Z,58.38,15.52,3.0,2.0,220,9,,6.21,29.409449,,,,,,,,,,,FEW,1300,OVC,2500,,,,,MVFR,,,,,,,,,,,,METAR,117.0
EGCN 180750Z 20009KT 9999 SCT014 OVC018 13/11 Q1003,EGCN,2014-12-18T07:50:00Z,53.48,-1.0,13.0,11.0,200,9,,6.21,29.616142,,,,,,,,,,,SCT,1400,OVC,1800,,,,,MVFR,,,,,,,,,,,,METAR,17.0
EGBJ 180750Z 22012KT 9999 FEW009 SCT016 12/11 Q1008,EGBJ,2014-12-18T07:50:00Z,51.9,-2.17,12.0,11.0,220,12,,6.21,29.763779,,,,,,,,,,,FEW,900,SCT,1600,,,,,VFR,,,,,,,,,,,,METAR,29.0
EGBE 180750Z 22011KT 9999 FEW015 BKN020 12/11 Q1006,EGBE,2014-12-18T07:50:00Z,52.37,-1.47,12.0,11.0,220,11,,6.21,29.704725,,,,,,,,,,,FEW,1500,BKN,2000,,,,,MVFR,,,,,,,,,,,,METAR,82.0
ESKN 180750Z 21008KT 8000 -RA BR BKN014 01/01 Q0996 R26/710145,ESKN,2014-12-18T07:50:00Z,58.78,16.9,1.0,1.0,210,8,,4.97,29.409449,,,,,,,,,,-RA BR,BKN,1400,,,,,,,MVFR,,,,,,,,,,,,METAR,43.0
ESSV 180750Z 18006KT 9999 SCT010 BKN027 02/02 Q0999,ESSV,2014-12-18T07:50:00Z,57.67,18.35,2.0,2.0,180,6,,6.21,29.498032,,,,,,,,,,,SCT,1000,BKN,2700,,,,,MVFR,,,,,,,,,,,,METAR,47.0
ESSP 180750Z 20007KT 9000 BR BKN018 OVC026 02/01 Q0996 R27/19//95,ESSP,2014-12-18T07:50:00Z,58.57,16.25,2.0,1.0,200,7,,5.59,29.409449,,,,,,,,,,BR,BKN,1800,OVC,2600,,,,,MVFR,,,,,,,,,,,,METAR,8.0
ESSD 180750Z 22005KT 9999 BKN008 M02/M03 Q0992,ESSD,2014-12-18T07:50:00Z,60.42,15.5,-2.0,-3.0,220,5,,6.21,29.291338,,,,,,,,,,,BKN,800,,,,,,,IFR,,,,,,,,,,,,METAR,161.0
ESSB 180750Z 17005KT 9999 SCT008 BKN035 BKN057 01/01 Q0996 R12/29//76,ESSB,2014-12-18T07:50:00Z,59.35,17.93,1.0,1.0,170,5,,6.21,29.409449,,,,,,,,,,,SCT,800,BKN,3500,BKN,5700,,,VFR,,,,,,,,,,,,METAR,11.0
ESSA 180750Z 17009KT 4000 -SN BKN004 00/00 Q0995 R01L/29//64 R08/////// R01R/29//62 TEMPO 2000 SN BKN004,ESSA,2014-12-18T07:50:00Z,59.63,17.93,0.0,0.0,170,9,,2.49,29.379921,,,,,,,,,,-SN,BKN,400,,,,,,,LIFR,,,,,,,,,,,,METAR,61.0
ESOW 180750Z 18007KT 150V210 4500 DZ OVC004 01/00 Q0995 R19/490393,ESOW,2014-12-18T07:50:00Z,59.57,16.62,1.0,0.0,180,7,,2.8,29.379921,,,,,,,,,,DZ,OVC,400,,,,,,,LIFR,,,,,,,,,,,,METAR,31.0
ESOK 180750Z 24007KT 9999 FEW007 BKN009 03/02 Q0993,ESOK,2014-12-18T07:50:00Z,59.45,13.33,3.0,2.0,240,7,,6.21,29.320866,,,,,,,,,,,FEW,700,BKN,900,,,,,IFR,,,,,,,,,,,,METAR,107.0
ESOE 180750Z 22010KT 9999 BKN011 OVC022 03/03 Q0994,ESOE,2014-12-18T07:50:00Z,59.22,15.05,3.0,3.0,220,10,,6.21,29.350393,,,,,,,,,,,BKN,1100,OVC,2200,,,,,MVFR,,,,,,,,,,,,METAR,57.0
EGPD 180750Z 16003KT CAVOK 04/03 Q0991 NOSIG,EGPD,2014-12-18T07:50:00Z,57.2,-2.22,4.0,3.0,160,3,,6.21,29.26181,,,,,,TRUE,,,,,CAVOK,,,,,,,,VFR,,,,,,,,,,,,METAR,65.0
EGNX 180750Z 22017KT 9999 BKN015 12/10 Q1005,EGNX,2014-12-18T07:50:00Z,52.82,-1.32,12.0,10.0,220,17,,6.21,29.675198,,,,,,,,,,,BKN,1500,,,,,,,MVFR,,,,,,,,,,,,METAR,94.0
EGNM 180750Z 23011KT 200V270 4000 -RADZ BKN012 11/10 Q1000,EGNM,2014-12-18T07:50:00Z,53.87,-1.63,11.0,10.0,230,11,,2.49,29.52756,,,,,,,,,,-RA -DZ,BKN,1200,,,,,,,IFR,,,,,,,,,,,,METAR,208.0
EGLC 180750Z 25015KT 9999 SCT010 BKN016 13/11 Q1009,EGLC,2014-12-18T07:50:00Z,51.5,0.05,13.0,11.0,250,15,,6.21,29.793306,,,,,,,,,,,SCT,1000,BKN,1600,,,,,MVFR,,,,,,,,,,,,METAR,5.0
EGGW 180750Z 24017KT 9999 BKN011 12/10 Q1008,EGGW,2014-12-18T07:50:00Z,51.87,-0.37,12.0,10.0,240,17,,6.21,29.763779,,,,,,,,,,,BKN,1100,,,,,,,MVFR,,,,,,,,,,,,METAR,160.0
EGFF 180750Z 26017KT 3500 RA BR BKN002 11/11 Q1011,EGFF,2014-12-18T07:50:00Z,51.38,-3.35,11.0,11.0,260,17,,2.17,29.852362,,,,,,,,,,RA BR,BKN,200,,,,,,,LIFR,,,,,,,,,,,,METAR,67.0
EGAC 180750Z 22020KT 9999 -DZ FEW008 BKN012 12/11 Q0996,EGAC,2014-12-18T07:50:00Z,54.62,-5.87,12.0,11.0,220,20,,6.21,29.409449,,,,,,,,,,-DZ,FEW,800,BKN,1200,,,,,MVFR,,,,,,,,,,,,METAR,5.0
EGAA 180750Z 22014KT 9999 -RA BKN007 BKN016 11/11 Q0996,EGAA,2014-12-18T07:50:00Z,54.63,-6.22,11.0,11.0,220,14,,6.21,29.409449,,,,,,,,,,-RA,BKN,700,BKN,1600,,,,,IFR,,,,,,,,,,,,METAR,81.0
EGTK 180750Z 24020KT 9999 OVC010 12/11 Q1008,EGTK,2014-12-18T07:50:00Z,51.83,-1.32,12.0,11.0,240,20,,6.21,29.763779,,,,,,,,,,,OVC,1000,,,,,,,MVFR,,,,,,,,,,,,METAR,82.0
EGTC 180750Z 24016KT 9999 BKN011 12/11 Q1007,EGTC,2014-12-18T07:50:00Z,52.07,-0.62,12.0,11.0,240,16,,6.21,29.734253,,,,,,,,,,,BKN,1100,,,,,,,MVFR,,,,,,,,,,,,METAR,111.0
EGMC 180750Z 24013KT 9999 BKN011 13/10 Q1009,EGMC,2014-12-18T07:50:00Z,51.57,0.7,13.0,10.0,240,13,,6.21,29.793306,,,,,,,,,,,BKN,1100,,,,,,,MVFR,,,,,,,,,,,,METAR,15.0
EGLF 180750Z 25012KT 9999 BKN011 12/10 Q1010,EGLF,2014-12-18T07:50:00Z,51.28,-0.77,12.0,10.0,250,12,,6.21,29.822834,,,,,,,,,,,BKN,1100,,,,,,,MVFR,,,,,,,,,,,,METAR,65.0
EGKB 180750Z 25014G25KT 220V280 9999 -DZ BKN010 12/10 Q1010,EGKB,2014-12-18T07:50:00Z,51.32,0.02,12.0,10.0,250,14,25,6.21,29.822834,,,,,,,,,,-DZ,BKN,1000,,,,,,,MVFR,,,,,,,,,,,,METAR,183.0
EGKA 180750Z 24010KT 6000 -DZ FEW008 BKN010 12/11 Q1012,EGKA,2014-12-18T07:50:00Z,50.83,-0.3,12.0,11.0,240,10,,3.73,29.88189,,,,,,,,,,-DZ,FEW,800,BKN,1000,,,,,MVFR,,,,,,,,,,,,METAR,2.0
EGHH 180750Z 26013KT 9999 BKN009 12/11 Q1012,EGHH,2014-12-18T07:50:00Z,50.78,-1.83,12.0,11.0,260,13,,6.21,29.88189,,,,,,,,,,,BKN,900,,,,,,,IFR,,,,,,,,,,,,METAR,11.0
EGPE 180750Z 25011KT 9999 -SHRA FEW012 SCT035 07/05 Q0990,EGPE,2014-12-18T07:50:00Z,57.52,-4.03,7.0,5.0,250,11,,6.21,29.232283,,,,,,,,,,-SHRA,FEW,1200,SCT,3500,,,,,VFR,,,,,,,,,,,,METAR,9.0
EGNR 180750Z 21011KT 9999 -SHRA FEW010 SCT015 14/12 Q1003,EGNR,2014-12-18T07:50:00Z,53.17,-2.97,14.0,12.0,210,11,,6.21,29.616142,,,,,,,,,,-SHRA,FEW,1000,SCT,1500,,,,,VFR,,,,,,,,,,,,METAR,10.0
EGNJ 180750Z 22015KT 9999 FEW018 BKN025 12/11 Q1003,EGNJ,2014-12-18T07:50:00Z,53.57,-0.35,12.0,11.0,220,15,,6.21,29.616142,,,,,,,,,,,FEW,1800,BKN,2500,,,,,MVFR,,,,,,,,,,,,METAR,31.0
EGPB 180750Z 26016KT 7000 -SHRA FEW011 SCT018 BKN024 06/04 Q0985 NOSIG,EGPB,2014-12-18T07:50:00Z,59.87,-1.3,6.0,4.0,260,16,,4.35,29.084646,,,,,,TRUE,,,,-SHRA,FEW,1100,SCT,1800,BKN,2400,,,MVFR,,,,,,,,,,,,METAR,5.0
EGHI 180750Z 25012KT 220V280 9999 BKN009 12/11 Q1011,EGHI,2014-12-18T07:50:00Z,50.95,-1.35,12.0,11.0,250,12,,6.21,29.852362,,,,,,,,,,,BKN,900,,,,,,,IFR,,,,,,,,,,,,METAR,14.0
EGNV 180750Z 22014KT 9999 FEW017 BKN023 12/09 Q0999,EGNV,2014-12-18T07:50:00Z,54.52,-1.42,12.0,9.0,220,14,,6.21,29.498032,,,,,,,,,,,FEW,1700,BKN,2300,,,,,MVFR,,,,,,,,,,,,METAR,37.0
EGNT 180750Z 23006KT 190V260 9999 BKN015 11/09 Q0997,EGNT,2014-12-18T07:50:00Z,55.02,-1.7,11.0,9.0,230,6,,6.21,29.438976,,,,,,,,,,,BKN,1500,,,,,,,MVFR,,,,,,,,,,,,METAR,81.0
EGNS 180750Z 22023KT 9999 -RADZ FEW009 BKN015 12/11 Q0999 NOSIG,EGNS,2014-12-18T07:50:00Z,54.08,-4.63,12.0,11.0,220,23,,6.21,29.498032,,,,,,TRUE,,,,-RA -DZ,FEW,900,BKN,1500,,,,,MVFR,,,,,,,,,,,,METAR,17.0
EGGP 180750Z 21014KT 9999 -RA BKN018 12/10 Q1003,EGGP,2014-12-18T07:50:00Z,53.32,-2.85,12.0,10.0,210,14,,6.21,29.616142,,,,,,,,,,-RA,BKN,1800,,,,,,,MVFR,,,,,,,,,,,,METAR,26.0
EGGD 180750Z 25017KT 9999 -RA SCT002 BKN003 10/10 Q1011,EGGD,2014-12-18T07:50:00Z,51.37,-2.72,10.0,10.0,250,17,,6.21,29.852362,,,,,,,,,,-RA,SCT,200,BKN,300,,,,,LIFR,,,,,,,,,,,,METAR,189.0
LSMS 180750Z 00000KT 9999 -RA OVC080 03/02 Q1023,LSMS,2014-12-18T07:50:00Z,46.22,7.32,3.0,2.0,0,0,,6.21,30.206694,,,,,,,,,,-RA,OVC,8000,,,,,,,VFR,,,,,,,,,,,,METAR,481.0
EGPM 180750Z 26019KT 9999 FEW024 05/02 Q0984 NOSIG,EGPM,2014-12-18T07:50:00Z,60.42,-1.3,5.0,2.0,260,19,,6.21,29.055119,,,,,,TRUE,,,,,FEW,2400,,,,,,,VFR,,,,,,,,,,,,METAR,22.0
EGPO 180750Z 22011KT 9999 FEW018 05/03 Q0988,EGPO,2014-12-18T07:50:00Z,58.22,-6.32,5.0,3.0,220,11,,6.21,29.17323,,,,,,,,,,,FEW,1800,,,,,,,VFR,,,,,,,,,,,,METAR,13.0
EGPL 180750Z 27020KT 9000 SHRA SCT015 BKN022 09/05 Q0991,EGPL,2014-12-18T07:50:00Z,57.47,-7.37,9.0,5.0,270,20,,5.59,29.26181,,,,,,,,,,SHRA,SCT,1500,BKN,2200,,,,,MVFR,,,,,,,,,,,,METAR,6.0
EGPC 180750Z 25010KT 9999 FEW026 SCT034 06/03 Q0989,EGPC,2014-12-18T07:50:00Z,58.45,-3.07,6.0,3.0,250,10,,6.21,29.202755,,,,,,,,,,,FEW,2600,SCT,3400,,,,,VFR,,,,,,,,,,,,METAR,39.0
EGPA 180750Z 26011KT 9999 -SHRA FEW014 SCT018 BKN032 06/05 Q0987,EGPA,2014-12-18T07:50:00Z,58.95,-2.88,6.0,5.0,260,11,,6.21,29.143702,,,,,,,,,,-SHRA,FEW,1400,SCT,1800,BKN,3200,,,VFR,,,,,,,,,,,,METAR,21.0
ESUT 180750Z AUTO 16010KT 9999 NCD M07/M09 Q0988,ESUT,2014-12-18T07:50:00Z,65.8,15.08,-7.0,-9.0,160,10,,6.21,29.17323,,,TRUE,,,,,,,,,,,,,,,,,,,,,,,,,,,,METAR,463.0
ESNZ 180750Z 16003KT 9999 FEW008 M08/M09 Q0988,ESNZ,2014-12-18T07:50:00Z,63.17,14.5,-8.0,-9.0,160,3,,6.21,29.17323,,,,,,,,,,,FEW,800,,,,,,,VFR,,,,,,,,,,,,METAR,370.0
ESNU 180750Z VRB02KT 9999 OVC011 M04/M05 Q0994 R14/39//46,ESNU,2014-12-18T07:50:00Z,63.78,20.27,-4.0,-5.0,0,2,,6.21,29.350393,,,,,,,,,,,OVC,1100,,,,,,,MVFR,,,,,,,,,,,,METAR,14.0
ESNS 180750Z 34002KT 9999 SCT013 OVC025 M04/M05 Q0994,ESNS,2014-12-18T07:50:00Z,64.62,21.07,-4.0,-5.0,340,2,,6.21,29.350393,,,,,,,,,,,SCT,1300,OVC,2500,,,,,MVFR,,,,,,,,,,,,METAR,49.0
ESNQ 180750Z 00000KT 9999 -SN BKN039 M09/M09 Q0990,ESNQ,2014-12-18T07:50:00Z,67.82,20.32,-9.0,-9.0,0,0,,6.21,29.232283,,,,,,,,,,-SN,BKN,3900,,,,,,,VFR,,,,,,,,,,,,METAR,452.0
ESNO 180750Z 05003KT 010V090 9999 -SN FEW004 BKN009 OVC012 M05/M05 Q0993 RESG,ESNO,2014-12-18T07:50:00Z,63.38,18.97,-5.0,-5.0,50,3,,6.21,29.320866,,,,,,,,,,-SN,FEW,400,BKN,900,OVC,1200,,,IFR,,,,,,,,,,,,METAR,103.0
ESNN 180750Z 00000KT 2900 SN BKN025 M06/M06 Q0993 R16/79//37,ESNN,2014-12-18T07:50:00Z,62.52,17.43,-6.0,-6.0,0,0,,1.8,29.320866,,,,,,,,,,SN,BKN,2500,,,,,,,IFR,,,,,,,,,,,,METAR,10.0
ESNK 180750Z 29002KT 3000 R17/P2000N R35/P2000N -SN SCT006 BKN013 M04/M05 Q0993,ESNK,2014-12-18T07:50:00Z,63.03,17.77,-4.0,-5.0,290,2,,1.86,29.320866,,,,,,,,,,-SN,SCT,600,BKN,1300,,,,,IFR,,,,,,,,,,,,METAR,19.0
EGWU 180750Z 27015KT 9999 -DZ BKN012 OVC015 13/10 Q1010 TEMPO FEW012,EGWU,2014-12-18T07:50:00Z,51.55,-0.42,13.0,10.0,270,15,,6.21,29.822834,,,,,,,,,,-DZ,BKN,1200,OVC,1500,,,,,MVFR,,,,,,,,,,,,METAR,40.0
EGVN 180750Z 25013G25KT 9999 OVC010 12/10 Q1009 NOSIG,EGVN,2014-12-18T07:50:00Z,51.77,-1.58,12.0,10.0,250,13,25,6.21,29.793306,,,,,,TRUE,,,,,OVC,1000,,,,,,,MVFR,,,,,,,,,,,,METAR,88.0
LGZA 180750Z 27004KT 9999 SCT018TCU SCT020 BKN080 12/12 Q1016,LGZA,2014-12-18T07:50:00Z,37.75,20.87,12.0,12.0,270,4,,6.21,30.0,,,,,,,,,,,SCT,1800,SCT,2000,BKN,8000,,,VFR,,,,,,,,,,,,METAR,3.0
LGSR 180750Z 27011KT 9999 SCT020 18/10 Q1017,LGSR,2014-12-18T07:50:00Z,36.4,25.48,18.0,10.0,270,11,,6.21,30.029528,,,,,,,,,,,SCT,2000,,,,,,,VFR,,,,,,,,,,,,METAR,40.0
LGRX 180750Z VRB03KT 9999 -RA FEW010 FEW018TCU BKN030 BKN070 11/10 Q1016,LGRX,2014-12-18T07:50:00Z,38.17,21.42,11.0,10.0,0,3,,6.21,30.0,,,,,,,,,,-RA,FEW,1000,FEW,1800,BKN,3000,BKN,7000,MVFR,,,,,,,,,,,,METAR,15.0
LGPZ 180750Z 06007KT 9999 FEW020 SCT070 12/09 Q1017,LGPZ,2014-12-18T07:50:00Z,38.92,20.77,12.0,9.0,60,7,,6.21,30.029528,,,,,,,,,,,FEW,2000,SCT,7000,,,,,VFR,,,,,,,,,,,,METAR,4.0
LGMT 180750Z 00000KT 9999 FEW018 SCT020 15/10 Q1016,LGMT,2014-12-18T07:50:00Z,39.05,26.6,15.0,10.0,0,0,,6.21,30.0,,,,,,,,,,,FEW,1800,SCT,2000,,,,,VFR,,,,,,,,,,,,METAR,17.0
LGKV 180750Z 00000KT 6000 FEW006 10/10 Q1016,LGKV,2014-12-18T07:50:00Z,40.92,24.62,10.0,10.0,0,0,,3.73,30.0,,,,,,,,,,,FEW,600,,,,,,,MVFR,,,,,,,,,,,,METAR,5.0
LGIO 180750Z VRB01KT 0200 FG VV006 03/03 Q1017,LGIO,2014-12-18T07:50:00Z,39.7,20.82,3.0,3.0,0,1,,0.12,30.029528,,,,,,,,,,FG,OVX,0,,,,,,,LIFR,,,,,,,,,,,600,METAR,476.0
LGEL 180750Z 00000KT 9999 FEW020 BKN070 12/09 Q1016,LGEL,2014-12-18T07:50:00Z,38.07,23.55,12.0,9.0,0,0,,6.21,30.0,,,,,,,,,,,FEW,2000,BKN,7000,,,,,VFR,,,,,,,,,,,,METAR,31.0
LGAL 180750Z 00000KT 8000 FEW008 SCT018 10/09 Q1015,LGAL,2014-12-18T07:50:00Z,40.85,25.95,10.0,9.0,0,0,,4.97,29.970472,,,,,,,,,,,FEW,800,SCT,1800,,,,,MVFR,,,,,,,,,,,,METAR,3.0
LGAD 180750Z 12009KT 9000 -RA FEW018TCU BKN030 BKN080 10/09 Q1016,LGAD,2014-12-18T07:50:00Z,37.92,21.27,10.0,9.0,120,9,,5.59,30.0,,,,,,,,,,-RA,FEW,1800,BKN,3000,BKN,8000,,,MVFR,,,,,,,,,,,,METAR,12.0
LGTS 180750Z 00000KT 0200 R16/1100 R34/900 FG OVC002 08/07 Q1017 NOSIG,LGTS,2014-12-18T07:50:00Z,40.52,22.97,8.0,7.0,0,0,,0.12,30.029528,,,,,,TRUE,,,,FG,OVC,200,,,,,,,LIFR,,,,,,,,,,,,METAR,7.0
LGSM 180750Z VRB02KT 9999 SCT018 14/11 Q1017,LGSM,2014-12-18T07:50:00Z,37.68,26.92,14.0,11.0,0,2,,6.21,30.029528,,,,,,,,,,,SCT,1800,,,,,,,VFR,,,,,,,,,,,,METAR,6.0
LGSA 180750Z 31004KT 9999 FEW020 16/09 Q1017,LGSA,2014-12-18T07:50:00Z,35.53,24.13,16.0,9.0,310,4,,6.21,30.029528,,,,,,,,,,,FEW,2000,,,,,,,VFR,,,,,,,,,,,,METAR,135.0
LGLM 180750Z 00000KT 9999 FEW015 SCT080 12/11 Q1016,LGLM,2014-12-18T07:50:00Z,39.92,25.23,12.0,11.0,0,0,,6.21,30.0,,,,,,,,,,,FEW,1500,SCT,8000,,,,,VFR,,,,,,,,,,,,METAR,5.0
LGKO 180750Z 28008KT 9999 FEW018 16/10 Q1017,LGKO,2014-12-18T07:50:00Z,36.8,27.08,16.0,10.0,280,8,,6.21,30.029528,,,,,,,,,,,FEW,1800,,,,,,,VFR,,,,,,,,,,,,METAR,125.0
LGKL 180750Z 00004KT 2000 -TSRA BR FEW020CB SCT025 BKN080 11/10 Q1016,LGKL,2014-12-18T07:50:00Z,37.07,22.02,11.0,10.0,0,4,,1.24,30.0,,,,,,,,,,-TSRA BR,FEW,2000,SCT,2500,BKN,8000,,,IFR,,,,,,,,,,,,METAR,8.0
EGSC 180750Z 23016KT 200V260 9999 SCT021 12/10 Q1007,EGSC,2014-12-18T07:50:00Z,52.2,0.17,12.0,10.0,230,16,,6.21,29.734253,,,,,,,,,,,SCT,2100,,,,,,,VFR,,,,,,,,,,,,METAR,15.0
EGAE 180750Z 23017KT 9000 -RA FEW010 OVC013 12/11 Q0994,EGAE,2014-12-18T07:50:00Z,55.03,-7.15,12.0,11.0,230,17,,5.59,29.350393,,,,,,,,,,-RA,FEW,1000,OVC,1300,,,,,MVFR,,,,,,,,,,,,METAR,9.0
LGSO 180750Z 27007KT 9999 FEW020 16/10 Q1016,LGSO,2014-12-18T07:50:00Z,37.42,24.95,16.0,10.0,270,7,,6.21,30.0,,,,,,,,,,,FEW,2000,,,,,,,VFR,,,,,,,,,,,,METAR,72.0
LGPA 180750Z 31005KT 9999 FEW025 18/12 Q1017,LGPA,2014-12-18T07:50:00Z,37.0,25.13,18.0,12.0,310,5,,6.21,30.029528,,,,,,,,,,,FEW,2500,,,,,,,VFR,,,,,,,,,,,,METAR,36.0
LGNX 180750Z VRB03KT 9999 FEW020 17/12 Q1017,LGNX,2014-12-18T07:50:00Z,37.08,25.37,17.0,12.0,0,3,,6.21,30.029528,,,,,,,,,,,FEW,2000,,,,,,,VFR,,,,,,,,,,,,METAR,4.0
LGMK 180750Z 26005KT 9999 FEW020 15/10 Q1016,LGMK,2014-12-18T07:50:00Z,37.43,25.35,15.0,10.0,260,5,,6.21,30.0,,,,,,,,,,,FEW,2000,,,,,,,VFR,,,,,,,,,,,,METAR,123.0
LGKZ 180750Z 00000KT 9999 FEW002 06/05 Q1016,LGKZ,2014-12-18T07:50:00Z,40.28,21.83,6.0,5.0,0,0,,6.21,30.0,,,,,,,,,,,FEW,200,,,,,,,VFR,,,,,,,,,,,,METAR,628.0
LGKP 180750Z 26005KT 9999 FEW025 SCT080 19/12 Q1017,LGKP,2014-12-18T07:50:00Z,35.42,27.15,19.0,12.0,260,5,,6.21,30.029528,,,,,,,,,,,FEW,2500,SCT,8000,,,,,VFR,,,,,,,,,,,,METAR,20.0
LGKF 180750Z 10007KT 9999 FEW016 SCT025 BKN080 13/11 Q1016,LGKF,2014-12-18T07:50:00Z,38.12,20.5,13.0,11.0,100,7,,6.21,30.0,,,,,,,,,,,FEW,1600,SCT,2500,BKN,8000,,,VFR,,,,,,,,,,,,METAR,18.0
LGKC 180750Z /////KT 9999 FEW020 SCT080 13/12 Q1017,LGKC,2014-12-18T07:50:00Z,36.28,23.02,13.0,12.0,,,,6.21,30.029528,,,,,,,,,,,FEW,2000,SCT,8000,,,,,VFR,,,,,,,,,,,,METAR,319.0
LGHI 180750Z VRB03KT 9999 FEW020 16/11 Q1015,LGHI,2014-12-18T07:50:00Z,38.32,26.12,16.0,11.0,0,3,,6.21,29.970472,,,,,,,,,,,FEW,2000,,,,,,,VFR,,,,,,,,,,,,METAR,4.0
LGBL 180750Z 27004KT 9999 FEW040 BKN180 08/07 Q1016,LGBL,2014-12-18T07:50:00Z,39.22,22.8,8.0,7.0,270,4,,6.21,30.0,,,,,,,,,,,FEW,4000,BKN,18000,,,,,VFR,,,,,,,,,,,,METAR,26.0
LIPZ 180750Z 32005KT 9999 FEW020 08/06 Q1018,LIPZ,2014-12-18T07:50:00Z,45.5,12.35,8.0,6.0,320,5,,6.21,30.059055,,,,,,,,,,,FEW,2000,,,,,,,VFR,,,,,,,,,,,,METAR,6.0
EFVR 180750Z AUTO 30003KT 8000 BKN007 OVC012 M02/M03 Q0994,EFVR,2014-12-18T07:50:00Z,62.17,27.87,-2.0,-3.0,300,3,,4.97,29.350393,,,TRUE,,,,,,,,BKN,700,OVC,1200,,,,,IFR,,,,,,,,,,,,METAR,87.0
EFUT 180750Z 23006KT 9999 FEW008 SCT016 BKN036 M01/M02 Q0996,EFUT,2014-12-18T07:50:00Z,60.88,26.92,-1.0,-2.0,230,6,,6.21,29.409449,,,,,,,,,,,FEW,800,SCT,1600,BKN,3600,,,VFR,,,,,,,,,,,,METAR,100.0
EFSA 180750Z AUTO 24005KT 210V280 6000 -SN OVC009 M02/M03 Q0994,EFSA,2014-12-18T07:50:00Z,61.95,28.93,-2.0,-3.0,240,5,,3.73,29.350393,,,TRUE,,,,,,,-SN,OVC,900,,,,,,,IFR,,,,,,,,,,,,METAR,95.0
EFMI 180750Z AUTO 26005KT 9999 BKN017 OVC045 M01/M02 Q0995,EFMI,2014-12-18T07:50:00Z,61.68,27.2,-1.0,-2.0,260,5,,6.21,29.379921,,,TRUE,,,,,,,,BKN,1700,OVC,4500,,,,,MVFR,,,,,,,,,,,,METAR,138.0
EFLP 180750Z AUTO 26007KT 9999 FEW010 BKN023 M01/M02 Q0995,EFLP,2014-12-18T07:50:00Z,61.07,28.13,-1.0,-2.0,260,7,,6.21,29.379921,,,TRUE,,,,,,,,FEW,1000,BKN,2300,,,,,MVFR,,,,,,,,,,,,METAR,106.0
EFJO 180750Z 27008KT 230V300 9999 OVC008 M03/M03 Q0992,EFJO,2014-12-18T07:50:00Z,62.67,29.62,-3.0,-3.0,270,8,,6.21,29.291338,,,,,,,,,,,OVC,800,,,,,,,IFR,,,,,,,,,,,,METAR,117.0
LXGB 180750Z 25007KT CAVOK 12/10 Q1026 NOSIG,LXGB,2014-12-18T07:50:00Z,36.13,-5.33,12.0,10.0,250,7,,6.21,30.295275,,,,,,TRUE,,,,,CAVOK,,,,,,,,VFR,,,,,,,,,,,,METAR,5.0
ESNG 180750Z 30002KT 9999 OVC030 M10/M11 Q0991,ESNG,2014-12-18T07:50:00Z,67.13,20.82,-10.0,-11.0,300,2,,6.21,29.26181,,,,,,,,,,,OVC,3000,,,,,,,MVFR,,,,,,,,,,,,METAR,310.0
ENSH 180750Z 07018KT CAVOK 01/M06 Q0988,ENSH,2014-12-18T07:50:00Z,68.25,14.67,1.0,-6.0,70,18,,6.21,29.17323,,,,,,,,,,,CAVOK,,,,,,,,VFR,,,,,,,,,,,,METAR,9.0
ENRA 180750Z 10010G20KT CAVOK M04/M09 Q0989,ENRA,2014-12-18T07:50:00Z,66.37,14.3,-4.0,-9.0,100,10,20,6.21,29.202755,,,,,,,,,,,CAVOK,,,,,,,,VFR,,,,,,,,,,,,METAR,70.0
ENHF 180750Z VRB02KT 9999 FEW043 M03/M05 Q0993 RMK WIND 1254FT 19005KT,ENHF,2014-12-18T07:50:00Z,70.67,23.67,-3.0,-5.0,0,2,,6.21,29.320866,,,,,,,,,,,FEW,4300,,,,,,,VFR,,,,,,,,,,,,METAR,81.0
ENFG 180750Z VRB01KT 0300 FZFG NSC M12/M13 Q0987,ENFG,2014-12-18T07:50:00Z,61.0,9.3,-12.0,-13.0,0,1,,0.19,29.143702,,,,,,,,,,FZFG,,,,,,,,,,,,,,,,,,,,,METAR,822.0
ENBV 180750Z 05015KT 9999 -SHSN SCT025 BKN042 01/M06 Q0992,ENBV,2014-12-18T07:50:00Z,70.87,29.02,1.0,-6.0,50,15,,6.21,29.291338,,,,,,,,,,-SHSN,SCT,2500,BKN,4200,,,,,VFR,,,,,,,,,,,,METAR,13.0
ENBN 180750Z 12011G23KT 060V200 9999 VCSH FEW015 BKN028 01/M03 Q0986,ENBN,2014-12-18T07:50:00Z,65.47,12.22,1.0,-3.0,120,11,23,6.21,29.114174,,,,,,,,,,VCSH,FEW,1500,BKN,2800,,,,,MVFR,,,,,,,,,,,,METAR,9.0
ENTO 180750Z 23003KT 8000 FEW001 BKN110 M01/M01 Q0993,ENTO,2014-12-18T07:50:00Z,59.2,10.27,-1.0,-1.0,230,3,,4.97,29.320866,,,,,,,,,,,FEW,100,BKN,11000,,,,,MVFR,,,,,,,,,,,,METAR,88.0
ENTC 180750Z VRB02KT CAVOK M09/M11 Q0992 NOSIG,ENTC,2014-12-18T07:50:00Z,69.68,18.92,-9.0,-11.0,0,2,,6.21,29.291338,,,,,,TRUE,,,,,CAVOK,,,,,,,,VFR,,,,,,,,,,,,METAR,10.0
ENSB 180750Z 35011KT 9999 SCT027 M08/M14 Q0999 NOSIG RMK WIND 1400FT 34011KT,ENSB,2014-12-18T07:50:00Z,78.25,15.47,-8.0,-14.0,350,11,,6.21,29.498032,,,,,,TRUE,,,,,SCT,2700,,,,,,,VFR,,,,,,,,,,,,METAR,29.0
ENRY 180750Z 14003KT 1100 R12/P2000N R30/P2000N OVC001 M00/M00 Q0993 TEMPO 2000 BR,ENRY,2014-12-18T07:50:00Z,59.37,10.77,0.0,0.0,140,3,,0.68,29.320866,,,,,,,,,,,OVC,100,,,,,,,LIFR,,,,,,,,,,,,METAR,53.0
ENRO 180750Z VRB01KT 9999 FEW003 M17/M19 Q0987,ENRO,2014-12-18T07:50:00Z,62.57,11.33,-17.0,-19.0,0,1,,6.21,29.143702,,,,,,,,,,,FEW,300,,,,,,,VFR,,,,,,,,,,,,METAR,626.0
ENHD 180750Z 23020KT 9999 FEW018 SCT025 BKN053 09/06 Q0990,ENHD,2014-12-18T07:50:00Z,59.35,5.22,9.0,6.0,230,20,,6.21,29.232283,,,,,,,,,,,FEW,1800,SCT,2500,BKN,5300,,,VFR,,,,,,,,,,,,METAR,24.0
ENCN 180750Z 05005KT 9999 FEW001 SCT021 BKN047 00/M00 Q0994,ENCN,2014-12-18T07:50:00Z,58.2,8.07,0.0,0.0,50,5,,6.21,29.350393,,,,,,,,,,,FEW,100,SCT,2100,BKN,4700,,,VFR,,,,,,,,,,,,METAR,17.0
ENAL 180750Z 18008KT 130V210 9999 -RA FEW012 SCT021 BKN027 05/02 Q0982,ENAL,2014-12-18T07:50:00Z,62.57,6.12,5.0,2.0,180,8,,6.21,28.996063,,,,,,,,,,-RA,FEW,1200,SCT,2100,BKN,2700,,,MVFR,,,,,,,,,,,,METAR,22.0
LGRP 180750Z 21005KT 9999 FEW018TCU SCT025 17/13 Q1016 NOSIG,LGRP,2014-12-18T07:50:00Z,36.4,28.08,17.0,13.0,210,5,,6.21,30.0,,,,,,TRUE,,,,,FEW,1800,SCT,2500,,,,,VFR,,,,,,,,,,,,METAR,5.0
LGKR 180750Z 00000KT 9999 FEW025 12/09 Q1016 NOSIG,LGKR,2014-12-18T07:50:00Z,39.62,19.92,12.0,9.0,0,0,,6.21,30.0,,,,,,TRUE,,,,,FEW,2500,,,,,,,VFR,,,,,,,,,,,,METAR,2.0
LGIR 180750Z 17006KT 9999 FEW025 17/11 Q1018 NOSIG,LGIR,2014-12-18T07:50:00Z,35.32,25.17,17.0,11.0,170,6,,6.21,30.059055,,,,,,TRUE,,,,,FEW,2500,,,,,,,VFR,,,,,,,,,,,,METAR,39.0
LGAV 180750Z VRB01KT 9999 FEW025 BKN100 14/08 Q1017 NOSIG,LGAV,2014-12-18T07:50:00Z,37.93,23.95,14.0,8.0,0,1,,6.21,30.029528,,,,,,TRUE,,,,,FEW,2500,BKN,10000,,,,,VFR,,,,,,,,,,,,METAR,94.0
ENLA 180750Z AUTO 23024KT 9999NDV FEW025/// BKN130/// 09/09 Q0993 W///S4,ENLA,2014-12-18T07:50:00Z,59.1,2.83,9.0,9.0,230,24,,,29.320866,,,TRUE,,,,,,,,,,,,,,,,,,,,,,,,,,,,METAR,4.0
ENVH 180750Z AUTO 23025KT 9999NDV FEW038/// BKN085/// BKN130/// 09/09 Q0996 W///S4,ENVH,2014-12-18T07:50:00Z,56.27,3.38,9.0,9.0,230,25,,,29.409449,,,TRUE,,,,,,,,,,,,,,,,,,,,,,,,,,,,METAR,4.0
ENHM 180750Z 25033KT 9999 -RA FEW020 SCT045 BKN060 08/05 Q0987 W///S/,ENHM,2014-12-18T07:50:00Z,59.57,2.23,8.0,5.0,250,33,,6.21,29.143702,,,,,,,,,,-RA,FEW,2000,SCT,4500,BKN,6000,,,VFR,,,,,,,,,,,,METAR,10.0
ENQA 180750Z AUTO 23032KT 9999NDV FEW016/// SCT050/// 07/04 Q0985 W05/S5,ENQA,2014-12-18T07:50:00Z,60.65,3.72,7.0,4.0,230,32,,,29.084646,,,TRUE,,,,,,,,,,,,,,,,,,,,,,,,,,,,METAR,20.0
ENQC 180750Z AUTO 22025KT 9999NDV FEW016/// SCT018/// BKN057/// 07/05 Q0984 W///S5,ENQC,2014-12-18T07:50:00Z,60.88,3.62,7.0,5.0,220,25,,,29.055119,,,TRUE,,,,,,,,,,,,,,,,,,,,,,,,,,,,METAR,20.0
ENSE 180750Z AUTO 27031KT 9999NDV -SHRA FEW014/// SCT026/// BKN032/// 05/02 Q0982 W///S6,ENSE,2014-12-18T07:50:00Z,61.45,2.15,5.0,2.0,270,31,,,28.996063,,,TRUE,,,,,,,-SHRA,,,,,,,,,,,,,,,,,,,,,METAR,10.0
ENQR 180750Z AUTO 26027KT 5000NDV -RA BR OVC016/// 05/02 Q0980 W///S6,ENQR,2014-12-18T07:50:00Z,61.35,2.22,5.0,2.0,260,27,,,28.937008,,,TRUE,,,,,,,-RA BR,,,,,,,,,,,,,,,,,,,,,METAR,10.0
ENNE 180750Z 20017KT 9999 FEW018CB 05/02 Q0980 W07/S5,ENNE,2014-12-18T07:50:00Z,66.03,8.08,5.0,2.0,200,17,,6.21,28.937008,,,,,,,,,,,FEW,1800,,,,,,,VFR,,,,,,,,,,,,METAR,10.0
EDVK 180750Z 18008KT 140V210 9999 BKN009 OVC012 08/07 Q1010,EDVK,2014-12-18T07:50:00Z,51.38,9.37,8.0,7.0,180,8,,6.21,29.822834,,,,,,,,,,,BKN,900,OVC,1200,,,,,IFR,,,,,,,,,,,,METAR,285.0
EDLV 180750Z 23009KT 5000 -DZ BR SCT004 BKN007 11/11 Q1009,EDLV,2014-12-18T07:50:00Z,51.6,6.15,11.0,11.0,230,9,,3.11,29.793306,,,,,,,,,,-DZ BR,SCT,400,BKN,700,,,,,IFR,,,,,,,,,,,,METAR,32.0
EDFM 180750Z 20009KT 170V240 9999 SCT006 BKN022 09/08 Q1015,EDFM,2014-12-18T07:50:00Z,49.47,8.52,9.0,8.0,200,9,,6.21,29.970472,,,,,,,,,,,SCT,600,BKN,2200,,,,,MVFR,,,,,,,,,,,,METAR,100.0
EDFH 180750Z 23008KT 4000 -DZRA SCT003 BKN004 08/08 Q1012,EDFH,2014-12-18T07:50:00Z,49.95,7.27,8.0,8.0,230,8,,2.49,29.88189,,,,,,,,,,-DZ -RA,SCT,300,BKN,400,,,,,LIFR,,,,,,,,,,,,METAR,498.0
EDFE 180750Z 19007KT 5000 DZ SCT004 BKN006 08/07 Q1013,EDFE,2014-12-18T07:50:00Z,49.97,8.63,8.0,7.0,190,7,,3.11,29.911417,,,,,,,,,,DZ,SCT,400,BKN,600,,,,,IFR,,,,,,,,,,,,METAR,118.0
EDVE 180750Z 22010KT 9999 FEW013 OVC016 09/09 Q1008,EDVE,2014-12-18T07:50:00Z,52.32,10.55,9.0,9.0,220,10,,6.21,29.763779,,,,,,,,,,,FEW,1300,OVC,1600,,,,,MVFR,,,,,,,,,,,,METAR,88.0
EDTY 180750Z 21006KT 170V240 9999 OVC019 08/06 Q1015,EDTY,2014-12-18T07:50:00Z,49.12,9.78,8.0,6.0,210,6,,6.21,29.970472,,,,,,,,,,,OVC,1900,,,,,,,MVFR,,,,,,,,,,,,METAR,400.0
EDTL 180750Z 20009KT 9999 FEW009 BKN029 10/08 Q1017,EDTL,2014-12-18T07:50:00Z,48.37,7.83,10.0,8.0,200,9,,6.21,30.029528,,,,,,,,,,,FEW,900,BKN,2900,,,,,MVFR,,,,,,,,,,,,METAR,156.0
EDOP 180750Z 20010KT 4000 BR BKN006 09/08 Q1006,EDOP,2014-12-18T07:50:00Z,53.43,11.78,9.0,8.0,200,10,,2.49,29.704725,,,,,,,,,,BR,BKN,600,,,,,,,IFR,,,,,,,,,,,,METAR,51.0
EDJA 180750Z 22011KT 9999 BKN039 06/03 Q1017,EDJA,2014-12-18T07:50:00Z,47.98,10.23,6.0,3.0,220,11,,6.21,30.029528,,,,,,,,,,,BKN,3900,,,,,,,VFR,,,,,,,,,,,,METAR,633.0
EDHK 180750Z 21008KT 1500 -DZ BR OVC002 08/08 Q1004,EDHK,2014-12-18T07:50:00Z,54.38,10.15,8.0,8.0,210,8,,0.93,29.64567,,,,,,,,,,-DZ BR,OVC,200,,,,,,,LIFR,,,,,,,,,,,,METAR,31.0
EDHI 180750Z 22010KT 1800 -DZ BR BKN004 09/09 Q1006,EDHI,2014-12-18T07:50:00Z,53.53,9.83,9.0,9.0,220,10,,1.12,29.704725,,,,,,,,,,-DZ BR,BKN,400,,,,,,,LIFR,,,,,,,,,,,,METAR,13.0
EDAH 180750Z 23010KT 9000 NSC 06/05 Q1006,EDAH,2014-12-18T07:50:00Z,53.87,14.15,6.0,5.0,230,10,,5.59,29.704725,,,,,,,,,,,,,,,,,,,,,,,,,,,,,,,METAR,28.0
EDQM 180750Z 21013KT 4000 -DZ BR SCT001 OVC004 05/04 Q1013,EDQM,2014-12-18T07:50:00Z,50.3,11.85,5.0,4.0,210,13,,2.49,29.911417,,,,,,,,,,-DZ BR,SCT,100,OVC,400,,,,,LIFR,,,,,,,,,,,,METAR,568.0
EDSB 180750Z 20013KT 7000 DZ SCT010 BKN029 09/07 Q1016,EDSB,2014-12-18T07:50:00Z,48.78,8.08,9.0,7.0,200,13,,4.35,30.0,,,,,,,,,,DZ,SCT,1000,BKN,2900,,,,,MVFR,,,,,,,,,,,,METAR,124.0
EDMA 180750Z 23010KT 9999 FEW012 BKN030 07/06 Q1017,EDMA,2014-12-18T07:50:00Z,48.42,10.92,7.0,6.0,230,10,,6.21,30.029528,,,,,,,,,,,FEW,1200,BKN,3000,,,,,MVFR,,,,,,,,,,,,METAR,463.0
EDLW 180750Z 22012KT 9999 BKN008 10/08 Q1009,EDLW,2014-12-18T07:50:00Z,51.52,7.62,10.0,8.0,220,12,,6.21,29.793306,,,,,,,,,,,BKN,800,,,,,,,IFR,,,,,,,,,,,,METAR,127.0
EDLP 180750Z 20012KT 9999 BKN020 09/08 Q1009,EDLP,2014-12-18T07:50:00Z,51.62,8.62,9.0,8.0,200,12,,6.21,29.793306,,,,,,,,,,,BKN,2000,,,,,,,MVFR,,,,,,,,,,,,METAR,213.0
EDLN 180750Z VRB06KT 9999 BKN008 BKN020 11/10 Q1010,EDLN,2014-12-18T07:50:00Z,51.23,6.5,11.0,10.0,0,6,,6.21,29.822834,,,,,,,,,,,BKN,800,BKN,2000,,,,,IFR,,,,,,,,,,,,METAR,38.0
EDHL 180750Z 20006KT 170V250 1200 R25/P2000N -DZ SCT003 OVC004 09/08 Q1005,EDHL,2014-12-18T07:50:00Z,53.8,10.72,9.0,8.0,200,6,,0.75,29.675198,,,,,,,,,,-DZ,SCT,300,OVC,400,,,,,LIFR,,,,,,,,,,,,METAR,16.0
EDGS 180750Z 23011KT 2500 -DZRA BR BKN002 08/08 Q1011,EDGS,2014-12-18T07:50:00Z,50.7,8.08,8.0,8.0,230,11,,1.55,29.852362,,,,,,,,,,-DZ -RA BR,BKN,200,,,,,,,LIFR,,,,,,,,,,,,METAR,602.0
EDBC 180750Z 18009KT 9999 FEW020 SCT026 BKN041 07/07 Q1009,EDBC,2014-12-18T07:50:00Z,51.85,11.42,7.0,7.0,180,9,,6.21,29.793306,,,,,,,,,,,FEW,2000,SCT,2600,BKN,4100,,,VFR,,,,,,,,,,,,METAR,181.0
LIRQ 180750Z VRB02KT 0400 R05/0500/ FG BKN002 07/07 Q1019,LIRQ,2014-12-18T07:50:00Z,43.78,11.18,0.0,,0,2,,0.25,30.088583,,,,,,,,,,FG,BKN,200,,,,,,,LIFR,,,,,,,,,,,,METAR,38.0
LIRN 180750Z 00000KT CAVOK 11/09 Q1016,LIRN,2014-12-18T07:50:00Z,40.88,14.3,11.0,9.0,0,0,,6.21,30.0,,,,,,,,,,,CAVOK,,,,,,,,VFR,,,,,,,,,,,,METAR,72.0
LIRF 180750Z 04005KT CAVOK 09/08 Q1017 NOSIG,LIRF,2014-12-18T07:50:00Z,41.78,12.22,9.0,8.0,40,5,,6.21,30.029528,,,,,,TRUE,,,,,CAVOK,,,,,,,,VFR,,,,,,,,,,,,METAR,3.0
LIML 180750Z VRB01KT 1000 R36/P2000VP2000U BCFG FEW002 05/05 Q1019 NOSIG,LIML,2014-12-18T07:50:00Z,45.47,9.27,5.0,5.0,0,1,,0.62,30.088583,,,,,,TRUE,,,,BCFG,FEW,200,,,,,,,LIFR,,,,,,,,,,,,METAR,103.0
LIMJ 180750Z 02006KT 350V050 CAVOK 10/06 Q1018,LIMJ,2014-12-18T07:50:00Z,44.42,8.83,10.0,6.0,20,6,,6.21,30.059055,,,,,,,,,,,CAVOK,,,,,,,,VFR,,,,,,,,,,,,METAR,3.0
LIMF 180750Z VRB01KT 9999 BKN150 03/01 Q1018,LIMF,2014-12-18T07:50:00Z,45.22,7.65,3.0,1.0,0,1,,6.21,30.059055,,,,,,,,,,,BKN,15000,,,,,,,VFR,,,,,,,,,,,,METAR,287.0
LIME 180750Z 05004KT CAVOK 06/04 Q1018,LIME,2014-12-18T07:50:00Z,45.67,9.68,6.0,4.0,50,4,,6.21,30.059055,,,,,,,,,,,CAVOK,,,,,,,,VFR,,,,,,,,,,,,METAR,237.0
LIMC 180750Z 34004KT 9999 BKN070 02/02 Q1019 NOSIG,LIMC,2014-12-18T07:50:00Z,45.62,8.72,2.0,2.0,340,4,,6.21,30.088583,,,,,,TRUE,,,,,BKN,7000,,,,,,,VFR,,,,,,,,,,,,METAR,211.0
LIEO 180750Z 18004KT 150V210 9999 SCT025 12/11 Q1018,LIEO,2014-12-18T07:50:00Z,40.88,9.52,12.0,11.0,180,4,,6.21,30.059055,,,,,,,,,,,SCT,2500,,,,,,,VFR,,,,,,,,,,,,METAR,13.0
LIEE 180750Z 30007KT 8000 FEW003 SCT020 12/12 Q1017,LIEE,2014-12-18T07:50:00Z,39.25,9.07,12.0,12.0,300,7,,4.97,30.029528,,,,,,,,,,,FEW,300,SCT,2000,,,,,MVFR,,,,,,,,,,,,METAR,4.0
LIEA 180750Z 35003KT 310V010 9999 FEW025 11/11 Q1017,LIEA,2014-12-18T07:50:00Z,40.62,8.27,11.0,11.0,350,3,,6.21,30.029528,,,,,,,,,,,FEW,2500,,,,,,,VFR,,,,,,,,,,,,METAR,23.0
LIPQ 180750Z VRB01KT CAVOK 06/03 Q1019,LIPQ,2014-12-18T07:50:00Z,45.82,13.47,6.0,3.0,0,1,,6.21,30.088583,,,,,,,,,,,CAVOK,,,,,,,,VFR,,,,,,,,,,,,METAR,12.0
LIPE 180750Z 20005KT CAVOK 06/06 Q1019,LIPE,2014-12-18T07:50:00Z,44.52,11.3,6.0,6.0,200,5,,6.21,30.088583,,,,,,,,,,,CAVOK,,,,,,,,VFR,,,,,,,,,,,,METAR,42.0
LIPB 180750Z 01004KT CAVOK 00/00 Q1020,LIPB,2014-12-18T07:50:00Z,46.47,11.32,0.0,0.0,10,4,,6.21,30.11811,,,,,,,,,,,CAVOK,,,,,,,,VFR,,,,,,,,,,,,METAR,241.0
LICJ 180750Z 17007KT 9999 SCT028 SCT060 13/11 Q1017,LICJ,2014-12-18T07:50:00Z,38.17,13.08,13.0,11.0,170,7,,6.21,30.029528,,,,,,,,,,,SCT,2800,SCT,6000,,,,,VFR,,,,,,,,,,,,METAR,34.0
LICC 180750Z 25007KT 9999 SCT100 12/08 Q1016,LICC,2014-12-18T07:50:00Z,37.47,15.05,12.0,8.0,250,7,,6.21,30.0,,,,,,,,,,,SCT,10000,,,,,,,VFR,,,,,,,,,,,,METAR,17.0
LIBD 180750Z 27006KT 8000 NSC 09/07 Q1017,LIBD,2014-12-18T07:50:00Z,41.12,16.77,9.0,7.0,270,6,,4.97,30.029528,,,,,,,,,,,,,,,,,,,,,,,,,,,,,,,METAR,44.0
ENFB 180750Z AUTO 26031KT 9999NDV -SHRA BKN015/// BKN048/// 05/03 Q0983 W///S6,ENFB,2014-12-18T07:50:00Z,61.2,1.83,5.0,3.0,260,31,,,29.02559,,,TRUE,,,,,,,-SHRA,,,,,,,,,,,,,,,,,,,,,METAR,10.0
ENSL 180750Z 23032KT 9999 NCD 09/06 Q0990 W07/S4,ENSL,2014-12-18T07:50:00Z,58.37,1.9,9.0,6.0,230,32,,6.21,29.232283,,,,,,,,,,,,,,,,,,,,,,,,,,,,,,,METAR,50.0
ENOA 180750Z 23029KT 9999 FEW015 SCT034 07/04 Q0984 W///S6,ENOA,2014-12-18T07:50:00Z,60.5,2.83,7.0,4.0,230,29,,6.21,29.055119,,,,,,,,,,,FEW,1500,SCT,3400,,,,,VFR,,,,,,,,,,,,METAR,5.0
ENHE 180750Z 17021KT 9999 FEW030 BKN060 BKN090 05/02 Q0980 W///S4,ENHE,2014-12-18T07:50:00Z,65.33,2.33,5.0,2.0,170,21,,6.21,28.937008,,,,,,,,,,,FEW,3000,BKN,6000,BKN,9000,,,VFR,,,,,,,,,,,,METAR,1.0
ENGC 180750Z 26026KT 9999 VCSH FEW018CB SCT030 BKN050 06/03 Q0984 W07/S6,ENGC,2014-12-18T07:50:00Z,61.02,2.02,6.0,3.0,260,26,,6.21,29.055119,,,,,,,,,,VCSH,FEW,1800,SCT,3000,BKN,5000,,,VFR,,,,,,,,,,,,METAR,10.0
ENEK 180750Z 22023KT 9999 FEW008 BKN140 09/09 Q0995 W09/S4,ENEK,2014-12-18T07:50:00Z,56.53,3.25,9.0,9.0,220,23,,6.21,29.379921,,,,,,,,,,,FEW,800,BKN,14000,,,,,VFR,,,,,,,,,,,,METAR,3.0
ENDR 180750Z AUTO 20013KT 04/03 Q0981,ENDR,2014-12-18T07:50:00Z,64.35,7.8,4.0,3.0,200,13,,,28.966536,,,TRUE,,,,,,,,,,,,,,,,,,,,,,,,,,,,METAR,50.0
ENNA 180750Z 21004KT CAVOK M14/M15 Q0994 RMK WIND 1800FT 28006KT,ENNA,2014-12-18T07:50:00Z,70.07,24.97,-14.0,-15.0,210,4,,6.21,29.350393,,,,,,,,,,,CAVOK,,,,,,,,VFR,,,,,,,,,,,,METAR,8.0
ENML 180750Z 04008KT 9999 VCSH SCT015 BKN035 02/01 Q0983,ENML,2014-12-18T07:50:00Z,62.75,7.27,2.0,1.0,40,8,,6.21,29.02559,,,,,,,,,,VCSH,SCT,1500,BKN,3500,,,,,VFR,,,,,,,,,,,,METAR,3.0
ENKR 180750Z 30006KT 9999 SCT021 BKN033 M03/M04 Q0991 RMK WIND 731FT 31008KT,ENKR,2014-12-18T07:50:00Z,69.72,29.88,-3.0,-4.0,300,6,,6.21,29.26181,,,,,,,,,,,SCT,2100,BKN,3300,,,,,VFR,,,,,,,,,,,,METAR,91.0
ENKB 180750Z 14005KT 080V170 9999 VCSH FEW019 BKN035 03/00 Q0983,ENKB,2014-12-18T07:50:00Z,63.12,7.82,3.0,0.0,140,5,,6.21,29.02559,,,,,,,,,,VCSH,FEW,1900,BKN,3500,,,,,VFR,,,,,,,,,,,,METAR,62.0
ENFL 180750Z 20016G26KT 9999 -SHRA FEW015 SCT020TCU SCT030 07/05 Q0984,ENFL,2014-12-18T07:50:00Z,61.57,5.02,7.0,5.0,200,16,26,6.21,29.055119,,,,,,,,,,-SHRA,FEW,1500,SCT,2000,SCT,3000,,,VFR,,,,,,,,,,,,METAR,9.0
ENEV 180750Z 12011KT CAVOK M02/M09 Q0990 RMK WIND 1400FT 10019KT,ENEV,2014-12-18T07:50:00Z,68.52,16.67,-2.0,-9.0,120,11,,6.21,29.232283,,,,,,,,,,,CAVOK,,,,,,,,VFR,,1.9,,,,,,,,,,METAR,26.0
ENAT 180750Z 21007KT 9999 FEW003 M10/M12 Q0995 RMK WIND 700FT 20004KT,ENAT,2014-12-18T07:50:00Z,69.97,23.37,-10.0,-12.0,210,7,,6.21,29.379921,,,,,,,,,,,FEW,300,,,,,,,VFR,,,0.4,,,,,,,,,METAR,3.0
ENSS 180750Z 02013KT 9999 VCSH FEW016 SCT040 00/M04 Q0991 RMK WIND 500FT VRB09G25KT,ENSS,2014-12-18T07:50:00Z,70.33,31.05,0.0,-4.0,20,13,,6.21,29.26181,,,,,,,,,,VCSH,FEW,1600,SCT,4000,,,,,VFR,,,,,,,,,,,,METAR,12.0
ENSG 180750Z 00000KT 5000 1000E -SN PRFG FEW/// SCT010 BKN025 M02/M02 Q0986 RMK WIND 3901FT 21023KT,ENSG,2014-12-18T07:50:00Z,61.13,7.12,-2.0,-2.0,0,0,,3.11,29.114174,,,,,,,,,,PRFG -SN,SCT,1000,BKN,2500,,,,,MVFR,,,-2.3,,,,,,,,,METAR,497.0
ENSD 180750Z 12004KT 9999 -RA FEW006 SCT016 BKN024 02/01 Q0984 RMK WIND 1138FT 10006KT,ENSD,2014-12-18T07:50:00Z,61.82,6.12,2.0,1.0,120,4,,6.21,29.055119,,,,,,,,,,-RA,FEW,600,SCT,1600,BKN,2400,,,MVFR,,0.6,,,,,,,,,,METAR,60.0
ENOV 180750Z VRB02KT 9999 -SHRA FEW008 SCT018 BKN022 02/01 Q0984 RMK WIND 2175FT 14022KT,ENOV,2014-12-18T07:50:00Z,62.17,6.07,2.0,1.0,0,2,,6.21,29.055119,,,,,,,,,,-SHRA,FEW,800,SCT,1800,BKN,2200,,,MVFR,,,,,,,,,,,,METAR,74.0
ENNO 180750Z 29003KT 9999 BKN006 BKN011 M05/M05 Q0994,ENNO,2014-12-18T07:50:00Z,59.57,9.22,-5.0,-5.0,290,3,,6.21,29.350393,,,,,,,,,,,BKN,600,BKN,1100,,,,,IFR,,,,,,,,,,,,METAR,19.0
ENNM 180750Z 11006KT 040V150 9999 FEW015 SCT025 M02/M04 Q0987,ENNM,2014-12-18T07:50:00Z,64.47,11.57,-2.0,-4.0,110,6,,6.21,29.143702,,,,,,,,,,,FEW,1500,SCT,2500,,,,,VFR,,,,,,,,,,,,METAR,2.0
ENMH 180750Z 22009KT 9999 SCT031 BKN040 M02/M04 Q0992,ENMH,2014-12-18T07:50:00Z,71.02,27.82,-2.0,-4.0,220,9,,6.21,29.291338,,,,,,,,,,,SCT,3100,BKN,4000,,,,,VFR,,,,,,,,,,,,METAR,13.0
ENLK 180750Z 09008KT 9999 FEW035 01/M04 Q0987,ENLK,2014-12-18T07:50:00Z,68.15,13.62,1.0,-4.0,90,8,,6.21,29.143702,,,,,,,,,,,FEW,3500,,,,,,,VFR,,,,,,,,,,,,METAR,26.0
EEPU 180750Z 21004KT 9999 BKN030 01/M00 Q1001,EEPU,2014-12-18T07:50:00Z,58.42,24.47,1.0,0.0,210,4,,6.21,29.557087,,,,,,,,,,,BKN,3000,,,,,,,MVFR,,,,,,,,,,,,METAR,14.0
EETU 180750Z AUTO 24008KT 9999 OVC034/// 01/M00 Q1001,EETU,2014-12-18T07:50:00Z,58.32,26.68,1.0,0.0,240,8,,6.21,29.557087,,,TRUE,,,,,,,,,,,,,,,,,,,,,,,,,,,,METAR,67.0
EEKE 180750Z 26004KT 9999 BKN025 02/M00 Q1001 R17/290095,EEKE,2014-12-18T07:50:00Z,58.23,22.52,2.0,0.0,260,4,,6.21,29.557087,,,,,,,,,,,BKN,2500,,,,,,,MVFR,,,,,,,,,,,,METAR,4.0
EEKA 180750Z 18005KT 9999 FEW021 M01/M01 Q1000,EEKA,2014-12-18T07:50:00Z,58.98,22.83,-1.0,-1.0,180,5,,6.21,29.52756,,,,,,,,,,,FEW,2100,,,,,,,VFR,,,,,,,,,,,,METAR,4.0
ENZV 180750Z 22011KT 9999 BKN014 09/07 Q0992 BECMG SCT014 BKN050,ENZV,2014-12-18T07:50:00Z,58.87,5.62,9.0,7.0,220,11,,6.21,29.291338,,,,,,,,,,,BKN,1400,,,,,,,MVFR,,,,,,,,,,,,METAR,9.0
ENVA 180750Z 08006KT 9999 FEW050 M03/M05 Q0986 NOSIG RMK WIND 670FT 15016KT,ENVA,2014-12-18T07:50:00Z,63.47,10.92,-3.0,-5.0,80,6,,6.21,29.114174,,,,,,TRUE,,,,,FEW,5000,,,,,,,VFR,,,,,,,,,,,,METAR,17.0
ENOL 180750Z 13015KT CAVOK 01/M03 Q0984 NOSIG,ENOL,2014-12-18T07:50:00Z,63.7,9.58,1.0,-3.0,130,15,,6.21,29.055119,,,,,,TRUE,,,,,CAVOK,,,,,,,,VFR,,,,,,,,,,,,METAR,7.0
ENGM 180750Z 21002KT 3000 1100NW R19R/1500U R01R/P2000N BR FZFG OVC002 M05/M05 Q0992 TEMPO 1000 FZFG,ENGM,2014-12-18T07:50:00Z,60.2,11.1,-5.0,-5.0,210,2,,1.86,29.291338,,,,,,,,,,FZFG BR,OVC,200,,,,,,,LIFR,,,,,,,,,,,,METAR,204.0
ENDU 180750Z VRB01KT 9999 FEW040 M18/M20 Q0991 NOSIG RMK WIND AT 2200FT 13024KT,ENDU,2014-12-18T07:50:00Z,69.03,18.55,-18.0,-20.0,0,1,,6.21,29.26181,,,,,,TRUE,,,,,FEW,4000,,,,,,,VFR,,,,,,,,,,,,METAR,79.0
ENBO 180750Z 08023KT CAVOK M00/M07 Q0987 NOSIG,ENBO,2014-12-18T07:50:00Z,67.27,14.37,0.0,-7.0,80,23,,6.21,29.143702,,,,,,TRUE,,,,,CAVOK,,,,,,,,VFR,,,,,,,,,,,,METAR,13.0
ENBR 180750Z 22011KT 9999 VCSH FEW018 BKN025 06/04 Q0988 WS RWY17 TEMPO SHRA RMK WIND 1200FT /////KT,ENBR,2014-12-18T07:50:00Z,60.28,5.22,6.0,4.0,220,11,,6.21,29.17323,,,,,,,,,,VCSH,FEW,1800,BKN,2500,,,,,MVFR,,,,,,,,,,,,METAR,50.0
ENAN 180750Z 12015KT CAVOK M01/M08 Q0990,ENAN,2014-12-18T07:50:00Z,69.28,16.13,-1.0,-8.0,120,15,,6.21,29.232283,,,,,,,,,,,CAVOK,,,,,,,,VFR,,,,,,,,,,,,METAR,14.0
LOXZ 180750Z VRB01KT 0800 BCFG FEW010ST SCT060SC M01/M01 Q1017 RMK VIS ABV FG 20KM/BKN,LOXZ,2014-12-18T07:50:00Z,47.2,14.75,-1.0,-1.0,0,1,,0.5,30.029528,,,,,,,,,,BCFG,,,,,,,,,,,,,,,,,,,,,METAR,682.0
ENVD 180750Z 34010KT 9999 FEW012 BKN030 M04/M06 Q0992,ENVD,2014-12-18T07:50:00Z,70.07,29.85,-4.0,-6.0,340,10,,6.21,29.291338,,,,,,,,,,,FEW,1200,BKN,3000,,,,,MVFR,,,,,,,,,,,,METAR,39.0
ENST 180750Z 02014KT 310V050 CAVOK 01/M08 Q0986 RMK WIND 300FT VRB08KT,ENST,2014-12-18T07:50:00Z,65.97,12.47,1.0,-8.0,20,14,,6.21,29.114174,,,,,,,,,,,CAVOK,,,,,,,,VFR,,,,,,,,,,,,METAR,17.0
ENSK 180750Z 06006KT CAVOK M01/M07 Q0989,ENSK,2014-12-18T07:50:00Z,68.57,15.02,-1.0,-7.0,60,6,,6.21,29.202755,,,,,,,,,,,CAVOK,,,,,,,,VFR,,,,,,,,,,,,METAR,3.0
ENRS 180750Z 10013KT CAVOK 02/M03 Q0986,ENRS,2014-12-18T07:50:00Z,67.52,12.08,2.0,-3.0,100,13,,6.21,29.114174,,,,,,,,,,,CAVOK,,,,,,,,VFR,,,,,,,,,,,,METAR,4.0
ENRM 180750Z 12009KT 9999 FEW007 BKN023 01/M02 Q0985,ENRM,2014-12-18T07:50:00Z,64.83,11.13,1.0,-2.0,120,9,,6.21,29.084646,,,,,,,,,,,FEW,700,BKN,2300,,,,,MVFR,,,,,,,,,,,,METAR,14.0
ENMS 180750Z 25002KT CAVOK M09/M10 Q0988 RMK WIND 412FT VRB02KT,ENMS,2014-12-18T07:50:00Z,65.78,13.22,-9.0,-10.0,250,2,,6.21,29.17323,,,,,,,,,,,CAVOK,,,,,,,,VFR,,,,,,,,,,,,METAR,70.0
LOWK 180750Z VRB02KT 6000 SCT004 BKN007 BKN012 04/03 Q1019 BECMG BKN012,LOWK,2014-12-18T07:50:00Z,46.65,14.32,4.0,3.0,0,2,,3.73,30.088583,,,,,,,,,,,SCT,400,BKN,700,BKN,1200,,,IFR,,,,,,,,,,,,METAR,441.0
LOWG 180750Z VRB01KT 0350 R17/0250N R35/0300N FG VV002 01/01 Q1017 R17/2///95 BECMG 0800 SCT002 BKN005,LOWG,2014-12-18T07:50:00Z,47.0,15.42,1.0,1.0,0,1,,0.22,30.029528,,,,,,,,,,FG,OVX,0,,,,,,,LIFR,,,,,,,,,,,200,METAR,347.0
LOWI 180750Z VRB02KT 0500 R08/0750U R26/0350N FG VV002 00/00 Q1020 BECMG 9999 NSW FEW010,LOWI,2014-12-18T07:50:00Z,47.27,11.33,0.0,0.0,0,2,,0.31,30.11811,,,,,,,,,,FG,OVX,0,,,,,,,LIFR,,,,,,,,,,,200,METAR,581.0
LOWS 180750Z 16008KT 9999 FEW037 BKN049 06/03 Q1018 NOSIG,LOWS,2014-12-18T07:50:00Z,47.78,13.02,6.0,3.0,160,8,,6.21,30.059055,,,,,,TRUE,,,,,FEW,3700,BKN,4900,,,,,VFR,,,,,,,,,,,,METAR,450.0
LOWL 180750Z 27006KT 7000 FEW005 BKN008 07/06 Q1017 TEMPO SCT008 BKN016,LOWL,2014-12-18T07:50:00Z,48.22,14.18,7.0,6.0,270,6,,4.35,30.029528,,,,,,,,,,,FEW,500,BKN,800,,,,,IFR,,,,,,,,,,,,METAR,313.0
LOWW 180750Z 27011KT 9999 BKN065 08/05 Q1016 NOSIG,LOWW,2014-12-18T07:50:00Z,48.12,16.57,8.0,5.0,270,11,,6.21,30.0,,,,,,TRUE,,,,,BKN,6500,,,,,,,VFR,,,,,,,,,,,,METAR,190.0
ELLX 180750Z 24010KT 200V270 5000 BKN004 10/10 Q1013 TEMPO 3000 BR,ELLX,2014-12-18T07:50:00Z,49.63,6.2,10.0,10.0,240,10,,3.11,29.911417,,,,,,,,,,,BKN,400,,,,,,,LIFR,,,,,,,,,,,,METAR,379.0
EBOS 180750Z 24017G28KT 9999 FEW007 BKN016 11/10 Q1011 TEMPO 3500 -DZ BKN007,EBOS,2014-12-18T07:50:00Z,51.2,2.87,11.0,10.0,240,17,28,6.21,29.852362,,,,,,,,,,,FEW,700,BKN,1600,,,,,MVFR,,,,,,,,,,,,METAR,5.0
EBLG 180750Z 24012KT 6000 FEW003 BKN005 11/10 Q1011 TEMPO 2000 DZ BR BKN003,EBLG,2014-12-18T07:50:00Z,50.63,5.45,11.0,10.0,240,12,,3.73,29.852362,,,,,,,,,,,FEW,300,BKN,500,,,,,IFR,,,,,,,,,,,,METAR,178.0
EBCI 180750Z 24014KT 2500 -DZRA BKN003 11/10 Q1012 NOSIG,EBCI,2014-12-18T07:50:00Z,50.47,4.45,11.0,10.0,240,14,,1.55,29.88189,,,,,,TRUE,,,,-DZ -RA,BKN,300,,,,,,,LIFR,,,,,,,,,,,,METAR,192.0
EBBR 180750Z 25011KT 2500 DZ BKN005 11/10 Q1011 NOSIG,EBBR,2014-12-18T07:50:00Z,50.9,4.5,11.0,10.0,250,11,,1.55,29.852362,,,,,,TRUE,,,,DZ,BKN,500,,,,,,,IFR,,,,,,,,,,,,METAR,58.0
EBAW 180750Z 24009KT 210V270 3400 -DZRA SCT004 BKN006 12/10 Q1010 TEMPO 3500 DZRA BKN005,EBAW,2014-12-18T07:50:00Z,51.2,4.47,12.0,10.0,240,9,,2.11,29.822834,,,,,,,,,,-DZ -RA,SCT,400,BKN,600,,,,,IFR,,,,,,,,,,,,METAR,14.0
ESIB 180750Z 21012KT 9999 BKN008 BKN110 05/05 Q0995,ESIB,2014-12-18T07:50:00Z,58.42,12.68,5.0,5.0,210,12,,6.21,29.379921,,,,,,,,,,,BKN,800,BKN,11000,,,,,IFR,,,,,,,,,,,,METAR,74.0
EFSI 180750Z 22001KT 9999 SCT036 M03/M03 Q0995,EFSI,2014-12-18T07:50:00Z,62.7,22.83,-3.0,-3.0,220,1,,6.21,29.379921,,,,,,,,,,,SCT,3600,,,,,,,VFR,,,,,,,,,,,,METAR,91.0
EFPO 180750Z AUTO 16006KT 9999 FEW022/// M02/M02 Q0996,EFPO,2014-12-18T07:50:00Z,61.47,21.8,-2.0,-2.0,160,6,,6.21,29.409449,,,TRUE,,,,,,,,,,,,,,,,,,,,,,,,,,,,METAR,17.0
EFMA 180750Z 20009KT 9999 FEW015 BKN085 02/M00 Q0996,EFMA,2014-12-18T07:50:00Z,60.12,19.88,2.0,0.0,200,9,,6.21,29.409449,,,,,,,,,,,FEW,1500,BKN,8500,,,,,VFR,,,,,,,,,,,,METAR,6.0
EFKK 180750Z AUTO 23002KT 9999 FEW019 BKN033 M02/M02 Q0994,EFKK,2014-12-18T07:50:00Z,63.72,23.13,-2.0,-2.0,230,2,,6.21,29.350393,,,TRUE,,,,,,,,FEW,1900,BKN,3300,,,,,VFR,,,,,,,,,,,,METAR,25.0
EFHF 180750Z 22007KT 180V250 9999 BKN023 01/M02 Q0998,EFHF,2014-12-18T07:50:00Z,60.25,25.05,1.0,-2.0,220,7,,6.21,29.468504,,,,,,,,,,,BKN,2300,,,,,,,MVFR,,,,,,,,,,,,METAR,28.0
EFHA 180750Z 24006KT 9999 SCT015 BKN040 M03/M03 Q0995,EFHA,2014-12-18T07:50:00Z,61.85,24.8,-3.0,-3.0,240,6,,6.21,29.379921,,,,,,,,,,,SCT,1500,BKN,4000,,,,,VFR,,,,,,,,,,,,METAR,145.0
KVTP 180750Z AUTO 2 1/2SM BR OVC001 M06/M07 A2997 RMK AO2 VIS 1 1/2V4,KVTP,2014-12-18T07:50:00Z,37.5,-105.17,-6.0,-7.0,,,,2.5,29.970472,,,TRUE,TRUE,,,,,,BR,OVC,100,,,,,,,LIFR,,,,,,,,,,,,METAR,3114.0
EFET 180750Z AUTO 36001KT 9999 OVC040 M08/M09 Q0992,EFET,2014-12-18T07:50:00Z,68.37,23.43,-8.0,-9.0,360,1,,6.21,29.291338,,,TRUE,,,,,,,,OVC,4000,,,,,,,VFR,,,,,,,,,,,,METAR,306.0
EFIV 180750Z 23005KT 8000 BKN047 M17/M19 Q0992,EFIV,2014-12-18T07:50:00Z,68.62,27.42,-17.0,-19.0,230,5,,4.97,29.291338,,,,,,,,,,,BKN,4700,,,,,,,MVFR,,,,,,,,,,,,METAR,148.0
EFKE 180750Z 33005KT 300V010 9999 OVC008 M04/M04 Q0993 R18/72//95,EFKE,2014-12-18T07:50:00Z,65.77,24.57,-4.0,-4.0,330,5,,6.21,29.320866,,,,,,,,,,,OVC,800,,,,,,,IFR,,,,,,,,,,,,METAR,15.0
EFKI 180750Z 26005KT 9999 FEW007 BKN045 M04/M05 Q0992,EFKI,2014-12-18T07:50:00Z,64.27,27.67,-4.0,-5.0,260,5,,6.21,29.291338,,,,,,,,,,,FEW,700,BKN,4500,,,,,VFR,,,,,,,,,,,,METAR,136.0
EFKS 180750Z AUTO 31005KT 270V360 1100 BR OVC002 M08/M08 Q0990,EFKS,2014-12-18T07:50:00Z,66.0,29.23,-8.0,-8.0,310,5,,0.68,29.232283,,,TRUE,,,,,,,BR,OVC,200,,,,,,,LIFR,,,,,,,,,,,,METAR,263.0
HLLM 180750Z 23009KT 9999 SCT030 13/06 Q1022,HLLM,2014-12-18T07:50:00Z,32.9,13.28,13.0,6.0,230,9,,6.21,30.177166,,,,,,,,,,,SCT,3000,,,,,,,VFR,,,,,,,,,,,,METAR,11.0
EFKT 180750Z AUTO 24002KT 9999 OVC044 M07/M07 Q0992,EFKT,2014-12-18T07:50:00Z,67.7,24.85,-7.0,-7.0,240,2,,6.21,29.291338,,,TRUE,,,,,,,,OVC,4400,,,,,,,VFR,,,,,,,,,,,,METAR,643.0
RJFY 180750Z 30004KT 9999 FEW030 07/M06 Q1027 RMK 1CU030 A3034,RJFY,2014-12-18T07:50:00Z,31.37,130.82,7.0,-6.0,300,4,,6.21,30.324802,,,,,,,,,,,FEW,3000,,,,,,,VFR,,,,,,,,,,,,SPECI,68.0
KEDJ 180750Z AUTO 00000KT 10SM OVC018 M04/M07 A3024 RMK AO1,KEDJ,2014-12-18T07:50:00Z,40.37,-83.82,-4.0,-7.0,0,0,,10.0,30.239174,,,TRUE,TRUE,,,,,,,OVC,1800,,,,,,,MVFR,,,,,,,,,,,,METAR,342.0
EKOD 180750Z 21010KT 0800 R06///// R24///// FG SCT002 OVC004 08/08 Q1002,EKOD,2014-12-18T07:50:00Z,55.47,10.32,8.0,8.0,210,10,,0.5,29.586615,,,,,,,,,,FG,SCT,200,OVC,400,,,,,LIFR,,,,,,,,,,,,METAR,17.0
EKVD 180750Z 23012KT 0700 FG VV002 09/08 Q1001,EKVD,2014-12-18T07:50:00Z,55.42,9.32,9.0,8.0,230,12,,0.43,29.557087,,,,,,,,,,FG,OVX,0,,,,,,,LIFR,,,,,,,,,,,200,METAR,45.0
EKSB 180750Z 20008KT 2500 -RA BR BKN003 08/08 Q1002,EKSB,2014-12-18T07:50:00Z,54.97,9.8,8.0,8.0,200,8,,1.55,29.586615,,,,,,,,,,-RA BR,BKN,300,,,,,,,LIFR,,,,,,,,,,,,METAR,23.0
EKVJ 180750Z 21014KT 2000 BR BKN002 08/07 Q1000,EKVJ,2014-12-18T07:50:00Z,55.97,8.33,8.0,7.0,210,14,,1.24,29.52756,,,,,,,,,,BR,BKN,200,,,,,,,LIFR,,,,,,,,,,,,METAR,5.0
EKRN 180750Z AUTO 25012KT 6000NDV OVC005/// 07/06 Q1004,EKRN,2014-12-18T07:50:00Z,55.07,14.75,7.0,6.0,250,12,,,29.64567,,,TRUE,,,,,,,,,,,,,,,,,,,,,,,,,,,,METAR,16.0
EKEB 180750Z AUTO 20009KT 3100NDV DZ BR OVC003/// 09/08 Q1001,EKEB,2014-12-18T07:50:00Z,55.52,8.55,9.0,8.0,200,9,,,29.557087,,,TRUE,,,,,,,DZ BR,,,,,,,,,,,,,,,,,,,,,METAR,29.0
EKAH 180750Z AUTO 22008KT 140V280 9999NDV BKN052/// 07/05 Q1000,EKAH,2014-12-18T07:50:00Z,56.28,10.62,7.0,5.0,220,8,,,29.52756,,,TRUE,,,,,,,,,,,,,,,,,,,,,,,,,,,,METAR,25.0
EKRK 180750Z AUTO 23008KT 9999NDV OVC050/// 06/06 Q1002,EKRK,2014-12-18T07:50:00Z,55.57,12.12,6.0,6.0,230,8,,,29.586615,,,TRUE,,,,,,,,,,,,,,,,,,,,,,,,,,,,METAR,44.0
EKYT 180750Z 21009KT 8000 FEW010 SCT040 BKN055 07/06 Q0997,EKYT,2014-12-18T07:50:00Z,57.1,9.87,7.0,6.0,210,9,,4.97,29.438976,,,,,,,,,,,FEW,1000,SCT,4000,BKN,5500,,,MVFR,,,,,,,,,,,,METAR,3.0
EKBI 180750Z 22010KT 190V250 3500 BR SCT002 BKN003 08/08 Q1000,EKBI,2014-12-18T07:50:00Z,55.72,9.15,8.0,8.0,220,10,,2.17,29.52756,,,,,,,,,,BR,SCT,200,BKN,300,,,,,LIFR,,,,,,,,,,,,METAR,66.0
EKCH 180750Z 23010KT 9999 FEW004 BKN055 06/06 Q1002 NOSIG,EKCH,2014-12-18T07:50:00Z,55.62,12.67,6.0,6.0,230,10,,6.21,29.586615,,,,,,TRUE,,,,,FEW,400,BKN,5500,,,,,VFR,,,,,,,,,,,,METAR,5.0
EDDV 180750Z 22009KT 190V250 9999 FEW010 BKN013 10/09 Q1008 TEMPO 4000 -DZ BKN008,EDDV,2014-12-18T07:50:00Z,52.47,9.68,10.0,9.0,220,9,,6.21,29.763779,,,,,,,,,,,FEW,1000,BKN,1300,,,,,MVFR,,,,,,,,,,,,METAR,54.0
EDDT 180750Z 22007KT 9999 FEW020 BKN046 08/07 Q1009 NOSIG,EDDT,2014-12-18T07:50:00Z,52.57,13.32,8.0,7.0,220,7,,6.21,29.793306,,,,,,TRUE,,,,,FEW,2000,BKN,4600,,,,,VFR,,,,,,,,,,,,METAR,37.0
EDDS 180750Z 19004KT 9999 FEW020 SCT050 BKN060 09/06 Q1016 NOSIG,EDDS,2014-12-18T07:50:00Z,48.67,9.22,9.0,6.0,190,4,,6.21,30.0,,,,,,TRUE,,,,,FEW,2000,SCT,5000,BKN,6000,,,VFR,,,,,,,,,,,,METAR,419.0
EDDN 180750Z 17005KT 120V210 9999 BKN008 08/07 Q1015 NOSIG,EDDN,2014-12-18T07:50:00Z,49.5,11.08,8.0,7.0,170,5,,6.21,29.970472,,,,,,TRUE,,,,,BKN,800,,,,,,,IFR,,,,,,,,,,,,METAR,312.0
EDDM 180750Z 19006KT 9999 SCT036 BKN060 06/05 Q1017 NOSIG,EDDM,2014-12-18T07:50:00Z,48.35,11.82,6.0,5.0,190,6,,6.21,30.029528,,,,,,TRUE,,,,,SCT,3600,BKN,6000,,,,,VFR,,,,,,,,,,,,METAR,447.0
EDDL 180750Z 21010KT 6000 BKN005 BKN015 11/11 Q1010 TEMPO 4000,EDDL,2014-12-18T07:50:00Z,51.3,6.77,11.0,11.0,210,10,,3.73,29.822834,,,,,,,,,,,BKN,500,BKN,1500,,,,,IFR,,,,,,,,,,,,METAR,44.0
EDDK 180750Z 20007KT 9999 FEW009 BKN013 10/09 Q1011 NOSIG,EDDK,2014-12-18T07:50:00Z,50.87,7.15,10.0,9.0,200,7,,6.21,29.852362,,,,,,TRUE,,,,,FEW,900,BKN,1300,,,,,MVFR,,,,,,,,,,,,METAR,99.0
EDDH 180750Z 22011KT 2500 -DZ BR BKN003 10/09 Q1005 TEMPO 3000 BKN005,EDDH,2014-12-18T07:50:00Z,53.63,10.0,10.0,9.0,220,11,,1.55,29.675198,,,,,,,,,,-DZ BR,BKN,300,,,,,,,LIFR,,,,,,,,,,,,METAR,16.0
EDDF 180750Z 19010KT 4800 -DZ BKN003 OVC004 08/08 Q1013 BECMG 6000,EDDF,2014-12-18T07:50:00Z,50.05,8.6,8.0,8.0,190,10,,2.98,29.911417,,,,,,,,,,-DZ,BKN,300,OVC,400,,,,,LIFR,,,,,,,,,,,,METAR,113.0
PTYA 180750Z 06007KT 12SM FEW016 SCT030 BKN150 BKN300 28/25 A2983 RMK SLP101 T02780250,PTYA,2014-12-18T07:50:00Z,9.48,138.08,27.8,25.0,60,7,,12.0,29.828741,1010.1,,,,,,,,,,FEW,1600,SCT,3000,BKN,15000,BKN,30000,VFR,,,,,,,,,,,,METAR,17.0
EDDW 180750Z 22010KT 3500 BR BKN007 10/09 Q1006 TEMPO BKN004,EDDW,2014-12-18T07:50:00Z,53.03,8.8,10.0,9.0,220,10,,2.17,29.704725,,,,,,,,,,BR,BKN,700,,,,,,,IFR,,,,,,,,,,,,METAR,5.0
EDDR 180750Z 22009KT 2500 -DZ BR OVC002 08/08 Q1014 TEMPO 3500,EDDR,2014-12-18T07:50:00Z,49.22,7.1,8.0,8.0,220,9,,1.55,29.940945,,,,,,,,,,-DZ BR,OVC,200,,,,,,,LIFR,,,,,,,,,,,,METAR,320.0
EDDP 180750Z 21009KT 9999 SCT022 BKN042 08/07 Q1011 NOSIG,EDDP,2014-12-18T07:50:00Z,51.43,12.23,8.0,7.0,210,9,,6.21,29.852362,,,,,,TRUE,,,,,SCT,2200,BKN,4200,,,,,VFR,,,,,,,,,,,,METAR,149.0
EDDG 180750Z 21009KT 5000 BR SCT004 BKN006 11/11 Q1008 TEMPO 3000 BKN004,EDDG,2014-12-18T07:50:00Z,52.13,7.7,11.0,11.0,210,9,,3.11,29.763779,,,,,,,,,,BR,SCT,400,BKN,600,,,,,IFR,,,,,,,,,,,,METAR,52.0
EDDE 180750Z 20009KT 9999 FEW014 SCT020 BKN110 08/06 Q1011 TEMPO BKN014,EDDE,2014-12-18T07:50:00Z,50.98,10.97,8.0,6.0,200,9,,6.21,29.852362,,,,,,,,,,,FEW,1400,SCT,2000,BKN,11000,,,VFR,,,,,,,,,,,,METAR,323.0
BGKK 180750Z AUTO VRB02KT 9999NDV FEW029/// BKN055/// M05/M08 Q0978,BGKK,2014-12-18T07:50:00Z,65.57,-37.13,-5.0,-8.0,0,2,,,28.877953,,,TRUE,,,,,,,,,,,,,,,,,,,,,,,,,,,,METAR,34.0
BGJN 180750Z AUTO 09020KT //// BKN040/// OVC060/// M17/M18 Q1001,BGJN,2014-12-18T07:50:00Z,69.25,-51.07,-17.0,-18.0,90,20,,,29.557087,,,TRUE,,,,,,,,,,,,,,,,,,,,,,,,,,,,METAR,25.0
BGGH 180750Z AUTO 08010KT 9999NDV -IC BKN033/// M10/M15 Q0998,BGGH,2014-12-18T07:50:00Z,64.2,-51.68,-10.0,-15.0,80,10,,,29.468504,,,TRUE,,,,,,,IC,,,,,,,,,,,,,,,,,,,,,METAR,70.0
BGSF 180750Z AUTO 08011KT 9999NDV NCD M27/M31 Q1003,BGSF,2014-12-18T07:50:00Z,67.0,-50.72,-27.0,-31.0,80,11,,,29.616142,,,TRUE,,,,,,,,,,,,,,,,,,,,,,,,,,,,METAR,53.0
EFVA 180750Z AUTO VRB02KT 9999 OVC023/// M03/M03 Q0995 R16/39//95,EFVA,2014-12-18T07:50:00Z,63.03,21.77,-3.0,-3.0,0,2,,6.21,29.379921,,,TRUE,,,,,,,,,,,,,,,,,,,,,,,,,,,,METAR,4.0
EFTU 180750Z AUTO 23004KT 200V270 9999 FEW018/// M00/M01 Q0997 R08/490195,EFTU,2014-12-18T07:50:00Z,60.52,22.27,0.0,-1.0,230,4,,6.21,29.438976,,,TRUE,,,,,,,,,,,,,,,,,,,,,,,,,,,,METAR,59.0
EFTP 180750Z 22005KT 9999 SCT006 BKN026 M01/M01 Q0996,EFTP,2014-12-18T07:50:00Z,61.42,23.62,-1.0,-1.0,220,5,,6.21,29.409449,,,,,,,,,,,SCT,600,BKN,2600,,,,,MVFR,,,,,,,,,,,,METAR,112.0
EFRO 180750Z VRB03KT 9999 BKN013 M07/M07 Q0991,EFRO,2014-12-18T07:50:00Z,66.57,25.82,-7.0,-7.0,0,3,,6.21,29.26181,,,,,,,,,,,BKN,1300,,,,,,,MVFR,,,,,,,,,,,,METAR,201.0
EFOU 180750Z AUTO VRB02KT 9999 -SN SCT006/// OVC010/// M03/M04 Q0993 R12/49//95,EFOU,2014-12-18T07:50:00Z,64.92,25.37,-3.0,-4.0,0,2,,6.21,29.320866,,,TRUE,,,,,,,-SN,,,,,,,,,,,,,,,,,,,,,METAR,15.0
EFKU 180750Z 26005KT 220V300 9000 -SN OVC008 M03/M04 Q0993,EFKU,2014-12-18T07:50:00Z,63.02,27.8,-3.0,-4.0,260,5,,5.59,29.320866,,,,,,,,,,-SN,OVC,800,,,,,,,IFR,,,,,,,,,,,,METAR,102.0
EFJY 180750Z VRB01KT 9999 OVC008 M02/M02 Q0994,EFJY,2014-12-18T07:50:00Z,62.4,25.68,-2.0,-2.0,0,1,,6.21,29.350393,,,,,,,,,,,OVC,800,,,,,,,IFR,,,,,,,,,,,,METAR,145.0
EFHK 180750Z 22008KT 9999 FEW010 BKN024 00/M02 Q0998 NOSIG,EFHK,2014-12-18T07:50:00Z,60.32,24.97,0.0,-2.0,220,8,,6.21,29.468504,,,,,,TRUE,,,,,FEW,1000,BKN,2400,,,,,MVFR,,,,,,,,,,,,METAR,56.0
EGJB 180750Z 25022KT 6000 -DZ FEW003 BKN007 12/12 Q1018,EGJB,2014-12-18T07:50:00Z,49.42,-2.6,12.0,12.0,250,22,,3.73,30.059055,,,,,,,,,,-DZ,FEW,300,BKN,700,,,,,IFR,,,,,,,,,,,,METAR,102.0
EGJA 180750Z 25020G31KT 210V270 6000 BKN005 11/11 Q1016,EGJA,2014-12-18T07:50:00Z,49.72,-2.2,11.0,11.0,250,20,31,3.73,30.0,,,,,,,,,,,BKN,500,,,,,,,IFR,,,,,,,,,,,,METAR,71.0
EGHQ 180750Z 24024KT 1800 -RADZ BKN002 10/10 Q1015,EGHQ,2014-12-18T07:50:00Z,50.43,-5.0,10.0,10.0,240,24,,1.12,29.970472,,,,,,,,,,-RA -DZ,BKN,200,,,,,,,LIFR,,,,,,,,,,,,METAR,119.0
CYHZ 180750Z 15009KT 1/4SM R14/P6000FT/N -DZ FG VV002 06/06 A2939 RMK FG8 SLP957,CYHZ,2014-12-18T07:50:00Z,44.87,-63.5,6.0,6.0,150,9,,0.25,29.388779,995.7,,,,,,,,,-DZ FG,OVX,0,,,,,,,LIFR,,,,,,,,,,,200,SPECI,145.0
KSTK 180750Z AUTO 00000KT 1/4SM FZFG OVC001 M05/M06 A3000 RMK AO2,KSTK,2014-12-18T07:50:00Z,40.62,-103.27,-5.0,-6.0,0,0,,0.25,30.0,,,TRUE,TRUE,,,,,,FZFG,OVC,100,,,,,,,LIFR,,,,,,,,,,,,METAR,1231.0
EDDC 180750Z 25008KT 9999 BKN040 08/05 Q1012 NOSIG,EDDC,2014-12-18T07:50:00Z,51.13,13.75,8.0,5.0,250,8,,6.21,29.88189,,,,,,TRUE,,,,,BKN,4000,,,,,,,VFR,,,,,,,,,,,,METAR,226.0
EDDB 180750Z 21006KT 9999 SCT021 SCT030 BKN048 07/06 Q1009 NOSIG,EDDB,2014-12-18T07:50:00Z,52.38,13.53,7.0,6.0,210,6,,6.21,29.793306,,,,,,TRUE,,,,,SCT,2100,SCT,3000,BKN,4800,,,VFR,,,,,,,,,,,,METAR,48.0
ESTL 180750Z AUTO 21007KT 170V240 4400NDV BR OVC002/// ///// Q1001,ESTL,2014-12-18T07:50:00Z,56.07,13.2,,,210,7,,,29.557087,,,TRUE,,,,,,,BR,,,,,,,,,,,,,,,,,,,,,METAR,43.0
ESTA 180750Z 19007KT 5000 BR BKN003 06/05 Q1000,ESTA,2014-12-18T07:50:00Z,56.28,12.83,6.0,5.0,190,7,,3.11,29.52756,,,,,,,,,,BR,BKN,300,,,,,,,LIFR,,,,,,,,,,,,METAR,47.0
ESMX 180750Z 19009KT 1600 -DZ OVC002 03/03 Q0999,ESMX,2014-12-18T07:50:00Z,56.92,14.72,3.0,3.0,190,9,,0.99,29.498032,,,,,,,,,,-DZ,OVC,200,,,,,,,LIFR,,,,,,,,,,,,METAR,186.0
ESMT 180750Z 22010KT 4400 BR BKN002 06/05 Q0999,ESMT,2014-12-18T07:50:00Z,56.67,12.82,6.0,5.0,220,10,,2.73,29.498032,,,,,,,,,,BR,BKN,200,,,,,,,LIFR,,,,,,,,,,,,METAR,30.0
ESMS 180750Z 23009KT 3500 BR OVC004 06/06 Q1002,ESMS,2014-12-18T07:50:00Z,55.53,13.37,6.0,6.0,230,9,,2.17,29.586615,,,,,,,,,,BR,OVC,400,,,,,,,LIFR,,,,,,,,,,,,METAR,106.0
ESMQ 180750Z 19007KT 9999 BKN009 03/02 Q1000,ESMQ,2014-12-18T07:50:00Z,56.68,16.3,3.0,2.0,190,7,,6.21,29.52756,,,,,,,,,,,BKN,900,,,,,,,IFR,,,,,,,,,,,,METAR,16.0
ESMK 180750Z 22006KT 8000 BR BKN005 05/04 Q1002,ESMK,2014-12-18T07:50:00Z,55.92,14.07,5.0,4.0,220,6,,4.97,29.586615,,,,,,,,,,BR,BKN,500,,,,,,,IFR,,,,,,,,,,,,METAR,23.0
ESGT 180750Z 19007KT 9000 -RA BR BKN015 05/05 Q0995,ESGT,2014-12-18T07:50:00Z,58.32,12.33,5.0,5.0,190,7,,5.59,29.379921,,,,,,,,,,-RA BR,BKN,1500,,,,,,,MVFR,,,,,,,,,,,,METAR,41.0
ESGP 180750Z 21009KT 7000 -DZ BKN006 OVC009 06/05 Q0996 RERA R19/29//95,ESGP,2014-12-18T07:50:00Z,57.77,11.87,6.0,5.0,210,9,,4.35,29.409449,,,,,,,,,,-DZ,BKN,600,OVC,900,,,,,IFR,,,,,,,,,,,,METAR,53.0
ESGJ 180750Z 21009KT 9999 OVC003 03/02 Q0997,ESGJ,2014-12-18T07:50:00Z,57.77,14.07,3.0,2.0,210,9,,6.21,29.438976,,,,,,,,,,,OVC,300,,,,,,,LIFR,,,,,,,,,,,,METAR,232.0
ESGG 180750Z 21012KT 4000 -RA BR BKN003 04/04 Q0996 R21/29//95,ESGG,2014-12-18T07:50:00Z,57.67,12.3,4.0,4.0,210,12,,2.49,29.409449,,,,,,,,,,-RA BR,BKN,300,,,,,,,LIFR,,,,,,,,,,,,METAR,169.0
EVVA 180750Z AUTO VRB02KT 9999 SCT022 OVC032 01/00 Q1002,EVVA,2014-12-18T07:50:00Z,57.35,21.55,1.0,0.0,0,2,,6.21,29.586615,,,TRUE,,,,,,,,SCT,2200,OVC,3200,,,,,VFR,,,,,,,,,,,,METAR,6.0
VGHS 180750Z 30005KT 1800HZ NSC 20/13 Q1016 BECMG S/VIS 2000M,VGHS,2014-12-18T07:50:00Z,23.85,90.4,20.0,13.0,300,5,,,30.0,,,,,,,,,,HZ,,,,,,,,,,,,,,,,,,,,,METAR,10.0
LLSD 180750Z 13004KT CAVOK 19/07 Q1019,LLSD,2014-12-18T07:50:00Z,32.12,34.78,19.0,7.0,130,4,,6.21,30.088583,,,,,,,,,,,CAVOK,,,,,,,,VFR,,,,,,,,,,,,METAR,14.0
LLIB 180750Z VRB01KT CAVOK 15/05 Q1022 RMK SCT100,LLIB,2014-12-18T07:50:00Z,32.98,35.57,15.0,5.0,0,1,,6.21,30.177166,,,,,,,,,,,CAVOK,,,,,,,,VFR,,,,,,,,,,,,METAR,282.0
LLHA 180750Z 12012KT CAVOK 16/07 Q1021 RMK SCT100,LLHA,2014-12-18T07:50:00Z,32.78,35.02,16.0,7.0,120,12,,6.21,30.147638,,,,,,,,,,,CAVOK,,,,,,,,VFR,,,,,,,,,,,,METAR,8.0
LLET 180750Z 04013KT CAVOK 21/07 Q1021,LLET,2014-12-18T07:50:00Z,29.55,34.95,21.0,7.0,40,13,,6.21,30.147638,,,,,,,,,,,CAVOK,,,,,,,,VFR,,,,,,,,,,,,METAR,13.0
KDAG 180750Z AUTO 00000KT 10SM CLR 06/02 A3010 RMK AO2 SLP192 T00560022 401110050,KDAG,2014-12-18T07:50:00Z,34.85,-116.78,5.6,2.2,0,0,,10.0,30.100393,1019.2,,TRUE,TRUE,,,,,,,CLR,,,,,,,,VFR,,,,11.1,5.0,,,,,,,SPECI,587.0
LLBG 180750Z VRB01KT CAVOK 17/11 Q1020 NOSIG,LLBG,2014-12-18T07:50:00Z,32.0,34.88,17.0,11.0,0,1,,6.21,30.11811,,,,,,TRUE,,,,,CAVOK,,,,,,,,VFR,,,,,,,,,,,,METAR,49.0
EKSP 180750Z 22010KT 2100 R10/P2000N R28/1900U -DZRA BR OVC003 08/08 Q1002 TEMPO 0600 FG BKN002,EKSP,2014-12-18T07:50:00Z,55.22,9.27,8.0,8.0,220,10,,1.3,29.586615,,,,,,,,,,RA -DZ BR,OVC,300,,,,,,,LIFR,,,,,,,,,,,,METAR,40.0
EKKA 180750Z 21007KT 3000 BR BKN003 08/08 Q0999 TEMPO 1800 -DZ,EKKA,2014-12-18T07:50:00Z,56.3,9.12,8.0,8.0,210,7,,1.86,29.498032,,,,,,,,,,BR,BKN,300,,,,,,,LIFR,,,,,,,,,,,,METAR,52.0
RJSK 180750Z 31016G26KT 5000 -SHSN FEW005 BKN008 BKN015 01/M01 Q1014 RMK 1ST005 5ST008 7CU015 A2995,RJSK,2014-12-18T07:50:00Z,39.62,140.22,1.0,-1.0,310,16,26,3.11,29.940945,,,,,,,,,,-SHSN,FEW,500,BKN,800,BKN,1500,,,IFR,,,,,,,,,,,,METAR,96.0
KVAD 180750Z AUTO 29002KT 9SM CLR 06/04 A3014 RMK AO2 $,KVAD,2014-12-18T07:50:00Z,30.97,-83.2,6.0,4.0,290,2,,9.0,30.138779,,,TRUE,TRUE,TRUE,,,,,,CLR,,,,,,,,VFR,,,,,,,,,,,,METAR,71.0
KQFX 180750Z AUTO 02001KT 9999 CLR M04/M18 A3053 RMK A02 TSNO,KQFX,2014-12-18T07:50:00Z,100.65,-1000.65,-4.0,-18.0,20,1,,6.21,30.528543,,,TRUE,TRUE,,,TRUE,,,,CLR,,,,,,,,VFR,,,,,,,,,,,,METAR,999.0
KQFV 180750Z AUTO 20003KT 9999 CLR M07/M20 A3044 RMK A02 TSNO,KQFV,2014-12-18T07:50:00Z,100.65,-1000.65,-7.0,-20.0,200,3,,6.21,30.43996,,,TRUE,TRUE,,,TRUE,,,,CLR,,,,,,,,VFR,,,,,,,,,,,,METAR,999.0
KQFU 180750Z AUTO 17002KT 9999 CLR M05/M20 A3052 RMK A02 TSNO,KQFU,2014-12-18T07:50:00Z,100.65,-1000.65,-5.0,-20.0,170,2,,6.21,30.519686,,,TRUE,TRUE,,,TRUE,,,,CLR,,,,,,,,VFR,,,,,,,,,,,,METAR,999.0
KQFT 180750Z AUTO 33002KT 9999 CLR M04/M19 A3051 RMK A02 TSNO,KQFT,2014-12-18T07:50:00Z,100.65,-1000.65,-4.0,-19.0,330,2,,6.21,30.510826,,,TRUE,TRUE,,,TRUE,,,,CLR,,,,,,,,VFR,,,,,,,,,,,,METAR,999.0
KQEY 180750Z AUTO 30001KT 9999 CLR 00/M14 A3048 RMK A02 TSNO,KQEY,2014-12-18T07:50:00Z,100.65,-1000.65,0.0,-14.0,300,1,,6.21,30.481298,,,TRUE,TRUE,,,TRUE,,,,CLR,,,,,,,,VFR,,,,,,,,,,,,METAR,999.0
KQEX 180750Z AUTO 35004KT 9999 CLR M00/M18 A3051 RMK A02 TSNO,KQEX,2014-12-18T07:50:00Z,100.65,-1000.65,0.0,-18.0,350,4,,6.21,30.510826,,,TRUE,TRUE,,,TRUE,,,,CLR,,,,,,,,VFR,,,,,,,,,,,,METAR,999.0
KQEW 180750Z AUTO 27007KT 9999 CLR M01/M17 A3047 RMK A02 TSNO,KQEW,2014-12-18T07:50:00Z,100.65,-1000.65,-1.0,-17.0,270,7,,6.21,30.469488,,,TRUE,TRUE,,,TRUE,,,,CLR,,,,,,,,VFR,,,,,,,,,,,,METAR,999.0
KQEV 180750Z AUTO 01004KT 9999 CLR M00/M14 A3052 RMK A02 TSNO,KQEV,2014-12-18T07:50:00Z,100.65,-1000.65,0.0,-14.0,10,4,,6.21,30.519686,,,TRUE,TRUE,,,TRUE,,,,CLR,,,,,,,,VFR,,,,,,,,,,,,METAR,999.0
KQES 180750Z AUTO 9999 CLR M01/M10 A3056 RMK A02 TSNO,KQES,2014-12-18T07:50:00Z,100.65,-1000.65,-1.0,-10.0,,,,6.21,30.561024,,,TRUE,TRUE,,,TRUE,,,,CLR,,,,,,,,VFR,,,,,,,,,,,,METAR,999.0
KQER 180750Z AUTO 24001KT / /CLR M07/M21 A3044 RMK A02 TSNO,KQER,2014-12-18T07:50:00Z,100.65,-1000.65,-7.0,-21.0,240,1,,,30.43996,,,TRUE,TRUE,,,TRUE,,,,CLR,,,,,,,,,,,,,,,,,,,,METAR,999.0
KQEQ 180750Z AUTO 26002KT 9999 CLR M05/M19 A3040 RMK A02 TSNO,KQEQ,2014-12-18T07:50:00Z,100.65,-1000.65,-5.0,-19.0,260,2,,6.21,30.398623,,,TRUE,TRUE,,,TRUE,,,,CLR,,,,,,,,VFR,,,,,,,,,,,,METAR,999.0
KQEP 180750Z AUTO 02003KT 9999 CLR M03/M21 A3046 RMK A02 TSNO,KQEP,2014-12-18T07:50:00Z,100.65,-1000.65,-3.0,-21.0,20,3,,6.21,30.46063,,,TRUE,TRUE,,,TRUE,,,,CLR,,,,,,,,VFR,,,,,,,,,,,,METAR,999.0
KQEL 180750Z AUTO 35003KT 9999 CLR M07/M19 A3056 RMK A02 TSNO,KQEL,2014-12-18T07:50:00Z,100.65,-1000.65,-7.0,-19.0,350,3,,6.21,30.561024,,,TRUE,TRUE,,,TRUE,,,,CLR,,,,,,,,VFR,,,,,,,,,,,,METAR,999.0
KQEI 180750Z AUTO 20002KT 9999 CLR M07/M22 A3050 RMK A02 TSNO,KQEI,2014-12-18T07:50:00Z,100.65,-1000.65,-7.0,-22.0,200,2,,6.21,30.499016,,,TRUE,TRUE,,,TRUE,,,,CLR,,,,,,,,VFR,,,,,,,,,,,,METAR,999.0
OAKB 180750Z VRB02KT 4000 HZ NSC 15/M15 Q1023 TEMPO 1400 RMK GRN WHT TEMPO AMB,OAKB,2014-12-18T07:50:00Z,34.55,69.22,15.0,-15.0,0,2,,2.49,30.206694,,,,,,,,,,HZ,,,,,,,,,,,,,,,,,,,,,SPECI,1791.0
LSZA 180750Z 36002KT CAVOK 01/01 Q1018 NOSIG,LSZA,2014-12-18T07:50:00Z,46.0,8.92,1.0,1.0,360,2,,6.21,30.059055,,,,,,TRUE,,,,,CAVOK,,,,,,,,VFR,,,,,,,,,,,,METAR,276.0
LSZB 180750Z VRB02KT 3500 -RA BR FEW005 SCT025 BKN040 05/05 Q1020 NOSIG,LSZB,2014-12-18T07:50:00Z,46.92,7.5,5.0,5.0,0,2,,2.17,30.11811,,,,,,TRUE,,,,-RA BR,FEW,500,SCT,2500,BKN,4000,,,IFR,,,,,,,,,,,,METAR,505.0
LSGG 180750Z 24004KT 9000 -RA FEW010 SCT035 OVC080 06/05 Q1021 NOSIG,LSGG,2014-12-18T07:50:00Z,46.25,6.12,6.0,5.0,240,4,,5.59,30.147638,,,,,,TRUE,,,,-RA,FEW,1000,SCT,3500,OVC,8000,,,VFR,,,,,,,,,,,,METAR,416.0
LSZH 180750Z 12005KT 9999 SCT014 SCT020 BKN032 07/05 Q1019 TEMPO SHRA,LSZH,2014-12-18T07:50:00Z,47.48,8.53,7.0,5.0,120,5,,6.21,30.088583,,,,,,,,,,,SCT,1400,SCT,2000,BKN,3200,,,VFR,,,,,,,,,,,,METAR,432.0
EYSA 180750Z 20010KT 3000 BR BKN003 01/01 Q1005 R14L/29//95 R14R/29//95,EYSA,2014-12-18T07:50:00Z,55.9,23.4,1.0,1.0,200,10,,1.86,29.675198,,,,,,,,,,BR,BKN,300,,,,,,,LIFR,,,,,,,,,,,,SPECI,135.0
K2G4 180750Z AUTO 29008G19KT 262V332 10SM OVC012 M06/M06 A3003 RMK AO1,K2G4,2014-12-18T07:50:00Z,39.58,-79.33,-6.0,-6.0,290,8,19,10.0,30.029528,,,TRUE,TRUE,,,,,,,OVC,1200,,,,,,,MVFR,,,,,,,,,,,,METAR,894.0
VGEG 180750Z 33012KT 3200 HZ NSC 25/17 Q1015 NOSIG,VGEG,2014-12-18T07:50:00Z,22.27,91.82,25.0,17.0,330,12,,1.99,29.970472,,,,,,TRUE,,,,HZ,,,,,,,,,,,,,,,,,,,,,SPECI,6.0
EYVI 180750Z 18008KT 4000 BR SCT036 BKN095 M00/M01 Q1007 R20/2/0195 NOSIG,EYVI,2014-12-18T07:50:00Z,54.63,25.28,0.0,-1.0,180,8,,2.49,29.734253,,,,,,TRUE,,,,BR,SCT,3600,BKN,9500,,,,,IFR,,,,,,,,,,,,METAR,197.0
EYPA 180750Z 21005KT 180V250 9999 SCT022 04/03 Q1004 R19/2///95,EYPA,2014-12-18T07:50:00Z,55.97,21.08,4.0,3.0,210,5,,6.21,29.64567,,,,,,,,,,,SCT,2200,,,,,,,VFR,,,,,,,,,,,,METAR,10.0
ETNG 180750Z 24010KT 3800 DZ BR SCT005 BKN007 BKN012 11/11 Q1011 TEMPO BKN005,ETNG,2014-12-18T07:50:00Z,50.97,6.03,11.0,11.0,240,10,,2.36,29.852362,,,,,,,,,,DZ BR,SCT,500,BKN,700,BKN,1200,,,IFR,,,,,,,,,,,,METAR,98.0
KDMW 180750Z AUTO 31008KT 10SM OVC042 01/M06 A3005 RMK AO2,KDMW,2014-12-18T07:50:00Z,39.6,-77.0,1.0,-6.0,310,8,,10.0,30.050198,,,TRUE,TRUE,,,,,,,OVC,4200,,,,,,,VFR,,,,,,,,,,,,METAR,241.0
EGNO 180750Z 25012KT 9999 BKN026 11/10 Q1002,EGNO,2014-12-18T07:50:00Z,53.75,-2.88,11.0,10.0,250,12,,6.21,29.586615,,,,,,,,,,,BKN,2600,,,,,,,MVFR,,,,,,,,,,,,METAR,17.0
PGRO 180750Z 07010KT 7SM SCT025 27/24 A2992,PGRO,2014-12-18T07:50:00Z,14.18,145.25,27.0,24.0,70,10,,7.0,29.920275,,,,,,,,,,,SCT,2500,,,,,,,VFR,,,,,,,,,,,,METAR,185.0
CYSC 180750Z AUTO 29005KT 1 3/4SM -SN BKN005 OVC010 M00/M00 A2969 RMK SLP064,CYSC,2014-12-18T07:50:00Z,45.43,-71.68,0.0,0.0,290,5,,1.75,29.68996,1006.4,,TRUE,,,,,,,-SN,BKN,500,OVC,1000,,,,,IFR,,,,,,,,,,,,SPECI,241.0
EETN 180750Z 22009KT 9999 BKN032 01/M01 Q0999 R08/290195 NOSIG,EETN,2014-12-18T07:50:00Z,59.4,24.82,1.0,-1.0,220,9,,6.21,29.498032,,,,,,TRUE,,,,,BKN,3200,,,,,,,VFR,,,,,,,,,,,,METAR,40.0
EYKA 180750Z 19004KT 160V220 6000 NSC 01/M02 Q1006 R08/190095,EYKA,2014-12-18T07:50:00Z,54.97,24.08,1.0,-2.0,190,4,,3.73,29.704725,,,,,,,,,,,,,,,,,,,,,,,,,,,,,,,METAR,77.0
CWSA 180750Z AUTO 13024G32KT 2 1/2SM -RA BR FEW007 SCT012 BKN019 OVC025 10/09 A2956 RMK SLP011,CWSA,2014-12-18T07:50:00Z,43.93,-60.0,10.0,9.0,130,24,32,2.5,29.56004,1001.1,,TRUE,,,,,,,-RA BR,FEW,700,SCT,1200,BKN,1900,OVC,2500,IFR,,,,,,,,,,,,SPECI,4.0
EVRA 180750Z 19004KT 6000 BKN004 OVC027 00/00 Q1004 R18/310195 NOSIG,EVRA,2014-12-18T07:50:00Z,56.92,23.97,0.0,0.0,190,4,,3.73,29.64567,,,,,,TRUE,,,,,BKN,400,OVC,2700,,,,,LIFR,,,,,,,,,,,,METAR,10.0
EKVG 180750Z AUTO 27018G39KT 230V300 9999NDV BKN016/// 03/M02 Q0976,EKVG,2014-12-18T07:50:00Z,62.07,-7.3,3.0,-2.0,270,18,39,,28.818897,,,TRUE,,,,,,,,,,,,,,,,,,,,,,,,,,,,METAR,85.0
MSLP 180750Z VRB01KT CAVOK 21/17 Q1013 A2991,MSLP,2014-12-18T07:50:00Z,13.43,-89.05,21.0,17.0,0,1,,6.21,29.911417,,,,,,,,,,,CAVOK,,,,,,,,VFR,,,,,,,,,,,,METAR,25.0
VECC 180750Z 35010KT 2800 HZ NSC 24/12 Q1016 NOSIG,VECC,2014-12-18T07:50:00Z,22.65,88.43,24.0,12.0,350,10,,1.74,30.0,,,,,,TRUE,,,,HZ,,,,,,,,,,,,,,,,,,,,,METAR,6.0
LATI 180750Z VRB02KT 9999 FEW050 SCT065 10/06 Q1017 NOSIG,LATI,2014-12-18T07:50:00Z,41.42,19.72,10.0,6.0,0,2,,6.21,30.029528,,,,,,TRUE,,,,,FEW,5000,SCT,6500,,,,,VFR,,,,,,,,,,,,METAR,90.0
KRCV 180750Z AUTO 00000KT 1 3/4SM BR OVC003 M05/M05 A3003 RMK AO2 T10461052,KRCV,2014-12-18T07:50:00Z,37.72,-106.35,-4.6,-5.2,0,0,,1.75,30.029528,,,TRUE,TRUE,,,,,,BR,OVC,300,,,,,,,LIFR,,,,,,,,,,,,METAR,2424.0
TJPS 180750Z 00000KT 8SM FEW025 18/17 A2999,TJPS,2014-12-18T07:50:00Z,18.02,-66.57,18.0,17.0,0,0,,8.0,29.991142,,,,,,,,,,,FEW,2500,,,,,,,VFR,,,,,,,,,,,,METAR,9.0
KSYM 180750Z AUTO 00000KT 10SM OVC018 M02/M06 A3028 RMK AO2,KSYM,2014-12-18T07:50:00Z,38.22,-83.58,-2.0,-6.0,0,0,,10.0,30.280512,,,TRUE,TRUE,,,,,,,OVC,1800,,,,,,,MVFR,,,,,,,,,,,,METAR,313.0
KSGS 180750Z AUTO 00000KT 10SM CLR M11/M13 A3033 RMK AO2 T11121131,KSGS,2014-12-18T07:50:00Z,44.87,-93.03,-11.2,-13.1,0,0,,10.0,30.33071,,,TRUE,TRUE,,,,,,,CLR,,,,,,,,VFR,,,,,,,,,,,,METAR,250.0
KMDS 180750Z AUTO 14005KT 10SM OVC065 M10/M10 A3022 RMK AO2,KMDS,2014-12-18T07:50:00Z,44.02,-97.08,-10.0,-10.0,140,5,,10.0,30.221457,,,TRUE,TRUE,,,,,,,OVC,6500,,,,,,,VFR,,,,,,,,,,,,METAR,524.0
KCVH 180750Z AUTO 13005KT 8SM FEW022 SCT030 OVC038 11/11 A3011 RMK AO1,KCVH,2014-12-18T07:50:00Z,36.9,-121.42,11.0,11.0,130,5,,8.0,30.109253,,,TRUE,TRUE,,,,,,,FEW,2200,SCT,3000,OVC,3800,,,VFR,,,,,,,,,,,,METAR,70.0
MMMX 180749Z 03002KT 5SM SKC 12/07 A3035 NOSIG RMK HZY,MMMX,2014-12-18T07:49:00Z,19.42,-99.08,12.0,7.0,30,2,,5.0,30.351377,,,,,,TRUE,,,,,SKC,,,,,,,,MVFR,,,,,,,,,,,,METAR,2238.0
RJOS 180749Z 33014KT 290V350 9999 -SHSN SCT030 BKN049 05/M04 Q1026 RMK 3CU030 6SC049 A3031,RJOS,2014-12-18T07:49:00Z,34.12,134.62,5.0,-4.0,330,14,,6.21,30.295275,,,,,,,,,,-SHSN,SCT,3000,BKN,4900,,,,,VFR,,,,,,,,,,,,SPECI,11.0
KCDD 180749Z AUTO 00000KT 10SM CLR M22/M23 A3036 RMK AO2,KCDD,2014-12-18T07:49:00Z,48.27,-92.48,-22.0,-23.0,0,0,,10.0,30.360237,,,TRUE,TRUE,,,,,,,CLR,,,,,,,,VFR,,,,,,,,,,,,METAR,341.0
KCGE 180749Z AUTO 30010G16KT 10SM CLR 03/M03 A3007 RMK AO1,KCGE,2014-12-18T07:49:00Z,38.53,-76.03,3.0,-3.0,300,10,16,10.0,30.070866,,,TRUE,TRUE,,,,,,,CLR,,,,,,,,VFR,,,,,,,,,,,,METAR,6.0
KCBE 180749Z AUTO 32017G27KT 10SM OVC036 01/M07 A3017 RMK AO1,KCBE,2014-12-18T07:49:00Z,39.62,-78.77,1.0,-7.0,320,17,27,10.0,30.171259,,,TRUE,TRUE,,,,,,,OVC,3600,,,,,,,VFR,,,,,,,,,,,,METAR,236.0
KBMI 180749Z AUTO 25004KT 9SM SCT013 M06/M06 A3031 RMK AO2,KBMI,2014-12-18T07:49:00Z,40.47,-88.92,-6.0,-6.0,250,4,,9.0,30.31004,,,TRUE,TRUE,,,,,,,SCT,1300,,,,,,,VFR,,,,,,,,,,,,SPECI,267.0
K2W6 180749Z AUTO 10SM CLR 02/M06 A3010 RMK AO1,K2W6,2014-12-18T07:49:00Z,38.32,-76.55,2.0,-6.0,,,,10.0,30.100393,,,TRUE,TRUE,,,,,,,CLR,,,,,,,,VFR,,,,,,,,,,,,METAR,44.0
KW29 180749Z AUTO 30014G21KT 10SM 03/M06 A3008 RMK AO1,KW29,2014-12-18T07:49:00Z,38.98,-76.33,3.0,-6.0,300,14,21,10.0,30.079725,,,TRUE,TRUE,,,,,,,,,,,,,,,,,,,,,,,,,,,METAR,15.0
YAMB 180749Z AUTO 22013KT 9999 // SCT014 BKN061 OVC115 23/21 Q1009,YAMB,2014-12-18T07:49:00Z,-27.63,152.72,23.0,21.0,220,13,,6.21,29.793306,,,TRUE,,,,,,,,SCT,1400,BKN,6100,OVC,11500,,,VFR,,,,,,,,,,,,SPECI,28.0
YPCC 180749Z 14014KT 9999 VCSH FEW011 BKN038 26/24 Q1009,YPCC,2014-12-18T07:49:00Z,-12.17,96.82,26.0,24.0,140,14,,6.21,29.793306,,,,,,,,,,VCSH,FEW,1100,BKN,3800,,,,,VFR,,,,,,,,,,,,SPECI,3.0
MMTO 180748Z 00000KT 6SM SKC 04/03 A3042 RMK SC HZY,MMTO,2014-12-18T07:48:00Z,19.35,-99.57,4.0,3.0,0,0,,6.0,30.41929,,,,,,,,,,,SKC,,,,,,,,VFR,,,,,,,,,,,,METAR,2576.0
KEHA 180748Z AUTO 33005KT M01/M04 RMK AO1 PK WND 12 000 T10061038,KEHA,2014-12-18T07:48:00Z,37.0,-101.9,-0.6,-3.8,330,5,,,,,,TRUE,TRUE,,,,,,,,,,,,,,,,,,,,,,,,,,,METAR,1099.0
KFME 180748Z AUTO 29011G14KT 10SM OVC050 02/M05 A3010 RMK AO1,KFME,2014-12-18T07:48:00Z,39.08,-76.77,2.0,-5.0,290,11,14,10.0,30.100393,,,TRUE,TRUE,,,,,,,OVC,5000,,,,,,,VFR,,,,,,,,,,,,METAR,46.0
KM19 180748Z AUTO 07006KT 1SM -RA BR OVC070 02/02 A3028 RMK AO2 P0003,KM19,2014-12-18T07:48:00Z,35.65,-91.17,2.0,2.0,70,6,,1.0,30.280512,,,TRUE,TRUE,,,,,,-RA BR,OVC,7000,,,,,,,IFR,,,,,,0.03,,,,,,SPECI,73.0
KFLG 180748Z AUTO 00000KT 10SM OVC005 M01/M02 A3009 RMK AO2 SNE10 CIG 003V009 P0000 T10111022 TSNO,KFLG,2014-12-18T07:48:00Z,35.13,-111.67,-1.1,-2.2,0,0,,10.0,30.088583,,,TRUE,TRUE,,,TRUE,,,,OVC,500,,,,,,,IFR,,,,,,0.0050,,,,,,METAR,2134.0
ETNN 180748Z 19003KT 6000 FEW007 BKN010 BKN014 10/10 Q1011 GRN WHT TEMPO YLO,ETNN,2014-12-18T07:48:00Z,50.82,6.67,10.0,10.0,190,3,,3.73,29.852362,,,,,,,,,,,FEW,700,BKN,1000,BKN,1400,,,MVFR,,,,,,,,,,,,SPECI,135.0
KMIB 180748Z AUTO 15005KT 10SM FEW080 M16/M16 A3011 RMK AO2,KMIB,2014-12-18T07:48:00Z,48.42,-101.33,-16.0,-16.0,150,5,,10.0,30.109253,,,TRUE,TRUE,,,,,,,FEW,8000,,,,,,,VFR,,,,,,,,,,,,SPECI,508.0
KJDN 180748Z AUTO 00000KT M03/M04 A2993 RMK AO1 SLP173 T10331044,KJDN,2014-12-18T07:48:00Z,47.33,-106.95,-3.3,-4.4,0,0,,,29.929134,1017.3,,TRUE,TRUE,,,,,,,,,,,,,,,,,,,,,,,,,,,METAR,801.0
KSDB 180748Z AUTO VRB03KT 10SM CLR 03/M01 A3010 RMK AO2 SLP180 T00331011 400720028,KSDB,2014-12-18T07:48:00Z,34.75,-118.72,3.3,-1.1,0,3,,10.0,30.100393,1018.0,,TRUE,TRUE,,,,,,,CLR,,,,,,,,VFR,,,,7.2,2.8,,,,,,,METAR,1377.0
KSKA 180748Z AUTO 11007KT 6SM UP BR BKN034 OVC041 00/00 A2993 RMK AO2 RAE11DZB11E14UPB48,KSKA,2014-12-18T07:48:00Z,47.62,-117.65,0.0,0.0,110,7,,6.0,29.929134,,,TRUE,TRUE,,,,,,BR UP,BKN,3400,OVC,4100,,,,,VFR,,,,,,,,,,,,METAR,750.0
CWFD 180748Z AUTO 36031G36KT 1/8SM BKN002 BKN062 M21/ A2917,CWFD,2014-12-18T07:48:00Z,66.57,-61.58,-21.0,,360,31,36,0.13,29.170275,,,TRUE,,,,,,,,BKN,200,BKN,6200,,,,,LIFR,,,,,,,,,,,,SPECI,393.0
MMMY 180747Z 00000KT 2SM BR OVC010 18/17 A3002 RMK 8/6//,MMMY,2014-12-18T07:47:00Z,25.77,-100.08,18.0,17.0,0,0,,2.0,30.02067,,,,,,,,,,BR,OVC,1000,,,,,,,IFR,,,,,,,,,,,,METAR,387.0
MMPR 180747Z 01003KT 10SM SCT080 OVC100 20/18 A2998 RMK 8/07/,MMPR,2014-12-18T07:47:00Z,20.67,-105.25,20.0,18.0,10,3,,10.0,29.97933,,,,,,,,,,,SCT,8000,OVC,10000,,,,,VFR,,,,,,,,,,,,METAR,6.0
K1YT 180747Z AUTO 29002KT 6SM BR OVC008 03/02 A2998 RMK AO2 CIG 006V008,K1YT,2014-12-18T07:47:00Z,46.67,-120.45,3.0,2.0,290,2,,6.0,29.97933,,,TRUE,TRUE,,,,,,BR,OVC,800,,,,,,,IFR,,,,,,,,,,,,SPECI,438.0
PAGA 180747Z AUTO 00000KT 10SM FEW001 M17/M18 A2971 RMK AO2 FZRANO,PAGA,2014-12-18T07:47:00Z,64.73,-156.93,-17.0,-18.0,0,0,,10.0,29.71063,,,TRUE,TRUE,,,,TRUE,,,FEW,100,,,,,,,VFR,,,,,,,,,,,,SPECI,46.0
KCQT 180747Z AUTO 00000KT 10SM CLR 11/07 A3011 RMK AO2 SLP195 T01060072 401830106,KCQT,2014-12-18T07:47:00Z,34.02,-118.28,10.6,7.2,0,0,,10.0,30.109253,1019.5,,TRUE,TRUE,,,,,,,CLR,,,,,,,,VFR,,,,18.3,10.6,,,,,,,METAR,56.0
CYHU 180747Z AUTO 32007KT 2SM -SN FEW007 BKN017 OVC028 M00/M01 A2977 RMK SLP084,CYHU,2014-12-18T07:47:00Z,45.52,-73.42,0.0,-1.0,320,7,,2.0,29.769686,1008.4,,TRUE,,,,,,,-SN,FEW,700,BKN,1700,OVC,2800,,,IFR,,,,,,,,,,,,SPECI,27.0
KHZX 180747Z AUTO 00000KT 7SM SCT019 M14/M16 A3030 RMK AO2,KHZX,2014-12-18T07:47:00Z,46.62,-93.32,-14.0,-16.0,0,0,,7.0,30.301182,,,TRUE,TRUE,,,,,,,SCT,1900,,,,,,,VFR,,,,,,,,,,,,METAR,374.0
KQBF 180746Z AUTO 01005KT 4800 HZ CLR 22/M02 A3001 RMK AO2 SLP150 TSNO $,KQBF,2014-12-18T07:46:00Z,100.65,-1000.65,22.0,-2.0,10,5,,2.98,30.008858,1015.0,,TRUE,TRUE,TRUE,,TRUE,,,HZ,CLR,,,,,,,,IFR,,,,,,,,,,,,SPECI,999.0
MMSP 180746Z 00000KT 3SM BR HZ BKN020 11/10 A3024 RMK 8/500,MMSP,2014-12-18T07:46:00Z,22.25,-100.93,11.0,10.0,0,0,,3.0,30.239174,,,,,,,,,,BR HZ,BKN,2000,,,,,,,MVFR,,,,,,,,,,,,SPECI,1903.0
MMMM 180746Z 00000KT 7SM SKC 08/06 A3028,MMMM,2014-12-18T07:46:00Z,19.85,-101.02,8.0,6.0,0,0,,7.0,30.280512,,,,,,,,,,,SKC,,,,,,,,VFR,,,,,,,,,,,,METAR,1833.0
KHMN 180746Z AUTO 19002KT 10SM -RA BKN075 07/00 A3011 RMK AO2 RAB46,KHMN,2014-12-18T07:46:00Z,32.85,-106.08,7.0,0.0,190,2,,10.0,30.109253,,,TRUE,TRUE,,,,,,-RA,BKN,7500,,,,,,,VFR,,,,,,,,,,,,SPECI,1248.0
PFNO 180746Z AUTO 07009KT 5SM -SN BR FEW019 SCT029 OVC070 M07/M08 A2969 RMK AO2 P0000 FZRANO,PFNO,2014-12-18T07:46:00Z,66.82,-161.02,-7.0,-8.0,70,9,,5.0,29.68996,,,TRUE,TRUE,,,,TRUE,,-SN BR,FEW,1900,SCT,2900,OVC,7000,,,MVFR,,,,,,0.0050,,,,,,METAR,17.0
GMME 180746Z 15003KT 110V180 0400 R21/P1500U FG BKN005 09/09 Q1027 BECMG 1500 BR,GMME,2014-12-18T07:46:00Z,34.03,-6.77,9.0,9.0,150,3,,0.25,30.324802,,,,,,,,,,FG,BKN,500,,,,,,,LIFR,,,,,,,,,,,,SPECI,75.0
MMCZ 180746Z 00000KT 7SM FEW015 17/16 A3008 RMK 8/500 RTS,MMCZ,2014-12-18T07:46:00Z,20.52,-86.92,17.0,16.0,0,0,,7.0,30.079725,,,,,,,,,,,FEW,1500,,,,,,,VFR,,,,,,,,,,,,METAR,5.0
CYFC 180746Z AUTO 36012KT 1 3/4SM -SN SCT010 OVC017 M00/M01 A2950 RMK SLP992,CYFC,2014-12-18T07:46:00Z,45.87,-66.52,0.0,-1.0,360,12,,1.75,29.500984,999.2,,TRUE,,,,,,,-SN,SCT,1000,OVC,1700,,,,,IFR,,,,,,,,,,,,SPECI,20.0
MMQT 180745Z 08003KT 7SM SKC 10/05 A3032,MMQT,2014-12-18T07:45:00Z,20.62,-100.18,10.0,5.0,80,3,,7.0,30.318897,,,,,,,,,,,SKC,,,,,,,,VFR,,,,,,,,,,,,METAR,1813.0
KMWS 180745Z 24503G03KT 00/M02 RMK SNOW DEPTH 0.00,KMWS,2014-12-18T07:45:00Z,34.23,-118.05,0.0,-2.0,245,3,3,,,,,,,,,,,,,,,,,,,,,,,,,,,,,,,,,METAR,1739.0
LIRP 180745Z 10002KT CAVOK 06/05 Q1018 NOSIG,LIRP,2014-12-18T07:45:00Z,43.67,10.37,6.0,5.0,100,2,,6.21,30.059055,,,,,,TRUE,,,,,CAVOK,,,,,,,,VFR,,,,,,,,,,,,METAR,2.0
LIRA 180745Z 02001KT 9999 FEW060 07/06 Q1016,LIRA,2014-12-18T07:45:00Z,41.8,12.58,7.0,6.0,20,1,,6.21,30.0,,,,,,,,,,,FEW,6000,,,,,,,VFR,,,,,,,,,,,,METAR,101.0
LIPX 180745Z 34003KT 0100 R04/0400N FG VV001 04/04 Q1019,LIPX,2014-12-18T07:45:00Z,45.38,10.87,4.0,4.0,340,3,,0.06,30.088583,,,,,,,,,,FG,OVX,0,,,,,,,LIFR,,,,,,,,,,,100,METAR,68.0
LIPH 180745Z /////KT 6000 FEW020 08/07 Q1019,LIPH,2014-12-18T07:45:00Z,45.63,12.17,8.0,7.0,,,,3.73,30.088583,,,,,,,,,,,FEW,2000,,,,,,,MVFR,,,,,,,,,,,,METAR,23.0
LIBR 180745Z 28004KT 9999 FEW020 09/07 Q1016 NOSIG,LIBR,2014-12-18T07:45:00Z,40.65,17.95,9.0,7.0,280,4,,6.21,30.0,,,,,,TRUE,,,,,FEW,2000,,,,,,,VFR,,,,,,,,,,,,METAR,10.0
KJMR 180745Z AUTO 00000KT 10SM OVC020 M11/M12 A3033 RMK AO2,KJMR,2014-12-18T07:45:00Z,45.88,-93.27,-11.0,-12.0,0,0,,10.0,30.33071,,,TRUE,TRUE,,,,,,,OVC,2000,,,,,,,MVFR,,,,,,,,,,,,METAR,309.0
KFDK 180745Z AUTO 31012KT 10SM OVC048 03/M07 A3012 RMK AO2,KFDK,2014-12-18T07:45:00Z,39.42,-77.37,3.0,-7.0,310,12,,10.0,30.121063,,,TRUE,TRUE,,,,,,,OVC,4800,,,,,,,VFR,,,,,,,,,,,,METAR,92.0
KCGS 180745Z AUTO 29007KT 10SM OVC050 03/M05 A3009 RMK AO1,KCGS,2014-12-18T07:45:00Z,38.98,-76.92,3.0,-5.0,290,7,,10.0,30.088583,,,TRUE,TRUE,,,,,,,OVC,5000,,,,,,,VFR,,,,,,,,,,,,METAR,15.0
LMML 180745Z 29006KT 9999 FEW020CB FEW025TCU 15/13 Q1017 NOSIG,LMML,2014-12-18T07:45:00Z,35.85,14.47,15.0,13.0,290,6,,6.21,30.029528,,,,,,TRUE,,,,,FEW,2000,FEW,2500,,,,,VFR,,,,,,,,,,,,METAR,91.0
KQAZ 180745Z AUTO 11005KT 9999 CLR 21/M01 A3002 RMK CDP03565 CLR,KQAZ,2014-12-18T07:45:00Z,100.65,-1000.65,21.0,-1.0,110,5,,6.21,30.02067,,,TRUE,,,,,,,,CLR,,,,,,,,VFR,,,,,,,,,,,,SPECI,999.0
CMGB 180745Z AUTO 27005KT M00/M01 RMK AO1 SOG 11 5003 SLP072 T10041008,CMGB,2014-12-18T07:45:00Z,45.37,-72.77,-0.4,-0.8,270,5,,,,1007.2,,TRUE,TRUE,,,,,,,,,,,,,,,,,,,,,,,,,,,SPECI,86.0
CYYG 180745Z 06014G22KT 3SM +RA BR BKN005 OVC012 02/02 A2950 RMK SF5NS3 PRESFR SLP993,CYYG,2014-12-18T07:45:00Z,46.27,-63.12,2.0,2.0,60,14,22,3.0,29.500984,999.3,,,,,,,,,+RA BR,BKN,500,OVC,1200,,,,,IFR,,,,,,,,,,,,SPECI,54.0
KSWF 180745Z 29015G25KT 10SM OVC030 03/M02 A2989,KSWF,2014-12-18T07:45:00Z,41.5,-74.08,3.0,-2.0,290,15,25,10.0,29.890747,,,,,,,,,,,OVC,3000,,,,,,,MVFR,,,,,,,,,,,,METAR,150.0
KTBN 180745Z AUTO 06004KT 3SM -FZDZ BR OVC008 00/00 A3020 RMK AO2 RAB0730E0742FZDZB0742UPB0727E0730 CIG 004V008 CIG 003 RWY32,KTBN,2014-12-18T07:45:00Z,37.72,-92.12,0.0,0.0,60,4,,3.0,30.200787,,,TRUE,TRUE,,,,,,-FZDZ BR,OVC,800,,,,,,,IFR,,,,,,,,,,,,METAR,353.0
KBAB 180745Z AUTO 09004KT 10SM BKN026 BKN055 10/10 A3011 RMK AO2 RAB0658E10DZB10E25 CIG 026V055 BKN026 V FEW $,KBAB,2014-12-18T07:45:00Z,39.12,-121.42,10.0,10.0,90,4,,10.0,30.109253,,,TRUE,TRUE,TRUE,,,,,,BKN,2600,BKN,5500,,,,,MVFR,,,,,,,,,,,,METAR,34.0
CWPF 180745Z AUTO 36005KT 07/06 RMK AO1 T00710055,CWPF,2014-12-18T07:45:00Z,48.43,-123.43,7.1,5.5,360,5,,,,,,TRUE,TRUE,,,,,,,,,,,,,,,,,,,,,,,,,,,METAR,12.0
KBOK 180745Z AUTO VRB05KT 2 1/2SM -RA BR BKN014 OVC020 09/09 A2999 RMK AO2 BKN V SCT P0000,KBOK,2014-12-18T07:45:00Z,42.07,-124.28,9.0,9.0,0,5,,2.5,29.991142,,,TRUE,TRUE,,,,,,-RA BR,BKN,1400,OVC,2000,,,,,IFR,,,,,,0.0050,,,,,,SPECI,140.0
PASY 180745Z AUTO 07022G27KT 10SM SCT028 OVC036 00/M13 A2926 RMK AO2 PK WND 08028/0734 TSNO $,PASY,2014-12-18T07:45:00Z,52.72,174.12,0.0,-13.0,70,22,27,10.0,29.258858,,,TRUE,TRUE,TRUE,,TRUE,,,,SCT,2800,OVC,3600,,,,,VFR,,,,,,,,,,,,METAR,31.0
KLVN 180745Z AUTO 00000KT 10SM CLR M14/M15 A3032 RMK AO2,KLVN,2014-12-18T07:45:00Z,44.63,-93.23,-14.0,-15.0,0,0,,10.0,30.318897,,,TRUE,TRUE,,,,,,,CLR,,,,,,,,VFR,,,,,,,,,,,,METAR,293.0
MMUN 180744Z 31004KT 7SM SCT020 19/17 A3009 RMK 8/500,MMUN,2014-12-18T07:44:00Z,21.02,-86.85,19.0,17.0,310,4,,7.0,30.088583,,,,,,,,,,,SCT,2000,,,,,,,VFR,,,,,,,,,,,,METAR,10.0
KFRI 180744Z AUTO 04004KT 4SM -SN BR BKN006 OVC025 M03/M03 A3020 RMK AO2,KFRI,2014-12-18T07:44:00Z,39.03,-96.77,-3.0,-3.0,40,4,,4.0,30.200787,,,TRUE,TRUE,,,,,,-SN BR,BKN,600,OVC,2500,,,,,IFR,,,,,,,,,,,,METAR,325.0
MMGL 180744Z 00000KT 8SM SCT080 BKN300 14/09 A3021 RMK 8/038,MMGL,2014-12-18T07:44:00Z,20.52,-103.32,14.0,9.0,0,0,,8.0,30.209646,,,,,,,,,,,SCT,8000,BKN,30000,,,,,VFR,,,,,,,,,,,,METAR,1528.0
CYZV 180744Z 02008KT 15SM FEW017 SCT030 OVC052 M04/M09 A2991 RMK SC1SC2SC5 SLP132,CYZV,2014-12-18T07:44:00Z,50.22,-66.27,-4.0,-9.0,20,8,,15.0,29.911417,1013.2,,,,,,,,,,FEW,1700,SCT,3000,OVC,5200,,,VFR,,,,,,,,,,,,SPECI,55.0
CYXY 180744Z VRB02KT 10SM IC SKC M14/M15 A2968 RMK SLP107,CYXY,2014-12-18T07:44:00Z,60.72,-135.07,-14.0,-15.0,0,2,,10.0,29.681103,1010.7,,,,,,,,,IC,SKC,,,,,,,,VFR,,,,,,,,,,,,SPECI,703.0
KART 180744Z AUTO 27013KT 5SM -SN SCT014 OVC020 02/M02 A2989 RMK AO2 P0000 T00171017,KART,2014-12-18T07:44:00Z,43.98,-76.03,1.7,-1.7,270,13,,5.0,29.890747,,,TRUE,TRUE,,,,,,-SN,SCT,1400,OVC,2000,,,,,MVFR,,,,,,0.0050,,,,,,SPECI,100.0
PMDY 180744Z AUTO 16013KT 10SM FEW019 SCT031 23/21 A3017 RMK AO2 TSNO $,PMDY,2014-12-18T07:44:00Z,28.22,-177.37,23.0,21.0,160,13,,10.0,30.171259,,,TRUE,TRUE,TRUE,,TRUE,,,,FEW,1900,SCT,3100,,,,,VFR,,,,,,,,,,,,SPECI,4.0
CYWK 180744Z AUTO 03003KT 9SM FEW030 BKN160 OVC200 M18/M20 A2997 RMK SLP206,CYWK,2014-12-18T07:44:00Z,52.92,-66.87,-18.0,-20.0,30,3,,9.0,29.970472,1020.6,,TRUE,,,,,,,,FEW,3000,BKN,16000,OVC,20000,,,VFR,,,,,,,,,,,,SPECI,551.0
CYYB 180744Z AUTO 35010G18KT 9SM BKN011 OVC055 M08/M09 A2996 RMK SLP167,CYYB,2014-12-18T07:44:00Z,46.35,-79.42,-8.0,-9.0,350,10,18,9.0,29.958662,1016.7,,TRUE,,,,,,,,BKN,1100,OVC,5500,,,,,MVFR,,,,,,,,,,,,SPECI,371.0
CYKJ 180744Z AUTO 23011KT 5SM -SN OVC004 M11/M12 A2987 RMK SLP159,CYKJ,2014-12-18T07:44:00Z,57.25,-105.62,-11.0,-12.0,230,11,,5.0,29.870079,1015.9,,TRUE,,,,,,,-SN,OVC,400,,,,,,,LIFR,,,,,,,,,,,,SPECI,509.0
MMMZ 180743Z 00000KT 8SM BKN230 14/12 A2998 RMK 8/007 HZY,MMMZ,2014-12-18T07:43:00Z,23.17,-106.27,14.0,12.0,0,0,,8.0,29.97933,,,,,,,,,,,BKN,23000,,,,,,,VFR,,,,,,,,,,,,METAR,10.0
RJSS 180743Z 29003KT 260V340 9999 FEW015 03/M05 Q1014 RMK 1CU015 A2995 P/RR,RJSS,2014-12-18T07:43:00Z,38.12,140.92,3.0,-5.0,290,3,,6.21,29.940945,,,,,,,,,,,FEW,1500,,,,,,,VFR,,,,,,,,,,,,METAR,5.0
RJSC 180743Z 24004KT 6000 -SHSN FEW004 SCT015 BKN035 00/M02 Q1015 RMK 1ST004 3CU015 5CU035 A3000,RJSC,2014-12-18T07:43:00Z,38.42,140.37,0.0,-2.0,240,4,,3.73,29.970472,,,,,,,,,,-SHSN,FEW,400,SCT,1500,BKN,3500,,,MVFR,,,,,,,,,,,,SPECI,108.0
PAEI 180743Z AUTO 00000KT 10SM OVC019 M09/M10 A2967 RMK AO2,PAEI,2014-12-18T07:43:00Z,64.67,-147.1,-9.0,-10.0,0,0,,10.0,29.66929,,,TRUE,TRUE,,,,,,,OVC,1900,,,,,,,MVFR,,,,,,,,,,,,SPECI,167.0
KMUO 180743Z AUTO 11013KT 10SM OVC075 03/M01 A3004 RMK AO2,KMUO,2014-12-18T07:43:00Z,43.03,-115.87,3.0,-1.0,110,13,,10.0,30.041338,,,TRUE,TRUE,,,,,,,OVC,7500,,,,,,,VFR,,,,,,,,,,,,SPECI,913.0
KGRK 180743Z AUTO 08005KT 1 3/4SM BR OVC003 08/08 A3010 RMK AO2,KGRK,2014-12-18T07:43:00Z,31.07,-97.83,8.0,8.0,80,5,,1.75,30.100393,,,TRUE,TRUE,,,,,,BR,OVC,300,,,,,,,LIFR,,,,,,,,,,,,SPECI,309.0
EGUN 180743Z AUTO 24011KT 9999 BKN021 OVC028 12/10 A2973 RMK AO2 CIG 021V028 $,EGUN,2014-12-18T07:43:00Z,52.37,0.47,12.0,10.0,240,11,,6.21,29.731298,,,TRUE,TRUE,TRUE,,,,,,BKN,2100,OVC,2800,,,,,MVFR,,,,,,,,,,,,SPECI,10.0
UKKK 180743Z 22002MPS 0700 R26/0900V1800D FZFG OVC001 M01/M01 Q1014 26290055 TEMPO 0400 FZFG,UKKK,2014-12-18T07:43:00Z,50.4,30.45,-1.0,-1.0,220,4,,0.43,29.940945,,,,,,,,,,FZFG,OVC,100,,,,,,,LIFR,,,,,,,,,,,,SPECI,179.0
SCAT 180743Z AUTO 32003KT 250V030 9999 // ///011 14/11 Q1017,SCAT,2014-12-18T07:43:00Z,-27.27,-70.77,14.0,11.0,320,3,,6.21,30.029528,,,TRUE,,,,,,,,,,,,,,,,,,,,,,,,,,,,SPECI,204.0
MMAA 180742Z 36003KT 7SM SKC 24/22 A2996,MMAA,2014-12-18T07:42:00Z,16.75,-99.75,24.0,22.0,360,3,,7.0,29.958662,,,,,,,,,,,SKC,,,,,,,,VFR,,,,,,,,,,,,METAR,5.0
MMTJ 180742Z 00000KT 7SM SCT030 11/06 A3016 RMK 8/500 HZY,MMTJ,2014-12-18T07:42:00Z,32.53,-116.97,11.0,6.0,0,0,,7.0,30.159449,,,,,,,,,,,SCT,3000,,,,,,,VFR,,,,,,,,,,,,METAR,152.0
MMTP 180742Z 00000KT 10SM SKC 24/22 A2994,MMTP,2014-12-18T07:42:00Z,14.77,-92.37,24.0,22.0,0,0,,10.0,29.940945,,,,,,,,,,,SKC,,,,,,,,VFR,,,,,,,,,,,,METAR,29.0
CYXD 180742Z AUTO 22002KT 2SM OVC002 M07/M08 A2984,CYXD,2014-12-18T07:42:00Z,53.57,-113.52,-7.0,-8.0,220,2,,2.0,29.840551,,,TRUE,,,,,,,,OVC,200,,,,,,,LIFR,,,,,,,,,,,,SPECI,671.0
YSCB 180742Z 29015G25KT CAVOK 26/00 Q1006 NOSIG RMK USE TAF FOR ARRIVALS AFTER 0830Z,YSCB,2014-12-18T07:42:00Z,-35.28,149.17,26.0,0.0,290,15,25,6.21,29.704725,,,,,,TRUE,,,,,CAVOK,,,,,,,,VFR,,,,,,,,,,,,SPECI,577.0
MMRX 180741Z 16008KT 8SM BKN010 21/18 A3001 RMK 8/500 HZY FU,MMRX,2014-12-18T07:41:00Z,26.02,-98.22,21.0,18.0,160,8,,8.0,30.008858,,,,,,,,,,,BKN,1000,,,,,,,MVFR,,,,,,,,,,,,METAR,39.0
ETAD 180741Z 22010KT 1600 R23/P1500 BR OVC003 09/09 A2989 RMK AO2A RAE0705DZB0705E0734 $,ETAD,2014-12-18T07:41:00Z,49.98,6.7,9.0,9.0,220,10,,0.99,29.890747,,,,TRUE,TRUE,,,,,BR,OVC,300,,,,,,,LIFR,,,,,,,,,,,,SPECI,365.0
CYXU 180741Z 25012KT 7SM -FZDZ OVC009 M03/M04 A3009 RMK ST8 SLP201,CYXU,2014-12-18T07:41:00Z,43.02,-81.15,-3.0,-4.0,250,12,,7.0,30.088583,1020.1,,,,,,,,,-FZDZ,OVC,900,,,,,,,IFR,,,,,,,,,,,,SPECI,278.0
VOTV 180740Z 31004KT 5000 HZ SCT015 SCT090 31/24 Q1008 NOSIG,VOTV,2014-12-18T07:40:00Z,8.47,76.95,31.0,24.0,310,4,,3.11,29.763779,,,,,,TRUE,,,,HZ,SCT,1500,SCT,9000,,,,,MVFR,,,,,,,,,,,,METAR,8.0
VOTR 180740Z 04006KT 4000 -RA FEW010 SCT016 FEW025CB OVC080 25/23 Q1012 TEMPO 3000 +RA,VOTR,2014-12-18T07:40:00Z,10.77,78.72,25.0,23.0,40,6,,2.49,29.88189,,,,,,,,,,-RA,FEW,1000,SCT,1600,FEW,2500,OVC,8000,IFR,,,,,,,,,,,,METAR,88.0
VOMM 180740Z 06013KT 6000 SCT018 SCT100 29/23 Q1013 NOSIG,VOMM,2014-12-18T07:40:00Z,13.0,80.17,29.0,23.0,60,13,,3.73,29.911417,,,,,,TRUE,,,,,SCT,1800,SCT,10000,,,,,MVFR,,,,,,,,,,,,METAR,16.0
VOHY 180740Z 09005KT 6000 NSC 27/06 Q1019 NOSIG,VOHY,2014-12-18T07:40:00Z,17.45,78.45,27.0,6.0,90,5,,3.73,30.088583,,,,,,TRUE,,,,,,,,,,,,,,,,,,,,,,,,,METAR,545.0
VOHS 180740Z VRB05KT 6000 NSC 25/04 Q1018 NOSIG,VOHS,2014-12-18T07:40:00Z,17.23,78.43,25.0,4.0,0,5,,3.73,30.059055,,,,,,TRUE,,,,,,,,,,,,,,,,,,,,,,,,,METAR,1.0
VANP 180740Z 06003KT 5000 HZ NSC 23/15 Q1019 NOSIG,VANP,2014-12-18T07:40:00Z,21.08,79.05,23.0,15.0,60,3,,3.11,30.088583,,,,,,TRUE,,,,HZ,,,,,,,,,,,,,,,,,,,,,METAR,310.0
VABB 180740Z 03007KT 2100 FU NSC 29/08 Q1014 NOSIG,VABB,2014-12-18T07:40:00Z,19.1,72.87,29.0,8.0,30,7,,1.3,29.940945,,,,,,TRUE,,,,FU,,,,,,,,,,,,,,,,,,,,,METAR,8.0
VAAH 180740Z 07008KT 5000 FU NSC 24/07 Q1017 NOSIG,VAAH,2014-12-18T07:40:00Z,23.07,72.62,24.0,7.0,70,8,,3.11,30.029528,,,,,,TRUE,,,,FU,,,,,,,,,,,,,,,,,,,,,METAR,55.0
K8S0 180740Z 22007KT ,K8S0,2014-12-18T07:40:00Z,48.6,-113.12,,,220,7,,,,,,,,,,,,,,,,,,,,,,,,,,,,,,,,,,METAR,1419.0
MMCV 180740Z 17010KT 6SM OVC020 20/20 A3000 RMK 8/5// BR HZ,MMCV,2014-12-18T07:40:00Z,23.72,-98.97,20.0,20.0,170,10,,6.0,30.0,,,,,,,,,,,OVC,2000,,,,,,,MVFR,,,,,,,,,,,,METAR,238.0
CYPH 180740Z AUTO 24020KT 2 1/4SM -SN OVC009 M11/M13 A3004 RMK SLP173,CYPH,2014-12-18T07:40:00Z,58.45,-78.08,-11.0,-13.0,240,20,,2.25,30.041338,1017.3,,TRUE,,,,,,,-SN,OVC,900,,,,,,,IFR,,,,,,,,,,,,SPECI,3.0
CWZQ 180740Z AUTO 10032G49KT 05/02 RMK AO1 T00450023,CWZQ,2014-12-18T07:40:00Z,46.53,-61.05,4.5,2.3,100,32,49,,,,,TRUE,TRUE,,,,,,,,,,,,,,,,,,,,,,,,,,,METAR,17.0
CYHM 180740Z 25016G21KT 8SM -SHSN OVC012 M02/M04 A3005 RMK SC8 SLP184,CYHM,2014-12-18T07:40:00Z,43.17,-79.93,-2.0,-4.0,250,16,21,8.0,30.050198,1018.4,,,,,,,,,-SHSN,OVC,1200,,,,,,,MVFR,,,,,,,,,,,,SPECI,238.0
KFBR 180740Z AUTO 25007KT 10SM CLR M03/M05 A3006 RMK AO2 T10291052,KFBR,2014-12-18T07:40:00Z,41.4,-110.4,-2.9,-5.2,250,7,,10.0,30.059055,,,TRUE,TRUE,,,,,,,CLR,,,,,,,,VFR,,,,,,,,,,,,METAR,2144.0
CWCL 180740Z AUTO ///// M03/,CWCL,2014-12-18T07:40:00Z,51.13,-121.5,-3.0,,,,,,,,,TRUE,,,,,,,,,,,,,,,,,,,,,,,,,,,,SPECI,1057.0
CYOY 180740Z AUTO 16003KT 1 1/4SM -SN OVC014 OVC034 M01/M02 A2972,CYOY,2014-12-18T07:40:00Z,46.88,-71.5,-1.0,-2.0,160,3,,1.25,29.719488,,,TRUE,,,,,,,-SN,OVC,1400,OVC,3400,,,,,IFR,,,,,,,,,,,,SPECI,168.0
PKWA 180740Z AUTO 07016G21KT 10SM SCT021 SCT026 28/23 A2982 RMK AO2 T02840231,PKWA,2014-12-18T07:40:00Z,8.72,167.72,28.4,23.1,70,16,21,10.0,29.819881,,,TRUE,TRUE,,,,,,,SCT,2100,SCT,2600,,,,,VFR,,,,,,,,,,,,SPECI,8.0
KMVH 180740Z AUTO 29003KT 10SM CLR M04/M07 A2990 RMK A01,KMVH,2014-12-18T07:40:00Z,46.83,-108.93,-4.0,-7.0,290,3,,10.0,29.899607,,,TRUE,TRUE,,,,,,,CLR,,,,,,,,VFR,,,,,,,,,,,,SPECI,1355.0
KGOO 180740Z AUTO 14005KT 10SM BKN010 OVC060 04/03 A3009 RMK AO1,KGOO,2014-12-18T07:40:00Z,39.22,-121.0,4.0,3.0,140,5,,10.0,30.088583,,,TRUE,TRUE,,,,,,,BKN,1000,OVC,6000,,,,,MVFR,,,,,,,,,,,,SPECI,962.0
KEDU 180740Z AUTO 10003KT 10SM BKN046 10/09 A3011 RMK AO1,KEDU,2014-12-18T07:40:00Z,38.53,-121.78,10.0,9.0,100,3,,10.0,30.109253,,,TRUE,TRUE,,,,,,,BKN,4600,,,,,,,VFR,,,,,,,,,,,,SPECI,21.0
PATC 180739Z AUTO 03018KT 3SM BR CLR M08/M09 A2959 RMK AO2 SLP029 TSNO $,PATC,2014-12-18T07:39:00Z,65.57,-167.92,-8.0,-9.0,30,18,,3.0,29.589567,1002.9,,TRUE,TRUE,TRUE,,TRUE,,,BR,CLR,,,,,,,,MVFR,,,,,,,,,,,,METAR,83.0
FACV 180739Z 11002KT CAVOK 30/M00 Q1015,FACV,2014-12-18T07:39:00Z,-31.47,19.77,30.0,0.0,110,2,,6.21,29.970472,,,,,,,,,,,CAVOK,,,,,,,,VFR,,,,,,,,,,,,SPECI,1000.0
KADF 180739Z AUTO 03004KT 3SM BR FEW006 OVC041 03/03 A3024 RMK AO2 RAE30 P0000,KADF,2014-12-18T07:39:00Z,34.1,-93.07,3.0,3.0,30,4,,3.0,30.239174,,,TRUE,TRUE,,,,,,BR,FEW,600,OVC,4100,,,,,MVFR,,,,,,0.0050,,,,,,METAR,56.0
KMHS 180739Z AUTO 10005KT 10SM BKN029 OVC060 03/01 A3004 RMK AO2 T00330011,KMHS,2014-12-18T07:39:00Z,41.32,-122.32,3.3,1.1,100,5,,10.0,30.041338,,,TRUE,TRUE,,,,,,,BKN,2900,OVC,6000,,,,,MVFR,,,,,,,,,,,,SPECI,1078.0
CYNM 180739Z AUTO 33010G18KT 9SM OVC020 M14/M15 A3004 RMK SLP196,CYNM,2014-12-18T07:39:00Z,49.77,-77.82,-14.0,-15.0,330,10,18,9.0,30.041338,1019.6,,TRUE,,,,,,,,OVC,2000,,,,,,,MVFR,,,,,,,,,,,,SPECI,281.0
UTO8 M M M 143/-16/-18/3508/M/ SOG 07 2014 99MM,UTO8,2014-12-18T07:38:07Z,,,,,,,,,,,,,,,,,,,,,,,,,,,,,,,,,,,,,,,,SPECI,
UKON 180738Z 36004MPS 330V040 3700 BR OVC007 05/04 Q1013 NOSIG,UKON,2014-12-18T07:38:00Z,47.05,31.92,5.0,4.0,360,8,,2.3,29.911417,,,,,,TRUE,,,,BR,OVC,700,,,,,,,IFR,,,,,,,,,,,,SPECI,56.0
KRIV 180738Z AUTO 16003KT 10SM SCT027 08/08 A3012 RMK AO2,KRIV,2014-12-18T07:38:00Z,33.87,-117.27,8.0,8.0,160,3,,10.0,30.121063,,,TRUE,TRUE,,,,,,,SCT,2700,,,,,,,VFR,,,,,,,,,,,,SPECI,469.0
KTGI 180737Z AUTO 33020G26KT 10SM CLR 05/M02 A3007 RMK AO1,KTGI,2014-12-18T07:37:00Z,37.82,-75.98,5.0,-2.0,330,20,26,10.0,30.070866,,,TRUE,TRUE,,,,,,,CLR,,,,,,,,VFR,,,,,,,,,,,,METAR,2.0
KRCA 180737Z AUTO 17006KT 10SM OVC007 M06/M06 A2997 RMK AO2,KRCA,2014-12-18T07:37:00Z,44.13,-103.08,-6.0,-6.0,170,6,,10.0,29.970472,,,TRUE,TRUE,,,,,,,OVC,700,,,,,,,IFR,,,,,,,,,,,,SPECI,999.0
KSAW 180737Z AUTO 01011KT 10SM OVC015 M04/M06 A3021 RMK AO2 T10411062,KSAW,2014-12-18T07:37:00Z,46.35,-87.4,-4.1,-6.2,10,11,,10.0,30.209646,,,TRUE,TRUE,,,,,,,OVC,1500,,,,,,,MVFR,,,,,,,,,,,,SPECI,372.0
KPHN 180737Z AUTO 28005KT 3SM BR OVC008 M02/M03 A3016 RMK AO2,KPHN,2014-12-18T07:37:00Z,42.92,-82.52,-2.0,-3.0,280,5,,3.0,30.159449,,,TRUE,TRUE,,,,,,BR,OVC,800,,,,,,,IFR,,,,,,,,,,,,SPECI,198.0
KCJR 180736Z AUTO 00000KT 10SM CLR M02/M04 A3011 RMK AO2,KCJR,2014-12-18T07:36:00Z,38.53,-77.87,-2.0,-4.0,0,0,,10.0,30.109253,,,TRUE,TRUE,,,,,,,CLR,,,,,,,,VFR,,,,,,,,,,,,METAR,97.0
CYOW 180736Z 29012KT 5SM -SN BR FEW003 OVC005 00/M00 A2981 RMK SF1SC7 SLP101,CYOW,2014-12-18T07:36:00Z,45.32,-75.67,0.0,0.0,290,12,,5.0,29.811024,1010.1,,,,,,,,,-SN BR,FEW,300,OVC,500,,,,,IFR,,,,,,,,,,,,SPECI,114.0
SBIL 180736Z 08009KT 6000 -RA SCT006 BKN017 OVC100 23/22 Q1012,SBIL,2014-12-18T07:36:00Z,-14.8,-39.02,23.0,22.0,80,9,,3.73,29.88189,,,,,,,,,,-RA,SCT,600,BKN,1700,OVC,10000,,,MVFR,,,,,,,,,,,,SPECI,5.0
FAUP 180736Z 32007KT CAVOK 31/10 Q1014 NOSIG,FAUP,2014-12-18T07:36:00Z,-28.38,21.27,31.0,10.0,320,7,,6.21,29.940945,,,,,,TRUE,,,,,CAVOK,,,,,,,,VFR,,,,,,,,,,,,SPECI,836.0
KAVC 180736Z AUTO 31003KT 10SM CLR 04/M03 A3015 RMK AO2 T00391027,KAVC,2014-12-18T07:36:00Z,36.68,-78.03,3.9,-2.7,310,3,,10.0,30.15059,,,TRUE,TRUE,,,,,,,CLR,,,,,,,,VFR,,,,,,,,,,,,SPECI,135.0
KMCD 180736Z AUTO 01010G15KT 10SM BKN011 M05/M05 A3016 RMK AO2 T10501055,KMCD,2014-12-18T07:36:00Z,45.85,-84.63,-5.0,-5.5,10,10,15,10.0,30.159449,,,TRUE,TRUE,,,,,,,BKN,1100,,,,,,,MVFR,,,,,,,,,,,,SPECI,226.0
PASL 180736Z AUTO 00000KT 10SM CLR M12/M15 A2963 RMK AO1,PASL,2014-12-18T07:36:00Z,61.72,-157.15,-12.0,-15.0,0,0,,10.0,29.630905,,,TRUE,TRUE,,,,,,,CLR,,,,,,,,VFR,,,,,,,,,,,,SPECI,55.0
PAPO 180736Z 06005KT 10SM OVC065 M12/M13 A2966 RMK AO1,PAPO,2014-12-18T07:36:00Z,68.35,-166.8,-12.0,-13.0,60,5,,10.0,29.660433,,,,TRUE,,,,,,,OVC,6500,,,,,,,VFR,,,,,,,,,,,,SPECI,6.0
KJVW 180735Z AUTO 10SM FEW080 SCT090 06/04 A3021 RMK AO2,KJVW,2014-12-18T07:35:00Z,32.3,-90.42,6.0,4.0,,,,10.0,30.209646,,,TRUE,TRUE,,,,,,,FEW,8000,SCT,9000,,,,,VFR,,,,,,,,,,,,SPECI,76.0
KDYA 180735Z AUTO 00000KT 10SM CLR 02/ A3022 RMK AO2 T0022,KDYA,2014-12-18T07:35:00Z,32.47,-87.95,2.2,,0,0,,10.0,30.221457,,,TRUE,TRUE,,,,,,,CLR,,,,,,,,VFR,,,,,,,,,,,,SPECI,34.0
K08D 180735Z AUTO 14007KT 10SM OVC010 M09/M09 A3004 RMK AO2,K08D,2014-12-18T07:35:00Z,48.3,-102.4,-9.0,-9.0,140,7,,10.0,30.041338,,,TRUE,TRUE,,,,,,,OVC,1000,,,,,,,MVFR,,,,,,,,,,,,SPECI,684.0
KVQQ 180735Z AUTO 00000KT 3SM BR CLR 03/03 A3015 RMK AO2,KVQQ,2014-12-18T07:35:00Z,30.22,-81.88,3.0,3.0,0,0,,3.0,30.15059,,,TRUE,TRUE,,,,,,BR,CLR,,,,,,,,MVFR,,,,,,,,,,,,METAR,25.0
KFWB 180735Z AUTO 12009KT 5SM BR BKN005 BKN009 OVC032 00/00 A3018 RMK AO2,KFWB,2014-12-18T07:35:00Z,36.7,-93.4,0.0,0.0,120,9,,5.0,30.180119,,,TRUE,TRUE,,,,,,BR,BKN,500,BKN,900,OVC,3200,,,IFR,,,,,,,,,,,,METAR,406.0
KBWD 180735Z AUTO 15003KT 3/4SM BR OVC002 09/09 A3009 RMK AO2,KBWD,2014-12-18T07:35:00Z,31.8,-98.95,9.0,9.0,150,3,,0.75,30.088583,,,TRUE,TRUE,,,,,,BR,OVC,200,,,,,,,LIFR,,,,,,,,,,,,METAR,423.0
KSPL 180735Z AUTO 06009KT 3SM OVC045 21/20 A3001 RMK AO1 LTG DSNT SW,KSPL,2014-12-18T07:35:00Z,26.07,-97.15,21.0,20.0,60,9,,3.0,30.008858,,,TRUE,TRUE,,,,,,,OVC,4500,,,,,,,MVFR,,,,,,,,,,,,METAR,4.0
KPVB 180735Z AUTO 00000KT 10SM CLR M08/M10 A3028 RMK AO1 T10851100,KPVB,2014-12-18T07:35:00Z,42.68,-90.43,-8.5,-10.0,0,0,,10.0,30.280512,,,TRUE,TRUE,,,,,,,CLR,,,,,,,,VFR,,,,,,,,,,,,METAR,313.0
KO22 180735Z AUTO 00000KT 7SM SCT060 OVC070 05/05 A3010 RMK AO1,KO22,2014-12-18T07:35:00Z,38.03,-120.42,5.0,5.0,0,0,,7.0,30.100393,,,TRUE,TRUE,,,,,,,SCT,6000,OVC,7000,,,,,VFR,,,,,,,,,,,,METAR,646.0
KMRJ 180735Z AUTO 00000KT 10SM CLR M07/M10 A3026 RMK AO2,KMRJ,2014-12-18T07:35:00Z,42.88,-90.23,-7.0,-10.0,0,0,,10.0,30.259842,,,TRUE,TRUE,,,,,,,CLR,,,,,,,,VFR,,,,,,,,,,,,METAR,359.0
KMGR 180735Z AUTO 00000KT 10SM CLR 06/06 A3015 RMK AO2,KMGR,2014-12-18T07:35:00Z,31.08,-83.8,6.0,6.0,0,0,,10.0,30.15059,,,TRUE,TRUE,,,,,,,CLR,,,,,,,,VFR,,,,,,,,,,,,METAR,90.0
KFYG 180735Z AUTO 12005KT 10SM OVC070 00/M04 A3026 RMK AO2,KFYG,2014-12-18T07:35:00Z,38.58,-91.0,0.0,-4.0,120,5,,10.0,30.259842,,,TRUE,TRUE,,,,,,,OVC,7000,,,,,,,VFR,,,,,,,,,,,,METAR,149.0
KEGV 180735Z AUTO 02005KT 10SM OVC009 M06/M07 A3022 RMK AO2 T10611070,KEGV,2014-12-18T07:35:00Z,45.93,-89.27,-6.1,-7.0,20,5,,10.0,30.221457,,,TRUE,TRUE,,,,,,,OVC,900,,,,,,,IFR,,,,,,,,,,,,METAR,500.0
KDKR 180735Z AUTO 05004KT OVC013 11/09 A3015 RMK AO2,KDKR,2014-12-18T07:35:00Z,31.3,-95.4,11.0,9.0,50,4,,,30.15059,,,TRUE,TRUE,,,,,,,OVC,1300,,,,,,,,,,,,,,,,,,,METAR,106.0
KD60 180735Z AUTO 17009KT 10SM OVC009 M09/M09 A3006 RMK AO2,KD60,2014-12-18T07:35:00Z,48.38,-102.9,-9.0,-9.0,170,9,,10.0,30.059055,,,TRUE,TRUE,,,,,,,OVC,900,,,,,,,IFR,,,,,,,,,,,,METAR,693.0
KAQO 180735Z AUTO 00000KT 3SM BR OVC001 10/10 A3013 RMK AO2,KAQO,2014-12-18T07:35:00Z,30.78,-98.67,10.0,10.0,0,0,,3.0,30.129921,,,TRUE,TRUE,,,,,,BR,OVC,100,,,,,,,LIFR,,,,,,,,,,,,METAR,336.0
KAIG 180735Z AUTO 34005KT 10SM OVC010 M05/M07 A3024 RMK AO2 T10551067,KAIG,2014-12-18T07:35:00Z,45.15,-89.12,-5.5,-6.7,340,5,,10.0,30.239174,,,TRUE,TRUE,,,,,,,OVC,1000,,,,,,,MVFR,,,,,,,,,,,,METAR,464.0
K0F2 180735Z AUTO 13006KT 3SM BR OVC003 04/04 A3009 RMK AO2 T00390037,K0F2,2014-12-18T07:35:00Z,33.6,-97.78,3.9,3.7,130,6,,3.0,30.088583,,,TRUE,TRUE,,,,,,BR,OVC,300,,,,,,,LIFR,,,,,,,,,,,,METAR,336.0
KY49 180735Z AUTO 00000KT 10SM CLR M16/M17 A3027 RMK AO2 T11601175,KY49,2014-12-18T07:35:00Z,47.13,-94.65,-16.0,-17.5,0,0,,10.0,30.268702,,,TRUE,TRUE,,,,,,,CLR,,,,,,,,VFR,,,,,,,,,,,,METAR,416.0
KVUJ 180735Z AUTO 00000KT 10SM CLR 00/00 A3014 RMK AO2 T10021002,KVUJ,2014-12-18T07:35:00Z,35.42,-80.15,-0.2,-0.2,0,0,,10.0,30.138779,,,TRUE,TRUE,,,,,,,CLR,,,,,,,,VFR,,,,,,,,,,,,METAR,186.0
KVES 180735Z AUTO 28005KT 10SM OVC023 M03/M05 A3025 RMK AO2,KVES,2014-12-18T07:35:00Z,40.2,-84.53,-3.0,-5.0,280,5,,10.0,30.250984,,,TRUE,TRUE,,,,,,,OVC,2300,,,,,,,MVFR,,,,,,,,,,,,METAR,307.0
KUNI 180735Z AUTO 33006KT 10SM OVC020 M03/M07 A3026 RMK AO2 T10261070,KUNI,2014-12-18T07:35:00Z,39.22,-82.23,-2.6,-7.0,330,6,,10.0,30.259842,,,TRUE,TRUE,,,,,,,OVC,2000,,,,,,,MVFR,,,,,,,,,,,,METAR,193.0
KUES 180735Z AUTO 28005KT 10SM CLR M08/M10 A3027 RMK AO2,KUES,2014-12-18T07:35:00Z,43.05,-88.25,-8.0,-10.0,280,5,,10.0,30.268702,,,TRUE,TRUE,,,,,,,CLR,,,,,,,,VFR,,,,,,,,,,,,METAR,278.0
KTVI 180735Z AUTO 31003KT 10SM CLR 08/08 A3016 RMK AO2,KTVI,2014-12-18T07:35:00Z,30.9,-83.88,8.0,8.0,310,3,,10.0,30.159449,,,TRUE,TRUE,,,,,,,CLR,,,,,,,,VFR,,,,,,,,,,,,METAR,80.0
KSUW 180735Z AUTO 00000KT 10SM OVC020 M07/M08 A3034 RMK AO2 T10681085,KSUW,2014-12-18T07:35:00Z,46.68,-92.1,-6.8,-8.5,0,0,,10.0,30.339567,,,TRUE,TRUE,,,,,,,OVC,2000,,,,,,,MVFR,,,,,,,,,,,,METAR,206.0
KSTE 180735Z AUTO 00000KT 10SM OVC013 M06/M09 A3027 RMK AO2 T10651087,KSTE,2014-12-18T07:35:00Z,44.55,-89.53,-6.5,-8.7,0,0,,10.0,30.268702,,,TRUE,TRUE,,,,,,,OVC,1300,,,,,,,MVFR,,,,,,,,,,,,METAR,338.0
KSPF 180735Z AUTO 00000KT 5SM BR CLR M12/M14 A2995 RMK AO2,KSPF,2014-12-18T07:35:00Z,44.47,-103.77,-12.0,-14.0,0,0,,5.0,29.949802,,,TRUE,TRUE,,,,,,BR,CLR,,,,,,,,MVFR,,,,,,,,,,,,METAR,1188.0
KSEZ 180735Z AUTO 18004KT 10SM BKN016 OVC023 03/03 A3012 RMK AO2,KSEZ,2014-12-18T07:35:00Z,34.85,-111.78,3.0,3.0,180,4,,10.0,30.121063,,,TRUE,TRUE,,,,,,,BKN,1600,OVC,2300,,,,,MVFR,,,,,,,,,,,,METAR,1473.0
KRZN 180735Z AUTO 36003KT 10SM OVC018 M08/M10 A3032 RMK AO2 T10821100,KRZN,2014-12-18T07:35:00Z,45.82,-92.37,-8.2,-10.0,360,3,,10.0,30.318897,,,TRUE,TRUE,,,,,,,OVC,1800,,,,,,,MVFR,,,,,,,,,,,,METAR,301.0
KRYV 180735Z AUTO 00000KT 10SM OVC022 M08/M10 A3027 RMK AO2 T10811097,KRYV,2014-12-18T07:35:00Z,43.17,-88.72,-8.1,-9.7,0,0,,10.0,30.268702,,,TRUE,TRUE,,,,,,,OVC,2200,,,,,,,MVFR,,,,,,,,,,,,METAR,254.0
KRWV 180735Z AUTO 36005KT 10SM OVC007 09/09 A3013 RMK AO2,KRWV,2014-12-18T07:35:00Z,30.52,-96.7,9.0,9.0,360,5,,10.0,30.129921,,,TRUE,TRUE,,,,,,,OVC,700,,,,,,,IFR,,,,,,,,,,,,METAR,119.0
KRCR 180735Z AUTO 27006KT 10SM OVC024 M02/M05 A3028 RMK AO2,KRCR,2014-12-18T07:35:00Z,41.07,-86.18,-2.0,-5.0,270,6,,10.0,30.280512,,,TRUE,TRUE,,,,,,,OVC,2400,,,,,,,MVFR,,,,,,,,,,,,METAR,241.0
KPNA 180735Z AUTO 00000KT 10SM SCT032 OVC046 M08/M08 A3003 RMK AO2,KPNA,2014-12-18T07:35:00Z,42.8,-109.8,-8.0,-8.0,0,0,,10.0,30.029528,,,TRUE,TRUE,,,,,,,SCT,3200,OVC,4600,,,,,VFR,,,,,,,,,,,,METAR,2160.0
KOCQ 180735Z AUTO 31003KT 10SM OVC016 M03/M05 A3026 RMK AO1 T10271047,KOCQ,2014-12-18T07:35:00Z,44.87,-87.92,-2.7,-4.7,310,3,,10.0,30.259842,,,TRUE,TRUE,,,,,,,OVC,1600,,,,,,,MVFR,,,,,,,,,,,,METAR,183.0
KMZZ 180735Z AUTO 25006KT 10SM OVC026 M04/M06 A3028 RMK AO2 T10381057,KMZZ,2014-12-18T07:35:00Z,40.48,-85.68,-3.8,-5.7,250,6,,10.0,30.280512,,,TRUE,TRUE,,,,,,,OVC,2600,,,,,,,MVFR,,,,,,,,,,,,METAR,262.0
KMYZ 180735Z AUTO 13003KT 2 1/2SM -SN SCT019 BKN027 OVC038 M02/M03 A3020 RMK AO2,KMYZ,2014-12-18T07:35:00Z,39.25,-96.63,-2.0,-3.0,130,3,,2.5,30.200787,,,TRUE,TRUE,,,,,,-SN,SCT,1900,BKN,2700,OVC,3800,,,IFR,,,,,,,,,,,,METAR,319.0
KMTV 180735Z AUTO 00000KT 10SM CLR M03/M03 A3013 RMK AO2 T10261026,KMTV,2014-12-18T07:35:00Z,36.63,-80.02,-2.6,-2.6,0,0,,10.0,30.129921,,,TRUE,TRUE,,,,,,,CLR,,,,,,,,VFR,,,,,,,,,,,,METAR,287.0
KMGC 180735Z AUTO 28003KT 10SM OVC023 M02/M07 A3027 RMK AO2,KMGC,2014-12-18T07:35:00Z,41.7,-86.82,-2.0,-7.0,280,3,,10.0,30.268702,,,TRUE,TRUE,,,,,,,OVC,2300,,,,,,,MVFR,,,,,,,,,,,,METAR,200.0
KMCJ 180735Z AUTO 08007KT 16/15 A3004 RMK AO1,KMCJ,2014-12-18T07:35:00Z,29.72,-95.4,16.0,15.0,80,7,,,30.041338,,,TRUE,TRUE,,,,,,,,,,,,,,,,,,,,,,,,,,,METAR,69.0
KLNL 180735Z AUTO 05005KT 10SM OVC009 M06/M07 A3024 RMK AO2 T10611071,KLNL,2014-12-18T07:35:00Z,46.15,-89.22,-6.1,-7.1,50,5,,10.0,30.239174,,,TRUE,TRUE,,,,,,,OVC,900,,,,,,,IFR,,,,,,,,,,,,METAR,520.0
KIZA 180735Z AUTO 11003KT 10SM BKN075 OVC085 07/06 A3013 RMK AO2,KIZA,2014-12-18T07:35:00Z,34.6,-120.07,7.0,6.0,110,3,,10.0,30.129921,,,TRUE,TRUE,,,,,,,BKN,7500,OVC,8500,,,,,VFR,,,,,,,,,,,,METAR,205.0
KINJ 180735Z AUTO 09010KT 4SM BR SCT002 OVC013 07/06 A3011 RMK AO2 T00670055,KINJ,2014-12-18T07:35:00Z,32.08,-97.1,6.7,5.5,90,10,,4.0,30.109253,,,TRUE,TRUE,,,,,,BR,SCT,200,OVC,1300,,,,,MVFR,,,,,,,,,,,,METAR,209.0
KIJX 180735Z AUTO 00000KT 10SM CLR M03/M05 A3030 RMK AO2 T10281047,KIJX,2014-12-18T07:35:00Z,39.77,-90.25,-2.8,-4.7,0,0,,10.0,30.301182,,,TRUE,TRUE,,,,,,,CLR,,,,,,,,VFR,,,,,,,,,,,,METAR,190.0
KHOE 180735Z AUTO 00000KT 10SM CLR 06/05 A3014 RMK AO2,KHOE,2014-12-18T07:35:00Z,31.05,-82.78,6.0,5.0,0,0,,10.0,30.138779,,,TRUE,TRUE,,,,,,,CLR,,,,,,,,VFR,,,,,,,,,,,,METAR,57.0
KHHG 180735Z AUTO 27006KT 10SM OVC023 M03/M06 A3026 RMK AO2 T10341061,KHHG,2014-12-18T07:35:00Z,40.85,-85.45,-3.4,-6.1,270,6,,10.0,30.259842,,,TRUE,TRUE,,,,,,,OVC,2300,,,,,,,MVFR,,,,,,,,,,,,METAR,246.0
KHFJ 180735Z AUTO 12006KT 3SM -DZ OVC005 00/00 A3015 RMK AO2,KHFJ,2014-12-18T07:35:00Z,36.9,-94.02,0.0,0.0,120,6,,3.0,30.15059,,,TRUE,TRUE,,,,,,-DZ,OVC,500,,,,,,,IFR,,,,,,,,,,,,METAR,401.0
KGUR 180735Z AUTO 00000KT 7SM SCT001 M09/M11 A3000 RMK AO2 T10941109 PWINO,KGUR,2014-12-18T07:35:00Z,42.25,-104.72,-9.4,-10.9,0,0,,7.0,30.0,,,TRUE,TRUE,,,,,TRUE,,SCT,100,,,,,,,VFR,,,,,,,,,,,,METAR,1358.0
KBUU 180735Z AUTO 28004KT 10SM CLR M08/M11 A3028 RMK AO2 T10851106,KBUU,2014-12-18T07:35:00Z,42.68,-88.3,-8.5,-10.6,280,4,,10.0,30.280512,,,TRUE,TRUE,,,,,,,CLR,,,,,,,,VFR,,,,,,,,,,,,METAR,237.0
KBBG 180735Z AUTO 12005KT 5SM BR OVC003 00/00 A3020 RMK AO2,KBBG,2014-12-18T07:35:00Z,36.53,-93.2,0.0,0.0,120,5,,5.0,30.200787,,,TRUE,TRUE,,,,,,BR,OVC,300,,,,,,,LIFR,,,,,,,,,,,,METAR,397.0
KACP 180735Z AUTO 00000KT 10SM SCT032 BKN047 OVC110 09/07 A3016 RMK AO2 T00900070,KACP,2014-12-18T07:35:00Z,30.75,-92.68,9.0,7.0,0,0,,10.0,30.159449,,,TRUE,TRUE,,,,,,,SCT,3200,BKN,4700,OVC,11000,,,VFR,,,,,,,,,,,,METAR,33.0
K4M9 180735Z AUTO 07005KT 7SM -RA FEW013 OVC050 02/02 A3027 RMK AO2 P0001,K4M9,2014-12-18T07:35:00Z,36.4,-90.65,2.0,2.0,70,5,,7.0,30.268702,,,TRUE,TRUE,,,,,,-RA,FEW,1300,OVC,5000,,,,,VFR,,,,,,0.01,,,,,,METAR,90.0
K0VG 180735Z AUTO 00000KT 10SM CLR M02/M03 A3023 RMK AO2,K0VG,2014-12-18T07:35:00Z,36.65,-83.22,-2.0,-3.0,0,0,,10.0,30.230314,,,TRUE,TRUE,,,,,,,CLR,,,,,,,,VFR,,,,,,,,,,,,METAR,430.0
KPTB 180735Z AUTO 00000KT 10SM CLR M02/M02 A3011 RMK AO2 T10161025,KPTB,2014-12-18T07:35:00Z,37.17,-77.52,-1.6,-2.5,0,0,,10.0,30.109253,,,TRUE,TRUE,,,,,,,CLR,,,,,,,,VFR,,,,,,,,,,,,METAR,59.0
KPSK 180735Z AUTO 27008KT 10SM CLR 00/M03 A3011 RMK AO2 T00001033,KPSK,2014-12-18T07:35:00Z,37.12,-80.67,0.0,-3.3,270,8,,10.0,30.109253,,,TRUE,TRUE,,,,,,,CLR,,,,,,,,VFR,,,,,,,,,,,,METAR,642.0
KPRS 180735Z AUTO 23005KT 10SM CLR 11/M01 A3009 RMK AO2 T01051010,KPRS,2014-12-18T07:35:00Z,29.63,-104.35,10.5,-1.0,230,5,,10.0,30.088583,,,TRUE,TRUE,,,,,,,CLR,,,,,,,,VFR,,,,,,,,,,,,METAR,896.0
KPRG 180735Z AUTO 00000KT 10SM OVC018 M03/M06 A3031 RMK AO2 T10331060,KPRG,2014-12-18T07:35:00Z,39.7,-87.67,-3.3,-6.0,0,0,,10.0,30.31004,,,TRUE,TRUE,,,,,,,OVC,1800,,,,,,,MVFR,,,,,,,,,,,,METAR,199.0
KPPQ 180735Z AUTO 00000KT 10SM OVC090 M03/M05 A3030 RMK AO2 T10271050,KPPQ,2014-12-18T07:35:00Z,39.63,-90.78,-2.7,-5.0,0,0,,10.0,30.301182,,,TRUE,TRUE,,,,,,,OVC,9000,,,,,,,VFR,,,,,,,,,,,,METAR,216.0
KPPO 180735Z AUTO 26005KT 10SM OVC022 M02/M06 A3027 RMK AO2 T10251063,KPPO,2014-12-18T07:35:00Z,41.57,-86.73,-2.5,-6.3,260,5,,10.0,30.268702,,,TRUE,TRUE,,,,,,,OVC,2200,,,,,,,MVFR,,,,,,,,,,,,METAR,248.0
KPPA 180735Z AUTO 20005KT 1SM BR OVC001 02/02 A3000 RMK AO2 T00210018 PNO,KPPA,2014-12-18T07:35:00Z,35.62,-101.0,2.1,1.8,200,5,,1.0,30.0,,,TRUE,TRUE,,,,,,BR,OVC,100,,,,,,,LIFR,,,,,,,,,,,,METAR,989.0
KPOY 180735Z AUTO 12009KT 10SM CLR M08/M10 A2992 RMK AO2,KPOY,2014-12-18T07:35:00Z,44.87,-108.8,-8.0,-10.0,120,9,,10.0,29.920275,,,TRUE,TRUE,,,,,,,CLR,,,,,,,,VFR,,,,,,,,,,,,METAR,1552.0
KPNT 180735Z AUTO 00000KT 10SM CLR M06/M08 A3031 RMK AO2 T10651077,KPNT,2014-12-18T07:35:00Z,40.92,-88.62,-6.5,-7.7,0,0,,10.0,30.31004,,,TRUE,TRUE,,,,,,,CLR,,,,,,,,VFR,,,,,,,,,,,,METAR,201.0
KPGV 180735Z AUTO 00000KT 1 1/2SM BR VV007 02/02 A3010 RMK AO2,KPGV,2014-12-18T07:35:00Z,35.62,-77.4,2.0,2.0,0,0,,1.5,30.100393,,,TRUE,TRUE,,,,,,BR,OVX,0,,,,,,,LIFR,,,,,,,,,,,700,METAR,8.0
KPEQ 180735Z AUTO 22006KT 10SM CLR 04/M03 A3010 RMK AO2 T00351027,KPEQ,2014-12-18T07:35:00Z,31.38,-103.52,3.5,-2.7,220,6,,10.0,30.100393,,,TRUE,TRUE,,,,,,,CLR,,,,,,,,VFR,,,,,,,,,,,,METAR,797.0
KPEA 180735Z AUTO 00000KT 10SM SCT080 M07/M08 A3030 RMK AO2 T10711085,KPEA,2014-12-18T07:35:00Z,41.4,-92.95,-7.1,-8.5,0,0,,10.0,30.301182,,,TRUE,TRUE,,,,,,,SCT,8000,,,,,,,VFR,,,,,,,,,,,,METAR,270.0
KOOA 180735Z AUTO 00000KT 10SM CLR M07/M09 A3030 RMK AO2 T10731089,KOOA,2014-12-18T07:35:00Z,41.23,-92.5,-7.3,-8.9,0,0,,10.0,30.301182,,,TRUE,TRUE,,,,,,,CLR,,,,,,,,VFR,,,,,,,,,,,,METAR,256.0
KOLY 180735Z AUTO 00000KT 7SM OVC013 M03/M05 A3032 RMK AO2,KOLY,2014-12-18T07:35:00Z,38.72,-88.18,-3.0,-5.0,0,0,,7.0,30.318897,,,TRUE,TRUE,,,,,,,OVC,1300,,,,,,,MVFR,,,,,,,,,,,,METAR,147.0
KOJA 180735Z AUTO 16003KT 2 1/2SM BR OVC003 02/02 A3008 RMK AO2,KOJA,2014-12-18T07:35:00Z,35.55,-98.67,2.0,2.0,160,3,,2.5,30.079725,,,TRUE,TRUE,,,,,,BR,OVC,300,,,,,,,LIFR,,,,,,,,,,,,METAR,490.0
KO54 180735Z AUTO 00000KT 10SM OVC029 04/03 A3005 RMK AO1,KO54,2014-12-18T07:35:00Z,40.75,-122.92,4.0,3.0,0,0,,10.0,30.050198,,,TRUE,TRUE,,,,,,,OVC,2900,,,,,,,MVFR,,,,,,,,,,,,METAR,717.0
KNY0 180735Z AUTO 26016G21KT 4SM OVC010 M01/M02 A2982 RMK AO2 T10111025,KNY0,2014-12-18T07:35:00Z,42.98,-74.33,-1.1,-2.5,260,16,21,4.0,29.819881,,,TRUE,TRUE,,,,,,,OVC,1000,,,,,,,MVFR,,,,,,,,,,,,METAR,271.0
KMWK 180735Z AUTO 30007KT 10SM CLR 05/M03 A3011 RMK AO2 T00491034,KMWK,2014-12-18T07:35:00Z,36.47,-80.55,4.9,-3.4,300,7,,10.0,30.109253,,,TRUE,TRUE,,,,,,,CLR,,,,,,,,VFR,,,,,,,,,,,,METAR,380.0
KMWC 180735Z AUTO 27005KT 10SM CLR M07/M10 A3027 RMK AO2,KMWC,2014-12-18T07:35:00Z,43.12,-88.03,-7.0,-10.0,270,5,,10.0,30.268702,,,TRUE,TRUE,,,,,,,CLR,,,,,,,,VFR,,,,,,,,,,,,METAR,227.0
KMQS 180735Z AUTO 32020G26KT 10SM CLR 01/M06 A2999 RMK AO2,KMQS,2014-12-18T07:35:00Z,39.98,-75.87,1.0,-6.0,320,20,26,10.0,29.991142,,,TRUE,TRUE,,,,,,,CLR,,,,,,,,VFR,,,,,,,,,,,,METAR,201.0
KMNE 180735Z AUTO 08007KT 10SM SCT006 OVC034 07/06 A3019 RMK AO2,KMNE,2014-12-18T07:35:00Z,32.65,-93.3,7.0,6.0,80,7,,10.0,30.188976,,,TRUE,TRUE,,,,,,,SCT,600,OVC,3400,,,,,VFR,,,,,,,,,,,,METAR,85.0
KMKJ 180735Z AUTO 29013KT 10SM CLR 00/M04 A3012 RMK AO2 T00001041,KMKJ,2014-12-18T07:35:00Z,36.88,-81.33,0.0,-4.1,290,13,,10.0,30.121063,,,TRUE,TRUE,,,,,,,CLR,,,,,,,,VFR,,,,,,,,,,,,METAR,780.0
KMDZ 180735Z AUTO 04003KT 10SM OVC010 M06/M07 A3025 RMK AO2 T10581075,KMDZ,2014-12-18T07:35:00Z,45.1,-90.3,-5.8,-7.5,40,3,,10.0,30.250984,,,TRUE,TRUE,,,,,,,OVC,1000,,,,,,,MVFR,,,,,,,,,,,,METAR,448.0
KMDD 180735Z AUTO 23006KT 10SM CLR 10/04 A3008 RMK AO2 T01010035,KMDD,2014-12-18T07:35:00Z,32.03,-102.1,10.1,3.5,230,6,,10.0,30.079725,,,TRUE,TRUE,,,,,,,CLR,,,,,,,,VFR,,,,,,,,,,,,METAR,854.0
KMAN 180735Z AUTO 00000KT 8SM OVC070 02/02 A3004 RMK AO1,KMAN,2014-12-18T07:35:00Z,43.58,-116.52,2.0,2.0,0,0,,8.0,30.041338,,,TRUE,TRUE,,,,,,,OVC,7000,,,,,,,VFR,,,,,,,,,,,,METAR,774.0
KLRU 180735Z AUTO 26008KT 10SM SCT044 SCT050 BKN090 03/01 A3014 RMK AO2 T00280009,KLRU,2014-12-18T07:35:00Z,32.27,-106.92,2.8,0.9,260,8,,10.0,30.138779,,,TRUE,TRUE,,,,,,,SCT,4400,SCT,5000,BKN,9000,,,VFR,,,,,,,,,,,,METAR,1358.0
KLHZ 180735Z AUTO 00000KT 10SM CLR 01/00 A3010 RMK AO2,KLHZ,2014-12-18T07:35:00Z,36.02,-78.33,1.0,0.0,0,0,,10.0,30.100393,,,TRUE,TRUE,,,,,,,CLR,,,,,,,,VFR,,,,,,,,,,,,METAR,113.0
KL38 180735Z AUTO 31003KT 10SM CLR 07/07 A3017 RMK AO2 T00670067,KL38,2014-12-18T07:35:00Z,30.17,-90.93,6.7,6.7,310,3,,10.0,30.171259,,,TRUE,TRUE,,,,,,,CLR,,,,,,,,VFR,,,,,,,,,,,,METAR,4.0
KJYR 180735Z AUTO 12005KT 5SM -SN BKN035 M04/ A3019 RMK AO2,KJYR,2014-12-18T07:35:00Z,40.9,-97.62,-4.0,,120,5,,5.0,30.188976,,,TRUE,TRUE,,,,,,-SN,BKN,3500,,,,,,,MVFR,,,,,,,,,,,,METAR,509.0
KHWY 180735Z AUTO 00000KT 10SM SCT050 00/M01 A3010 RMK AO2 T10011014,KHWY,2014-12-18T07:35:00Z,38.58,-77.72,-0.1,-1.4,0,0,,10.0,30.100393,,,TRUE,TRUE,,,,,,,SCT,5000,,,,,,,VFR,,,,,,,,,,,,METAR,103.0
KHII 180735Z AUTO 00000KT 10SM OVC060 10/08 A3011 RMK AO2,KHII,2014-12-18T07:35:00Z,34.57,-114.37,10.0,8.0,0,0,,10.0,30.109253,,,TRUE,TRUE,,,,,,,OVC,6000,,,,,,,VFR,,,,,,,,,,,,METAR,238.0
KHHW 180735Z AUTO 12006KT 3SM -DZ OVC004 04/03 A3016 RMK AO2 T00380028,KHHW,2014-12-18T07:35:00Z,34.03,-95.55,3.8,2.8,120,6,,3.0,30.159449,,,TRUE,TRUE,,,,,,-DZ,OVC,400,,,,,,,LIFR,,,,,,,,,,,,METAR,144.0
KHBV 180735Z AUTO 33003KT 10SM BKN011 OVC018 17/14 A3004 RMK AO2 T01650137 PWINO,KHBV,2014-12-18T07:35:00Z,27.35,-98.73,16.5,13.7,330,3,,10.0,30.041338,,,TRUE,TRUE,,,,,TRUE,,BKN,1100,OVC,1800,,,,,MVFR,,,,,,,,,,,,METAR,202.0
KGVT 180735Z AUTO 10007KT 10SM OVC031 05/03 A3015 RMK AO2,KGVT,2014-12-18T07:35:00Z,33.07,-96.07,5.0,3.0,100,7,,10.0,30.15059,,,TRUE,TRUE,,,,,,,OVC,3100,,,,,,,VFR,,,,,,,,,,,,METAR,163.0
KGVE 180735Z AUTO 00000KT 10SM CLR M02/M04 A3010 RMK AO1 T10251040,KGVE,2014-12-18T07:35:00Z,38.15,-78.17,-2.5,-4.0,0,0,,10.0,30.100393,,,TRUE,TRUE,,,,,,,CLR,,,,,,,,VFR,,,,,,,,,,,,METAR,138.0
KGLW 180735Z AUTO 00000KT 10SM CLR M02/M03 A3028 RMK AO2 T10171035,KGLW,2014-12-18T07:35:00Z,37.03,-85.95,-1.7,-3.5,0,0,,10.0,30.280512,,,TRUE,TRUE,,,,,,,CLR,,,,,,,,VFR,,,,,,,,,,,,METAR,218.0
KGLE 180735Z AUTO 14005KT 5SM BR OVC003 04/03 A3015 RMK AO2 T00370034,KGLE,2014-12-18T07:35:00Z,33.65,-97.2,3.7,3.4,140,5,,5.0,30.15059,,,TRUE,TRUE,,,,,,BR,OVC,300,,,,,,,LIFR,,,,,,,,,,,,METAR,256.0
KGHG 180735Z AUTO 26008KT 010V010 10SM OVC075 04/00 A2974 RMK AO2,KGHG,2014-12-18T07:35:00Z,42.1,-70.67,4.0,0.0,260,8,,10.0,29.740158,,,TRUE,TRUE,,,,,,,OVC,7500,,,,,,,VFR,,,,,,,,,,,,METAR,4.0
KY23 180735Z AUTO 00000KT 10SM OVC014 M07/M09 A3030 RMK AO2 T10671091,KY23,2014-12-18T07:35:00Z,45.3,-91.63,-6.7,-9.1,0,0,,10.0,30.301182,,,TRUE,TRUE,,,,,,,OVC,1400,,,,,,,MVFR,,,,,,,,,,,,METAR,322.0
KWWR 180735Z AUTO 00000KT 10SM OVC005 02/02 A3009 RMK AO2,KWWR,2014-12-18T07:35:00Z,36.45,-99.52,2.0,2.0,0,0,,10.0,30.088583,,,TRUE,TRUE,,,,,,,OVC,500,,,,,,,IFR,,,,,,,,,,,,METAR,667.0
KWDG 180735Z AUTO 11006KT 1 1/2SM BR OVC002 02/02 A3011 RMK AO2,KWDG,2014-12-18T07:35:00Z,36.37,-97.77,2.0,2.0,110,6,,1.5,30.109253,,,TRUE,TRUE,,,,,,BR,OVC,200,,,,,,,LIFR,,,,,,,,,,,,METAR,356.0
KW99 180735Z AUTO 00000KT 10SM CLR 01/M07 A3012 RMK AO2 T00061074,KW99,2014-12-18T07:35:00Z,39.0,-79.15,0.6,-7.4,0,0,,10.0,30.121063,,,TRUE,TRUE,,,,,,,CLR,,,,,,,,VFR,,,,,,,,,,,,METAR,293.0
KW78 180735Z AUTO 29004KT 10SM CLR 04/M04 A3011 RMK AO1 T00401045,KW78,2014-12-18T07:35:00Z,36.68,-78.85,4.0,-4.5,290,4,,10.0,30.109253,,,TRUE,TRUE,,,,,,,CLR,,,,,,,,VFR,,,,,,,,,,,,METAR,129.0
KW63 180735Z AUTO 30005KT 10SM CLR 03/M02 A3010 RMK AO1,KW63,2014-12-18T07:35:00Z,36.6,-78.55,3.0,-2.0,300,5,,10.0,30.100393,,,TRUE,TRUE,,,,,,,CLR,,,,,,,,VFR,,,,,,,,,,,,METAR,129.0
KW22 180735Z AUTO 28007KT 270V340 10SM BKN023 OVC027 M03/M06 A3016 RMK AO2,KW22,2014-12-18T07:35:00Z,39.0,-80.27,-3.0,-6.0,280,7,,10.0,30.159449,,,TRUE,TRUE,,,,,,,BKN,2300,OVC,2700,,,,,MVFR,,,,,,,,,,,,METAR,499.0
KVYS 180735Z AUTO 02005KT 10SM CLR M06/M08 A3030 RMK AO2 T10621081,KVYS,2014-12-18T07:35:00Z,41.35,-89.15,-6.2,-8.1,20,5,,10.0,30.301182,,,TRUE,TRUE,,,,,,,CLR,,,,,,,,VFR,,,,,,,,,,,,METAR,199.0
KVVG 180735Z AUTO 00000KT 6SM BR 06/06 A3006 RMK A01,KVVG,2014-12-18T07:35:00Z,28.95,-81.97,6.0,6.0,0,0,,6.0,30.059055,,,TRUE,TRUE,,,,,,BR,,,,,,,,,,,,,,,,,,,,,METAR,27.0
KVER 180735Z AUTO 03004KT 10SM OVC065 00/M03 A3026 RMK AO2 T00001034,KVER,2014-12-18T07:35:00Z,38.95,-92.68,0.0,-3.4,30,4,,10.0,30.259842,,,TRUE,TRUE,,,,,,,OVC,6500,,,,,,,VFR,,,,,,,,,,,,METAR,218.0
KVCV 180735Z AUTO 19004KT 10SM CLR 04/01 A3011 RMK AO2,KVCV,2014-12-18T07:35:00Z,34.58,-117.38,4.0,1.0,190,4,,10.0,30.109253,,,TRUE,TRUE,,,,,,,CLR,,,,,,,,VFR,,,,,,,,,,,,METAR,876.0
KUXL 180735Z AUTO 08004KT 10SM BKN110 13/10 A3014 RMK AO2 T01300101,KUXL,2014-12-18T07:35:00Z,30.13,-93.38,13.0,10.1,80,4,,10.0,30.138779,,,TRUE,TRUE,,,,,,,BKN,11000,,,,,,,VFR,,,,,,,,,,,,METAR,4.0
KUOX 180735Z AUTO 01006KT 10SM OVC080 03/00 A3028 RMK AO2 PWINO PNO,KUOX,2014-12-18T07:35:00Z,34.38,-89.53,3.0,0.0,10,6,,10.0,30.280512,,,TRUE,TRUE,,,,,TRUE,,OVC,8000,,,,,,,VFR,,,,,,,,,,,,METAR,137.0
KUNU 180735Z AUTO 32003KT 10SM OVC022 M07/M09 A3027 RMK AO2 T10661090,KUNU,2014-12-18T07:35:00Z,43.42,-88.7,-6.6,-9.0,320,3,,10.0,30.268702,,,TRUE,TRUE,,,,,,,OVC,2200,,,,,,,MVFR,,,,,,,,,,,,METAR,285.0
KUKF 180735Z AUTO 32005KT 10SM CLR 03/M05 A3015 RMK AO2,KUKF,2014-12-18T07:35:00Z,36.22,-81.1,3.0,-5.0,320,5,,10.0,30.15059,,,TRUE,TRUE,,,,,,,CLR,,,,,,,,VFR,,,,,,,,,,,,METAR,396.0
KUBE 180735Z AUTO 00000KT 10SM OVC012 M07/M10 A3029 RMK AO2,KUBE,2014-12-18T07:35:00Z,45.5,-91.98,-7.0,-10.0,0,0,,10.0,30.28937,,,TRUE,TRUE,,,,,,,OVC,1200,,,,,,,MVFR,,,,,,,,,,,,METAR,379.0
KU68 180735Z AUTO 00000KT 10SM CLR M10/M10 A2999 RMK AO2 PWINO,KU68,2014-12-18T07:35:00Z,44.92,-108.45,-10.0,-10.0,0,0,,10.0,29.991142,,,TRUE,TRUE,,,,,TRUE,,CLR,,,,,,,,VFR,,,,,,,,,,,,METAR,1247.0
KTZR 180735Z AUTO 27004KT 10SM OVC026 M03/M07 A3025 RMK AO2 T10301066,KTZR,2014-12-18T07:35:00Z,39.9,-83.13,-3.0,-6.6,270,4,,10.0,30.250984,,,TRUE,TRUE,,,,,,,OVC,2600,,,,,,,MVFR,,,,,,,,,,,,METAR,276.0
KTYQ 180735Z AUTO 32004KT 10SM OVC017 M04/M08 A3028 RMK AO2 T10361078,KTYQ,2014-12-18T07:35:00Z,40.03,-86.25,-3.6,-7.8,320,4,,10.0,30.280512,,,TRUE,TRUE,,,,,,,OVC,1700,,,,,,,MVFR,,,,,,,,,,,,METAR,281.0
KTRK 180735Z AUTO 16003KT 10SM BKN036 BKN070 OVC100 00/M03 A3005 RMK AO2,KTRK,2014-12-18T07:35:00Z,39.32,-120.12,0.0,-3.0,160,3,,10.0,30.050198,,,TRUE,TRUE,,,,,,,BKN,3600,BKN,7000,OVC,10000,,,VFR,,,,,,,,,,,,METAR,1798.0
KTNU 180735Z AUTO 00000KT 10SM CLR M08/M10 A3029 RMK AO2,KTNU,2014-12-18T07:35:00Z,41.67,-93.02,-8.0,-10.0,0,0,,10.0,30.28937,,,TRUE,TRUE,,,,,,,CLR,,,,,,,,VFR,,,,,,,,,,,,METAR,290.0
KTMA 180735Z AUTO 00000KT 10SM CLR 07/05 A3014 RMK AO2 T00670051,KTMA,2014-12-18T07:35:00Z,31.43,-83.48,6.7,5.1,0,0,,10.0,30.138779,,,TRUE,TRUE,,,,,,,CLR,,,,,,,,VFR,,,,,,,,,,,,METAR,109.0
KTIF 180735Z AUTO 20008KT 5SM BR OVC006 M05/M05 A3007 RMK AO2 T10471055,KTIF,2014-12-18T07:35:00Z,41.97,-100.57,-4.7,-5.5,200,8,,5.0,30.070866,,,TRUE,TRUE,,,,,,BR,OVC,600,,,,,,,IFR,,,,,,,,,,,,METAR,892.0
KTFP 180735Z AUTO 15005KT 10SM SCT027 SCT032 BKN075 20/19 A3003 RMK AO2 T02000186,KTFP,2014-12-18T07:35:00Z,27.92,-97.22,20.0,18.6,150,5,,10.0,30.029528,,,TRUE,TRUE,,,,,,,SCT,2700,SCT,3200,BKN,7500,,,VFR,,,,,,,,,,,,METAR,6.0
KTDF 180735Z AUTO 00000KT 10SM CLR M01/M01 A3012 RMK AO2,KTDF,2014-12-18T07:35:00Z,36.28,-78.98,-1.0,-1.0,0,0,,10.0,30.121063,,,TRUE,TRUE,,,,,,,CLR,,,,,,,,VFR,,,,,,,,,,,,METAR,186.0
KTBX 180735Z AUTO 30007KT CLR M05/M08 A2998 RMK AO2 PWINO,KTBX,2014-12-18T07:35:00Z,43.47,-108.23,-5.0,-8.0,300,7,,,29.97933,,,TRUE,TRUE,,,,,TRUE,,CLR,,,,,,,,,,,,,,,,,,,,METAR,2225.0
KTBR 180735Z AUTO 00000KT 10SM CLR 02/02 A3012 RMK AO2 T00190019,KTBR,2014-12-18T07:35:00Z,32.48,-81.73,1.9,1.9,0,0,,10.0,30.121063,,,TRUE,TRUE,,,,,,,CLR,,,,,,,,VFR,,,,,,,,,,,,METAR,57.0
KTAZ 180735Z AUTO 11003KT 7SM CLR M05/M06 A3030 RMK AO2,KTAZ,2014-12-18T07:35:00Z,39.53,-89.33,-5.0,-6.0,110,3,,7.0,30.301182,,,TRUE,TRUE,,,,,,,CLR,,,,,,,,VFR,,,,,,,,,,,,METAR,190.0
KT82 180735Z AUTO 00000KT 1/4SM FG OVC002 11/11 A3009 RMK AO2 T01100108,KT82,2014-12-18T07:35:00Z,30.25,-98.92,11.0,10.8,0,0,,0.25,30.088583,,,TRUE,TRUE,,,,,,FG,OVC,200,,,,,,,LIFR,,,,,,,,,,,,METAR,517.0
KT65 180735Z AUTO 16006KT 10SM OVC014 22/19 A3001 RMK AO2 T02170192,KT65,2014-12-18T07:35:00Z,26.18,-97.97,21.7,19.2,160,6,,10.0,30.008858,,,TRUE,TRUE,,,,,,,OVC,1400,,,,,,,MVFR,,,,,,,,,,,,METAR,21.0
KT35 180735Z AUTO 01005KT 10SM OVC011 09/08 A3012 RMK AO2 T00920080,KT35,2014-12-18T07:35:00Z,30.88,-96.97,9.2,8.0,10,5,,10.0,30.121063,,,TRUE,TRUE,,,,,,,OVC,1100,,,,,,,MVFR,,,,,,,,,,,,METAR,123.0
KSYF 180735Z AUTO 00000KT 10SM OVC018 M04/M05 A3006 RMK AO2 T10401050,KSYF,2014-12-18T07:35:00Z,39.77,-101.8,-4.0,-5.0,0,0,,10.0,30.059055,,,TRUE,TRUE,,,,,,,OVC,1800,,,,,,,MVFR,,,,,,,,,,,,METAR,1025.0
KSWW 180735Z AUTO 19008KT 7SM CLR 07/07 A3007 RMK AO2 T00670067,KSWW,2014-12-18T07:35:00Z,32.47,-100.47,6.7,6.7,190,8,,7.0,30.070866,,,TRUE,TRUE,,,,,,,CLR,,,,,,,,VFR,,,,,,,,,,,,METAR,727.0
KSVH 180735Z AUTO 00000KT 10SM CLR 01/M03 A3009 RMK AO2 T00081032,KSVH,2014-12-18T07:35:00Z,35.75,-80.95,0.8,-3.2,0,0,,10.0,30.088583,,,TRUE,TRUE,,,,,,,CLR,,,,,,,,VFR,,,,,,,,,,,,METAR,294.0
KSOA 180735Z AUTO 23005KT 4SM BR OVC002 12/12 A3013 RMK AO2,KSOA,2014-12-18T07:35:00Z,30.58,-100.65,12.0,12.0,230,5,,4.0,30.129921,,,TRUE,TRUE,,,,,,BR,OVC,200,,,,,,,LIFR,,,,,,,,,,,,METAR,652.0
KSNK 180735Z AUTO 19004KT 1 1/4SM BR VV007 05/05 A3005 RMK AO2 T00490048,KSNK,2014-12-18T07:35:00Z,32.7,-100.95,4.9,4.8,190,4,,1.25,30.050198,,,TRUE,TRUE,,,,,,BR,OVX,0,,,,,,,LIFR,,,,,,,,,,,700,METAR,741.0
KSME 180735Z AUTO 00000KT 5SM BR CLR M04/M04 A3027 RMK AO2,KSME,2014-12-18T07:35:00Z,37.05,-84.62,-4.0,-4.0,0,0,,5.0,30.268702,,,TRUE,TRUE,,,,,,BR,CLR,,,,,,,,MVFR,,,,,,,,,,,,METAR,283.0
KSLB 180735Z AUTO 09006KT 10SM OVC070 M07/M08 A3026 RMK AO2,KSLB,2014-12-18T07:35:00Z,42.6,-95.22,-7.0,-8.0,90,6,,10.0,30.259842,,,TRUE,TRUE,,,,,,,OVC,7000,,,,,,,VFR,,,,,,,,,,,,METAR,454.0
KSIF 180735Z AUTO 00000KT 10SM CLR M02/M03 A3012 RMK AO2 T10161026,KSIF,2014-12-18T07:35:00Z,36.43,-79.85,-1.6,-2.6,0,0,,10.0,30.121063,,,TRUE,TRUE,,,,,,,CLR,,,,,,,,VFR,,,,,,,,,,,,METAR,211.0
KSHL 180735Z AUTO 09005KT 10SM OVC070 M08/M09 A3025 RMK AO2,KSHL,2014-12-18T07:35:00Z,43.22,-95.82,-8.0,-9.0,90,5,,10.0,30.250984,,,TRUE,TRUE,,,,,,,OVC,7000,,,,,,,VFR,,,,,,,,,,,,METAR,432.0
KSHD 180735Z AUTO 00000KT 10SM CLR M01/M07 A3010 RMK AO2 T10141071,KSHD,2014-12-18T07:35:00Z,38.27,-78.9,-1.4,-7.1,0,0,,10.0,30.100393,,,TRUE,TRUE,,,,,,,CLR,,,,,,,,VFR,,,,,,,,,,,,METAR,366.0
KSFQ 180735Z AUTO 36004KT 10SM CLR 04/00 A3010 RMK AO2 T00360001,KSFQ,2014-12-18T07:35:00Z,36.68,-76.6,3.6,0.1,360,4,,10.0,30.100393,,,TRUE,TRUE,,,,,,,CLR,,,,,,,,VFR,,,,,,,,,,,,METAR,22.0
KSEE 180735Z AUTO 00000KT 9SM 10/10 A3016 RMK AO2,KSEE,2014-12-18T07:35:00Z,32.82,-116.97,10.0,10.0,0,0,,9.0,30.159449,,,TRUE,TRUE,,,,,,,,,,,,,,,,,,,,,,,,,,,METAR,117.0
KRUQ 180735Z AUTO 00000KT 10SM CLR 00/M01 A3010 RMK AO2 T10051009,KRUQ,2014-12-18T07:35:00Z,35.65,-80.52,-0.5,-0.9,0,0,,10.0,30.100393,,,TRUE,TRUE,,,,,,,CLR,,,,,,,,VFR,,,,,,,,,,,,METAR,236.0
KRRL 180735Z AUTO 00000KT 10SM OVC011 M05/M07 A3026 RMK AO2 T10521067,KRRL,2014-12-18T07:35:00Z,45.2,-89.72,-5.2,-6.7,0,0,,10.0,30.259842,,,TRUE,TRUE,,,,,,,OVC,1100,,,,,,,MVFR,,,,,,,,,,,,METAR,401.0
KRNH 180735Z AUTO 00000KT 10SM OVC015 M08/M09 A3031 RMK AO2 T10781091,KRNH,2014-12-18T07:35:00Z,45.15,-92.53,-7.8,-9.1,0,0,,10.0,30.31004,,,TRUE,TRUE,,,,,,,OVC,1500,,,,,,,MVFR,,,,,,,,,,,,METAR,304.0
KRMN 180735Z AUTO 00000KT 10SM CLR 01/M05 A3015 RMK AO2 T00101054,KRMN,2014-12-18T07:35:00Z,38.4,-77.45,1.0,-5.4,0,0,,10.0,30.15059,,,TRUE,TRUE,,,,,,,CLR,,,,,,,,VFR,,,,,,,,,,,,METAR,65.0
KRHP 180735Z AUTO 00000KT 3/4SM BR OVC003 00/00 A3015 RMK AO2 T00000000,KRHP,2014-12-18T07:35:00Z,35.18,-83.85,0.0,0.0,0,0,,0.75,30.15059,,,TRUE,TRUE,,,,,,BR,OVC,300,,,,,,,LIFR,,,,,,,,,,,,METAR,518.0
KRDK 180735Z AUTO 10005KT 10SM BKN065 BKN080 OVC085 M03/M07 A3025 RMK AO2,KRDK,2014-12-18T07:35:00Z,41.02,-95.27,-3.0,-7.0,100,5,,10.0,30.250984,,,TRUE,TRUE,,,,,,,BKN,6500,BKN,8000,OVC,8500,,,VFR,,,,,,,,,,,,METAR,318.0
KRCE 180735Z AUTO 18008KT OVC002 03/03 A3011 RMK AO2,KRCE,2014-12-18T07:35:00Z,35.48,-97.82,3.0,3.0,180,8,,,30.109253,,,TRUE,TRUE,,,,,,,OVC,200,,,,,,,,,,,,,,,,,,,METAR,413.0
KRAS 180735Z AUTO 15005KT 10SM BKN029 BKN035 BKN041 20/19 A3004 RMK AO2 T01960186,KRAS,2014-12-18T07:35:00Z,27.82,-97.08,19.6,18.6,150,5,,10.0,30.041338,,,TRUE,TRUE,,,,,,,BKN,2900,BKN,3500,BKN,4100,,,MVFR,,,,,,,,,,,,METAR,2.0
KPYX 180735Z AUTO 18004KT 4SM OVC002 02/02 A3002 RMK AO2 T00220017,KPYX,2014-12-18T07:35:00Z,36.42,-100.75,2.2,1.7,180,4,,4.0,30.02067,,,TRUE,TRUE,,,,,,,OVC,200,,,,,,,LIFR,,,,,,,,,,,,METAR,889.0
KPXE 180735Z AUTO 23003KT 7SM CLR 04/02 A3013 RMK AO2 T00400017,KPXE,2014-12-18T07:35:00Z,32.52,-83.77,4.0,1.7,230,3,,7.0,30.129921,,,TRUE,TRUE,,,,,,,CLR,,,,,,,,VFR,,,,,,,,,,,,METAR,127.0
KPVW 180735Z AUTO 19005KT 1/4SM FG OVC001 03/03 A3000 RMK AO2 T00300025,KPVW,2014-12-18T07:35:00Z,34.17,-101.72,3.0,2.5,190,5,,0.25,30.0,,,TRUE,TRUE,,,,,,FG,OVC,100,,,,,,,LIFR,,,,,,,,,,,,METAR,1028.0
KPTT 180735Z AUTO 10003KT 3SM -SN SCT003 BKN030 OVC050 M01/M01 A3012 RMK AO2,KPTT,2014-12-18T07:35:00Z,37.7,-98.75,-1.0,-1.0,100,3,,3.0,30.121063,,,TRUE,TRUE,,,,,,-SN,SCT,300,BKN,3000,OVC,5000,,,MVFR,,,,,,,,,,,,METAR,595.0
KGGP 180735Z AUTO 26005KT 10SM OVC028 M03/M07 A3029 RMK AO2,KGGP,2014-12-18T07:35:00Z,40.72,-86.37,-3.0,-7.0,260,5,,10.0,30.28937,,,TRUE,TRUE,,,,,,,OVC,2800,,,,,,,MVFR,,,,,,,,,,,,METAR,225.0
KFZG 180735Z AUTO 00000KT 10SM CLR 06/04 A3015 RMK AO2 T00570044,KFZG,2014-12-18T07:35:00Z,31.68,-83.27,5.7,4.4,0,0,,10.0,30.15059,,,TRUE,TRUE,,,,,,,CLR,,,,,,,,VFR,,,,,,,,,,,,METAR,111.0
KFWS 180735Z AUTO 10003KT 7SM OVC004 06/06 A3013 RMK AO2 T00620055,KFWS,2014-12-18T07:35:00Z,32.57,-97.3,6.2,5.5,100,3,,7.0,30.129921,,,TRUE,TRUE,,,,,,,OVC,400,,,,,,,LIFR,,,,,,,,,,,,METAR,208.0
KFVX 180735Z AUTO 00000KT 10SM CLR 00/M04 A3010 RMK AO2 T00001038,KFVX,2014-12-18T07:35:00Z,37.35,-78.42,0.0,-3.8,0,0,,10.0,30.100393,,,TRUE,TRUE,,,,,,,CLR,,,,,,,,VFR,,,,,,,,,,,,METAR,125.0
KFKN 180735Z AUTO 00000KT 10SM CLR 02/M01 A3010 RMK AO1,KFKN,2014-12-18T07:35:00Z,36.7,-76.9,2.0,-1.0,0,0,,10.0,30.100393,,,TRUE,TRUE,,,,,,,CLR,,,,,,,,VFR,,,,,,,,,,,,METAR,12.0
KFGX 180735Z AUTO 33003KT 10SM OVC018 M02/M06 A3028 RMK AO2 T10251058,KFGX,2014-12-18T07:35:00Z,38.55,-83.75,-2.5,-5.8,330,3,,10.0,30.280512,,,TRUE,TRUE,,,,,,,OVC,1800,,,,,,,MVFR,,,,,,,,,,,,METAR,278.0
KF44 180735Z AUTO 04004KT 4SM RA BKN005 OVC009 06/06 A3015 RMK AO2 P0003,KF44,2014-12-18T07:35:00Z,32.17,-95.83,6.0,6.0,40,4,,4.0,30.15059,,,TRUE,TRUE,,,,,,RA,BKN,500,OVC,900,,,,,IFR,,,,,,0.03,,,,,,METAR,135.0
KEXX 180735Z AUTO 00000KT 10SM CLR 00/M01 A3010 RMK AO2 T10021012,KEXX,2014-12-18T07:35:00Z,35.78,-80.3,-0.2,-1.2,0,0,,10.0,30.100393,,,TRUE,TRUE,,,,,,,CLR,,,,,,,,VFR,,,,,,,,,,,,METAR,223.0
KEMV 180735Z AUTO 30003KT 10SM CLR 00/M01 A3012 RMK AO2,KEMV,2014-12-18T07:35:00Z,36.68,-77.48,0.0,-1.0,300,3,,10.0,30.121063,,,TRUE,TRUE,,,,,,,CLR,,,,,,,,VFR,,,,,,,,,,,,METAR,39.0
KEFT 180735Z AUTO 35003KT 10SM CLR M07/M09 A3026 RMK AO2,KEFT,2014-12-18T07:35:00Z,42.62,-89.6,-7.0,-9.0,350,3,,10.0,30.259842,,,TRUE,TRUE,,,,,,,CLR,,,,,,,,VFR,,,,,,,,,,,,METAR,331.0
KE11 180735Z AUTO 25009KT 10SM CLR 08/M01 A3007 RMK AO2 T00831012,KE11,2014-12-18T07:35:00Z,32.33,-102.53,8.3,-1.2,250,9,,10.0,30.070866,,,TRUE,TRUE,,,,,,,CLR,,,,,,,,VFR,,,,,,,,,,,,METAR,967.0
KDTA 180735Z AUTO 16005KT 10SM SCT090 01/M01 A3006 RMK AO1 T00061008,KDTA,2014-12-18T07:35:00Z,39.38,-112.5,0.6,-0.8,160,5,,10.0,30.059055,,,TRUE,TRUE,,,,,,,SCT,9000,,,,,,,VFR,,,,,,,,,,,,METAR,1402.0
KDNN 180735Z AUTO 34009KT 10SM CLR 02/00 A3018 RMK AO2,KDNN,2014-12-18T07:35:00Z,34.72,-84.87,2.0,0.0,340,9,,10.0,30.180119,,,TRUE,TRUE,,,,,,,CLR,,,,,,,,VFR,,,,,,,,,,,,METAR,216.0
KDCY 180735Z AUTO 02005KT 10SM OVC013 M03/M07 A3032 RMK AO2 T10331070,KDCY,2014-12-18T07:35:00Z,38.7,-87.13,-3.3,-7.0,20,5,,10.0,30.318897,,,TRUE,TRUE,,,,,,,OVC,1300,,,,,,,MVFR,,,,,,,,,,,,METAR,144.0
KCVB 180735Z AUTO 00000KT 5SM BR OVC008 15/14 A3007 RMK AO2 T01470143,KCVB,2014-12-18T07:35:00Z,29.35,-98.85,14.7,14.3,0,0,,5.0,30.070866,,,TRUE,TRUE,,,,,,BR,OVC,800,,,,,,,IFR,,,,,,,,,,,,METAR,235.0
KCBK 180735Z AUTO 00000KT 1/4SM -SN OVC002 M03/M03 A3007 RMK AO2,KCBK,2014-12-18T07:35:00Z,39.43,-101.05,-3.0,-3.0,0,0,,0.25,30.070866,,,TRUE,TRUE,,,,,,-SN,OVC,200,,,,,,,LIFR,,,,,,,,,,,,METAR,971.0
KC75 180735Z AUTO 00000KT 10SM CLR M09/M10 A3030 RMK AO2 T10871101,KC75,2014-12-18T07:35:00Z,41.02,-89.38,-8.7,-10.1,0,0,,10.0,30.301182,,,TRUE,TRUE,,,,,,,CLR,,,,,,,,VFR,,,,,,,,,,,,METAR,173.0
KC35 180735Z AUTO 00000KT 10SM OVC018 M07/M09 A3027 RMK AO2 T10751095,KC35,2014-12-18T07:35:00Z,43.53,-89.98,-7.5,-9.5,0,0,,10.0,30.268702,,,TRUE,TRUE,,,,,,,OVC,1800,,,,,,,MVFR,,,,,,,,,,,,METAR,276.0
KBWP 180735Z AUTO 00000KT 10SM CLR M13/M16 A3030 RMK AO1,KBWP,2014-12-18T07:35:00Z,46.25,-96.62,-13.0,-16.0,0,0,,10.0,30.301182,,,TRUE,TRUE,,,,,,,CLR,,,,,,,,VFR,,,,,,,,,,,,METAR,295.0
KBQP 180735Z AUTO 00000KT 10SM OVC048 07/05 A3024 RMK AO2 T00650045,KBQP,2014-12-18T07:35:00Z,32.75,-91.88,6.5,4.5,0,0,,10.0,30.239174,,,TRUE,TRUE,,,,,,,OVC,4800,,,,,,,VFR,,,,,,,,,,,,METAR,51.0
KBQK 180735Z AUTO 00000KT 7SM CLR 06/05 A3014 RMK AO1,KBQK,2014-12-18T07:35:00Z,31.25,-81.47,6.0,5.0,0,0,,7.0,30.138779,,,TRUE,TRUE,,,,,,,CLR,,,,,,,,VFR,,,,,,,,,,,,METAR,8.0
KBMC 180735Z AUTO 00000KT 10SM BKN070 00/M02 A3008 RMK AO1 T00001024,KBMC,2014-12-18T07:35:00Z,41.55,-112.07,0.0,-2.4,0,0,,10.0,30.079725,,,TRUE,TRUE,,,,,,,BKN,7000,,,,,,,VFR,,,,,,,,,,,,METAR,1288.0
KBCB 180735Z AUTO 30012G16KT 10SM CLR M01/M05 A3011 RMK AO2 T10101053,KBCB,2014-12-18T07:35:00Z,37.22,-80.42,-1.0,-5.3,300,12,16,10.0,30.109253,,,TRUE,TRUE,,,,,,,CLR,,,,,,,,VFR,,,,,,,,,,,,METAR,650.0
KAZE 180735Z AUTO 00000KT 10SM CLR 06/06 A3013 RMK AO2 T00590059,KAZE,2014-12-18T07:35:00Z,31.88,-82.65,5.9,5.9,0,0,,10.0,30.129921,,,TRUE,TRUE,,,,,,,CLR,,,,,,,,VFR,,,,,,,,,,,,METAR,78.0
KASJ 180735Z AUTO 00000KT 10SM CLR 01/00 A3010 RMK AO2 T00060000,KASJ,2014-12-18T07:35:00Z,36.28,-77.17,0.6,0.0,0,0,,10.0,30.100393,,,TRUE,TRUE,,,,,,,CLR,,,,,,,,VFR,,,,,,,,,,,,METAR,21.0
KARV 180735Z AUTO 00000KT 10SM OVC009 M05/M07 A3024 RMK AO2 T10501066,KARV,2014-12-18T07:35:00Z,45.92,-89.72,-5.0,-6.6,0,0,,10.0,30.239174,,,TRUE,TRUE,,,,,,,OVC,900,,,,,,,IFR,,,,,,,,,,,,METAR,496.0
KAQR 180735Z AUTO 14004KT 10SM OVC005 03/03 A3016 RMK AO2,KAQR,2014-12-18T07:35:00Z,34.4,-96.15,3.0,3.0,140,4,,10.0,30.159449,,,TRUE,TRUE,,,,,,,OVC,500,,,,,,,IFR,,,,,,,,,,,,METAR,189.0
KAPY 180735Z AUTO 31003KT 10SM OVC011 15/13 A3003 RMK AO2 T01550140,KAPY,2014-12-18T07:35:00Z,26.97,-99.25,15.5,14.0,310,3,,10.0,30.029528,,,TRUE,TRUE,,,,,,,OVC,1100,,,,,,,MVFR,,,,,,,,,,,,METAR,129.0
KACJ 180735Z AUTO 00000KT 10SM CLR 04/03 A3016 RMK AO2,KACJ,2014-12-18T07:35:00Z,32.12,-84.18,4.0,3.0,0,0,,10.0,30.159449,,,TRUE,TRUE,,,,,,,CLR,,,,,,,,VFR,,,,,,,,,,,,METAR,143.0
K9V9 180735Z AUTO 13008KT 10SM OVC005 M08/M09 A3017 RMK AO2 T10811091,K9V9,2014-12-18T07:35:00Z,43.77,-99.32,-8.1,-9.1,130,8,,10.0,30.171259,,,TRUE,TRUE,,,,,,,OVC,500,,,,,,,IFR,,,,,,,,,,,,METAR,519.0
K8A0 180735Z AUTO 03005KT 10SM CLR 01/01 A3017 RMK AO2,K8A0,2014-12-18T07:35:00Z,34.23,-86.25,1.0,1.0,30,5,,10.0,30.171259,,,TRUE,TRUE,,,,,,,CLR,,,,,,,,VFR,,,,,,,,,,,,METAR,315.0
K7W4 180735Z AUTO 29003KT 10SM CLR 01/M03 A3010 RMK AO1 T00081033,K7W4,2014-12-18T07:35:00Z,37.97,-77.75,0.8,-3.3,290,3,,10.0,30.100393,,,TRUE,TRUE,,,,,,,CLR,,,,,,,,VFR,,,,,,,,,,,,METAR,106.0
K4A6 180735Z AUTO 00000KT 10SM CLR 01/00 A3022 RMK AO2,K4A6,2014-12-18T07:35:00Z,34.68,-86.0,1.0,0.0,0,0,,10.0,30.221457,,,TRUE,TRUE,,,,,,,CLR,,,,,,,,VFR,,,,,,,,,,,,METAR,198.0
K3N8 180735Z AUTO 00000KT 10SM CLR M14/M15 A3027 RMK AO2 T11381155,K3N8,2014-12-18T07:35:00Z,47.25,-95.88,-13.8,-15.5,0,0,,10.0,30.268702,,,TRUE,TRUE,,,,,,,CLR,,,,,,,,VFR,,,,,,,,,,,,METAR,383.0
K3K3 180735Z AUTO 06006KT 2 1/2SM BR OVC002 00/00 A3003 RMK AO2,K3K3,2014-12-18T07:35:00Z,38.0,-101.75,0.0,0.0,60,6,,2.5,30.029528,,,TRUE,TRUE,,,,,,BR,OVC,200,,,,,,,LIFR,,,,,,,,,,,,METAR,1013.0
K1F0 180735Z AUTO 14003KT 10SM OVC004 03/03 A3014 RMK AO2,K1F0,2014-12-18T07:35:00Z,34.15,-97.12,3.0,3.0,140,3,,10.0,30.138779,,,TRUE,TRUE,,,,,,,OVC,400,,,,,,,LIFR,,,,,,,,,,,,METAR,257.0
K0V4 180735Z AUTO 00000KT 10SM CLR 03/M02 A3010 RMK AO1 T00251022,K0V4,2014-12-18T07:35:00Z,37.15,-79.02,2.5,-2.2,0,0,,10.0,30.100393,,,TRUE,TRUE,,,,,,,CLR,,,,,,,,VFR,,,,,,,,,,,,METAR,182.0
KMLE 180735Z AUTO 00000KT 10SM SCT065 OVC080 M02/M06 A3023 RMK AO2 T10171065,KMLE,2014-12-18T07:35:00Z,41.2,-96.12,-1.7,-6.5,0,0,,10.0,30.230314,,,TRUE,TRUE,,,,,,,SCT,6500,OVC,8000,,,,,VFR,,,,,,,,,,,,SPECI,320.0
KM30 180735Z AUTO 06003KT 3SM -SN SCT034 SCT040 OVC070 01/00 A3028 RMK AO2 P0004 T00080001,KM30,2014-12-18T07:35:00Z,37.18,-88.75,0.8,0.1,60,3,,3.0,30.280512,,,TRUE,TRUE,,,,,,-SN,SCT,3400,SCT,4000,OVC,7000,,,MVFR,,,,,,0.04,,,,,,SPECI,117.0
KLXN 180735Z AUTO 16003KT 5SM -SN BKN026 OVC035 M04/M05 A3012 RMK AO2 T10401050,KLXN,2014-12-18T07:35:00Z,40.78,-99.77,-4.0,-5.0,160,3,,5.0,30.121063,,,TRUE,TRUE,,,,,,-SN,BKN,2600,OVC,3500,,,,,MVFR,,,,,,,,,,,,SPECI,734.0
KLWB 180735Z AUTO 28006KT 10SM CLR M01/M06 A3011 RMK AO2 T10131060,KLWB,2014-12-18T07:35:00Z,37.87,-80.4,-1.3,-6.0,280,6,,10.0,30.109253,,,TRUE,TRUE,,,,,,,CLR,,,,,,,,VFR,,,,,,,,,,,,SPECI,702.0
KLUD 180735Z AUTO 11007KT 1 1/2SM BR OVC002 05/05 A3011 RMK AO2 T00450045,KLUD,2014-12-18T07:35:00Z,33.25,-97.58,4.5,4.5,110,7,,1.5,30.109253,,,TRUE,TRUE,,,,,,BR,OVC,200,,,,,,,LIFR,,,,,,,,,,,,SPECI,319.0
KLRJ 180735Z AUTO VRB04KT 10SM OVC075 M05/M07 A3026 RMK AO2,KLRJ,2014-12-18T07:35:00Z,42.77,-96.2,-5.0,-7.0,0,4,,10.0,30.259842,,,TRUE,TRUE,,,,,,,OVC,7500,,,,,,,VFR,,,,,,,,,,,,SPECI,365.0
KLOT 180735Z AUTO 00000KT 10SM OVC020 M05/M08 A3029 RMK AO2 T10471083,KLOT,2014-12-18T07:35:00Z,41.6,-88.1,-4.7,-8.3,0,0,,10.0,30.28937,,,TRUE,TRUE,,,,,,,OVC,2000,,,,,,,MVFR,,,,,,,,,,,,SPECI,205.0
KLNP 180735Z AUTO 32005KT 10SM OVC008 M01/M02 A3016 RMK AO2,KLNP,2014-12-18T07:35:00Z,36.97,-82.52,-1.0,-2.0,320,5,,10.0,30.159449,,,TRUE,TRUE,,,,,,,OVC,800,,,,,,,IFR,,,,,,,,,,,,SPECI,817.0
KLKU 180735Z AUTO 34003KT 10SM CLR M02/M04 A3009 RMK AO2,KLKU,2014-12-18T07:35:00Z,38.02,-77.97,-2.0,-4.0,340,3,,10.0,30.088583,,,TRUE,TRUE,,,,,,,CLR,,,,,,,,VFR,,,,,,,,,,,,SPECI,150.0
KLCQ 180735Z AUTO 00000KT 7SM CLR 04/04 A3015 RMK AO2,KLCQ,2014-12-18T07:35:00Z,30.18,-82.58,4.0,4.0,0,0,,7.0,30.15059,,,TRUE,TRUE,,,,,,,CLR,,,,,,,,VFR,,,,,,,,,,,,SPECI,61.0
KLCK 180735Z AUTO 28005KT 10SM OVC027 M03/M07 A3025 RMK AO2 T10271072,KLCK,2014-12-18T07:35:00Z,39.82,-82.92,-2.7,-7.2,280,5,,10.0,30.250984,,,TRUE,TRUE,,,,,,,OVC,2700,,,,,,,MVFR,,,,,,,,,,,,SPECI,227.0
KLCG 180735Z AUTO 11005KT 10SM SCT055 OVC075 M04/M07 A3023 RMK AO2 T10401069,KLCG,2014-12-18T07:35:00Z,42.25,-96.98,-4.0,-6.9,110,5,,10.0,30.230314,,,TRUE,TRUE,,,,,,,SCT,5500,OVC,7500,,,,,VFR,,,,,,,,,,,,SPECI,436.0
KLAM 180735Z AUTO 30003KT 10SM OVC046 M01/M01 A3007 RMK AO2 T10121012,KLAM,2014-12-18T07:35:00Z,35.87,-106.27,-1.2,-1.2,300,3,,10.0,30.070866,,,TRUE,TRUE,,,,,,,OVC,4600,,,,,,,VFR,,,,,,,,,,,,SPECI,2179.0
KL35 180735Z AUTO 00000KT 10SM BKN060 M02/M04 A3008 RMK AO2,KL35,2014-12-18T07:35:00Z,34.27,-116.85,-2.0,-4.0,0,0,,10.0,30.079725,,,TRUE,TRUE,,,,,,,BKN,6000,,,,,,,VFR,,,,,,,,,,,,SPECI,2059.0
KJYO 180735Z AUTO 00000KT 10SM BKN043 OVC049 02/M03 A3010 RMK AO2,KJYO,2014-12-18T07:35:00Z,39.07,-77.57,2.0,-3.0,0,0,,10.0,30.100393,,,TRUE,TRUE,,,,,,,BKN,4300,OVC,4900,,,,,VFR,,,,,,,,,,,,SPECI,119.0
KJOT 180735Z AUTO 00000KT 10SM OVC020 M05/M09 A3030 RMK AO2 T10521091,KJOT,2014-12-18T07:35:00Z,41.52,-88.18,-5.2,-9.1,0,0,,10.0,30.301182,,,TRUE,TRUE,,,,,,,OVC,2000,,,,,,,MVFR,,,,,,,,,,,,SPECI,177.0
KJGG 180735Z AUTO 36004KT 10SM CLR 04/M02 A3011 RMK AO1,KJGG,2014-12-18T07:35:00Z,37.23,-76.72,4.0,-2.0,360,4,,10.0,30.109253,,,TRUE,TRUE,,,,,,,CLR,,,,,,,,VFR,,,,,,,,,,,,SPECI,15.0
KJES 180735Z AUTO 30003KT 7SM CLR 05/05 A3013 RMK AO2,KJES,2014-12-18T07:35:00Z,31.55,-81.88,5.0,5.0,300,3,,7.0,30.129921,,,TRUE,TRUE,,,,,,,CLR,,,,,,,,VFR,,,,,,,,,,,,SPECI,33.0
KIYA 180735Z AUTO 09003KT 10SM CLR 08/07 A3017 RMK AO2 T00800065 TSNO,KIYA,2014-12-18T07:35:00Z,29.98,-92.08,8.0,6.5,90,3,,10.0,30.171259,,,TRUE,TRUE,,,TRUE,,,,CLR,,,,,,,,VFR,,,,,,,,,,,,SPECI,5.0
KIWA 180735Z AUTO 00000KT 10SM CLR 09/08 A3014 RMK AO2,KIWA,2014-12-18T07:35:00Z,33.3,-111.65,9.0,8.0,0,0,,10.0,30.138779,,,TRUE,TRUE,,,,,,,CLR,,,,,,,,VFR,,,,,,,,,,,,METAR,412.0
KISO 180735Z AUTO 00000KT 10SM CLR 03/03 A3009 RMK AO2 T00310025,KISO,2014-12-18T07:35:00Z,35.32,-77.62,3.1,2.5,0,0,,10.0,30.088583,,,TRUE,TRUE,,,,,,,CLR,,,,,,,,VFR,,,,,,,,,,,,SPECI,29.0
KIOB 180735Z AUTO 04003KT 10SM OVC016 M01/M05 A3027 RMK AO2,KIOB,2014-12-18T07:35:00Z,38.05,-83.98,-1.0,-5.0,40,3,,10.0,30.268702,,,TRUE,TRUE,,,,,,,OVC,1600,,,,,,,MVFR,,,,,,,,,,,,SPECI,311.0
KIKV 180735Z AUTO 00000KT 10SM OVC085 M07/M09 A3029 RMK AO2,KIKV,2014-12-18T07:35:00Z,41.68,-93.57,-7.0,-9.0,0,0,,10.0,30.28937,,,TRUE,TRUE,,,,,,,OVC,8500,,,,,,,VFR,,,,,,,,,,,,SPECI,275.0
KIKK 180735Z AUTO 00000KT 10SM OVC018 M04/M08 A3030 RMK AO2 T10401077,KIKK,2014-12-18T07:35:00Z,41.07,-87.85,-4.0,-7.7,0,0,,10.0,30.301182,,,TRUE,TRUE,,,,,,,OVC,1800,,,,,,,MVFR,,,,,,,,,,,,SPECI,192.0
KIIB 180735Z AUTO 01004KT 10SM CLR M09/M10 A3028 RMK AO2,KIIB,2014-12-18T07:35:00Z,42.45,-91.95,-9.0,-10.0,10,4,,10.0,30.280512,,,TRUE,TRUE,,,,,,,CLR,,,,,,,,VFR,,,,,,,,,,,,SPECI,298.0
KIDP 180735Z AUTO 07003KT 2 1/2SM DZ OVC003 00/00 A3019 RMK AO2,KIDP,2014-12-18T07:35:00Z,37.17,-95.78,0.0,0.0,70,3,,2.5,30.188976,,,TRUE,TRUE,,,,,,DZ,OVC,300,,,,,,,LIFR,,,,,,,,,,,,SPECI,251.0
KI75 180735Z AUTO 00000KT 10SM OVC090 M04/M07 A3026 RMK AO2 T10401067,KI75,2014-12-18T07:35:00Z,41.05,-93.68,-4.0,-6.7,0,0,,10.0,30.259842,,,TRUE,TRUE,,,,,,,OVC,9000,,,,,,,VFR,,,,,,,,,,,,SPECI,339.0
KI35 180735Z AUTO 00000KT 7SM BKN013 M01/M01 A3021 RMK AO1,KI35,2014-12-18T07:35:00Z,36.87,-83.37,-1.0,-1.0,0,0,,7.0,30.209646,,,TRUE,TRUE,,,,,,,BKN,1300,,,,,,,MVFR,,,,,,,,,,,,SPECI,473.0
KI16 180735Z AUTO 10SM OVC019 01/M02 A3022 RMK AO2 T00051017,KI16,2014-12-18T07:35:00Z,37.6,-81.57,0.5,-1.7,,,,10.0,30.221457,,,TRUE,TRUE,,,,,,,OVC,1900,,,,,,,MVFR,,,,,,,,,,,,SPECI,544.0
KHZR 180735Z AUTO 00000KT 10SM BKN100 08/06 A3019 RMK AO2 T00750060,KHZR,2014-12-18T07:35:00Z,30.72,-91.48,7.5,6.0,0,0,,10.0,30.188976,,,TRUE,TRUE,,,,,,,BKN,10000,,,,,,,VFR,,,,,,,,,,,,SPECI,12.0
KHSP 180735Z AUTO 29016G20KT 10SM OVC010 M05/M07 A2995 RMK AO2 T10481067,KHSP,2014-12-18T07:35:00Z,37.95,-79.82,-4.8,-6.7,290,16,20,10.0,29.949802,,,TRUE,TRUE,,,,,,,OVC,1000,,,,,,,MVFR,,,,,,,,,,,,SPECI,1156.0
KHRJ 180735Z AUTO 00000KT 10SM CLR 03/03 A3010 RMK AO2 T00280027,KHRJ,2014-12-18T07:35:00Z,35.38,-78.73,2.8,2.7,0,0,,10.0,30.100393,,,TRUE,TRUE,,,,,,,CLR,,,,,,,,VFR,,,,,,,,,,,,SPECI,60.0
KHNR 180735Z AUTO 08006KT 10SM SCT070 OVC080 M04/M05 A3027 RMK AO2,KHNR,2014-12-18T07:35:00Z,41.58,-95.33,-4.0,-5.0,80,6,,10.0,30.268702,,,TRUE,TRUE,,,,,,,SCT,7000,OVC,8000,,,,,VFR,,,,,,,,,,,,SPECI,375.0
KHJH 180735Z AUTO 11003KT 1 1/4SM -SN OVC007 M04/M05 A3018 RMK AO2 T10361050,KHJH,2014-12-18T07:35:00Z,40.15,-97.58,-3.6,-5.0,110,3,,1.25,30.180119,,,TRUE,TRUE,,,,,,-SN,OVC,700,,,,,,,IFR,,,,,,,,,,,,SPECI,447.0
KHDE 180735Z AUTO 13003KT 10SM BKN015 OVC019 M04/M06 A3013 RMK AO2 T10431060,KHDE,2014-12-18T07:35:00Z,40.45,-99.32,-4.3,-6.0,130,3,,10.0,30.129921,,,TRUE,TRUE,,,,,,,BKN,1500,OVC,1900,,,,,MVFR,,,,,,,,,,,,SPECI,705.0
KH21 180735Z AUTO 00000KT 2SM -SN OVC003 00/00 A3023 RMK AO2 P0001,KH21,2014-12-18T07:35:00Z,37.97,-92.68,0.0,0.0,0,0,,2.0,30.230314,,,TRUE,TRUE,,,,,,-SN,OVC,300,,,,,,,LIFR,,,,,,0.01,,,,,,SPECI,324.0
KGOP 180735Z AUTO 00000KT 1 3/4SM OVC001 07/07 A3013 RMK AO2 PWINO,KGOP,2014-12-18T07:35:00Z,31.42,-97.8,7.0,7.0,0,0,,1.75,30.129921,,,TRUE,TRUE,,,,,TRUE,,OVC,100,,,,,,,LIFR,,,,,,,,,,,,SPECI,276.0
KGNC 180735Z AUTO 27007KT 10SM CLR 06/00 A3007 RMK AO2 T00551005,KGNC,2014-12-18T07:35:00Z,32.68,-102.65,5.5,-0.5,270,7,,10.0,30.070866,,,TRUE,TRUE,,,,,,,CLR,,,,,,,,VFR,,,,,,,,,,,,SPECI,1010.0
KCPC 180735Z AUTO 00000KT 10SM CLR 03/02 A3009 RMK AO2 T00300020,KCPC,2014-12-18T07:35:00Z,34.28,-78.72,3.0,2.0,0,0,,10.0,30.088583,,,TRUE,TRUE,,,,,,,CLR,,,,,,,,VFR,,,,,,,,,,,,SPECI,29.0
KCOM 180735Z AUTO 19003KT 1/2SM FG OVC003 10/10 A3008 RMK AO2 T00950095,KCOM,2014-12-18T07:35:00Z,31.83,-99.4,9.5,9.5,190,3,,0.5,30.079725,,,TRUE,TRUE,,,,,,FG,OVC,300,,,,,,,LIFR,,,,,,,,,,,,SPECI,517.0
KCNC 180735Z AUTO 08005KT 10SM OVC085 M04/M08 A3027 RMK AO2,KCNC,2014-12-18T07:35:00Z,41.02,-93.37,-4.0,-8.0,80,5,,10.0,30.268702,,,TRUE,TRUE,,,,,,,OVC,8500,,,,,,,VFR,,,,,,,,,,,,SPECI,320.0
KCMY 180735Z AUTO 00000KT 10SM OVC019 M07/M10 A3030 RMK AO2 T10661102,KCMY,2014-12-18T07:35:00Z,43.97,-90.73,-6.6,-10.2,0,0,,10.0,30.301182,,,TRUE,TRUE,,,,,,,OVC,1900,,,,,,,MVFR,,,,,,,,,,,,SPECI,256.0
KCMD 180735Z AUTO 00000KT 10SM CLR 02/M01 A3022 RMK AO2 T00151006,KCMD,2014-12-18T07:35:00Z,34.27,-86.85,1.5,-0.6,0,0,,10.0,30.221457,,,TRUE,TRUE,,,,,,,CLR,,,,,,,,VFR,,,,,,,,,,,,SPECI,294.0
KCLW 180735Z AUTO 00000KT 10SM CLR 10/09 A3016 RMK AO2,KCLW,2014-12-18T07:35:00Z,27.98,-82.75,10.0,9.0,0,0,,10.0,30.159449,,,TRUE,TRUE,,,,,,,CLR,,,,,,,,VFR,,,,,,,,,,,,SPECI,22.0
KCKP 180735Z AUTO 08004KT 10SM OVC075 M06/M07 A3026 RMK AO2 T10601070,KCKP,2014-12-18T07:35:00Z,42.73,-95.55,-6.0,-7.0,80,4,,10.0,30.259842,,,TRUE,TRUE,,,,,,,OVC,7500,,,,,,,VFR,,,,,,,,,,,,SPECI,374.0
KCIR 180735Z AUTO 05004KT 4SM -SN OVC055 02/01 A3028 RMK AO2 T00190005,KCIR,2014-12-18T07:35:00Z,37.07,-89.22,1.9,0.5,50,4,,4.0,30.280512,,,TRUE,TRUE,,,,,,-SN,OVC,5500,,,,,,,MVFR,,,,,,,,,,,,SPECI,98.0
KCIN 180735Z AUTO 12005KT 10SM BKN065 OVC080 M05/M07 A3027 RMK AO2,KCIN,2014-12-18T07:35:00Z,42.03,-94.77,-5.0,-7.0,120,5,,10.0,30.268702,,,TRUE,TRUE,,,,,,,BKN,6500,OVC,8000,,,,,VFR,,,,,,,,,,,,SPECI,375.0
KCHK 180735Z AUTO 17006KT 2 1/2SM BR OVC005 03/03 A3011 RMK AO2,KCHK,2014-12-18T07:35:00Z,35.1,-97.97,3.0,3.0,170,6,,2.5,30.109253,,,TRUE,TRUE,,,,,,BR,OVC,500,,,,,,,IFR,,,,,,,,,,,,SPECI,351.0
KCBF 180735Z AUTO 11007KT 10SM OVC075 M03/M05 A3022 RMK AO2,KCBF,2014-12-18T07:35:00Z,41.27,-95.77,-3.0,-5.0,110,7,,10.0,30.221457,,,TRUE,TRUE,,,,,,,OVC,7500,,,,,,,VFR,,,,,,,,,,,,SPECI,382.0
KCAV 180735Z AUTO 02004KT 10SM CLR M11/M12 A3029 RMK AO2,KCAV,2014-12-18T07:35:00Z,42.75,-93.77,-11.0,-12.0,20,4,,10.0,30.28937,,,TRUE,TRUE,,,,,,,CLR,,,,,,,,VFR,,,,,,,,,,,,SPECI,354.0
KC09 180735Z AUTO 00000KT 10SM BKN018 M07/M08 A3029 RMK AO2 T10701084,KC09,2014-12-18T07:35:00Z,41.43,-88.42,-7.0,-8.4,0,0,,10.0,30.28937,,,TRUE,TRUE,,,,,,,BKN,1800,,,,,,,MVFR,,,,,,,,,,,,SPECI,178.0
KBVN 180735Z AUTO 14005KT 5SM -SN OVC060 M04/M07 A3018 RMK AO2 T10451072,KBVN,2014-12-18T07:35:00Z,41.73,-98.05,-4.5,-7.2,140,5,,5.0,30.180119,,,TRUE,TRUE,,,,,,-SN,OVC,6000,,,,,,,MVFR,,,,,,,,,,,,SPECI,551.0
KBPG 180735Z AUTO 18007KT 7SM CLR 06/05 A3008 RMK AO2 T00630050,KBPG,2014-12-18T07:35:00Z,32.22,-101.52,6.3,5.0,180,7,,7.0,30.079725,,,TRUE,TRUE,,,,,,,CLR,,,,,,,,VFR,,,,,,,,,,,,SPECI,784.0
KBNW 180735Z AUTO 05003KT 10SM BKN080 M07/M08 A3027 RMK AO2,KBNW,2014-12-18T07:35:00Z,42.03,-93.83,-7.0,-8.0,50,3,,10.0,30.268702,,,TRUE,TRUE,,,,,,,BKN,8000,,,,,,,VFR,,,,,,,,,,,,SPECI,354.0
KBKT 180735Z AUTO 36003KT 10SM CLR 01/M04 A3009 RMK AO1 T00121036,KBKT,2014-12-18T07:35:00Z,37.07,-77.95,1.2,-3.6,360,3,,10.0,30.088583,,,TRUE,TRUE,,,,,,,CLR,,,,,,,,VFR,,,,,,,,,,,,SPECI,134.0
KBKD 180735Z AUTO 14008KT 3SM BR OVC007 08/08 A3008 RMK AO2 T00780075,KBKD,2014-12-18T07:35:00Z,32.72,-98.88,7.8,7.5,140,8,,3.0,30.079725,,,TRUE,TRUE,,,,,,BR,OVC,700,,,,,,,IFR,,,,,,,,,,,,SPECI,392.0
KBIJ 180735Z AUTO 00000KT 10SM CLR 06/05 A3018 RMK AO2,KBIJ,2014-12-18T07:35:00Z,31.4,-84.9,6.0,5.0,0,0,,10.0,30.180119,,,TRUE,TRUE,,,,,,,CLR,,,,,,,,VFR,,,,,,,,,,,,SPECI,65.0
KBIE 180735Z AUTO 12005KT 10SM OVC080 M02/M05 A3020 RMK AO2 T10251055,KBIE,2014-12-18T07:35:00Z,40.28,-96.75,-2.5,-5.5,120,5,,10.0,30.200787,,,TRUE,TRUE,,,,,,,OVC,8000,,,,,,,VFR,,,,,,,,,,,,SPECI,403.0
KBGE 180735Z AUTO 00000KT 10SM CLR 06/06 A3017 RMK AO2,KBGE,2014-12-18T07:35:00Z,30.97,-84.63,6.0,6.0,0,0,,10.0,30.171259,,,TRUE,TRUE,,,,,,,CLR,,,,,,,,VFR,,,,,,,,,,,,SPECI,43.0
KAXX 180735Z AUTO 25003KT 4SM -SN SCT016 BKN022 OVC026 M02/M04 A3003 RMK AO2 T10221041,KAXX,2014-12-18T07:35:00Z,36.42,-105.28,-2.2,-4.1,250,3,,4.0,30.029528,,,TRUE,TRUE,,,,,,-SN,SCT,1600,BKN,2200,OVC,2600,,,MVFR,,,,,,,,,,,,SPECI,2548.0
KAXH 180735Z AUTO 00000KT 7SM SCT017 BKN095 13/13 A3008 RMK AO2 T01290127,KAXH,2014-12-18T07:35:00Z,29.52,-95.48,12.9,12.7,0,0,,7.0,30.079725,,,TRUE,TRUE,,,,,,,SCT,1700,BKN,9500,,,,,VFR,,,,,,,,,,,,SPECI,21.0
KAXA 180735Z AUTO 00000KT 10SM CLR M11/M12 A3030 RMK AO2,KAXA,2014-12-18T07:35:00Z,43.07,-94.27,-11.0,-12.0,0,0,,10.0,30.301182,,,TRUE,TRUE,,,,,,,CLR,,,,,,,,VFR,,,,,,,,,,,,SPECI,372.0
KAWG 180735Z AUTO 23003KT 9SM CLR M09/M09 A3031 RMK AO2,KAWG,2014-12-18T07:35:00Z,41.27,-91.67,-9.0,-9.0,230,3,,9.0,30.31004,,,TRUE,TRUE,,,,,,,CLR,,,,,,,,VFR,,,,,,,,,,,,SPECI,230.0
KATW 180735Z AUTO 29007KT 10SM OVC019 M04/M07 A3027 RMK AO2,KATW,2014-12-18T07:35:00Z,44.27,-88.52,-4.0,-7.0,290,7,,10.0,30.268702,,,TRUE,TRUE,,,,,,,OVC,1900,,,,,,,MVFR,,,,,,,,,,,,SPECI,280.0
KASL 180735Z AUTO 08003KT 7SM OVC005 08/07 A3018 RMK AO1 P0001 T00760065,KASL,2014-12-18T07:35:00Z,32.52,-94.3,7.6,6.5,80,3,,7.0,30.180119,,,TRUE,TRUE,,,,,,,OVC,500,,,,,,,IFR,,,,,,0.01,,,,,,SPECI,109.0
KARM 180735Z AUTO 06003KT 16/15 A3006 RMK AO2 T01600154 PWINO,KARM,2014-12-18T07:35:00Z,29.25,-96.15,16.0,15.4,60,3,,,30.059055,,,TRUE,TRUE,,,,,TRUE,,,,,,,,,,,,,,,,,,,,,,SPECI,31.0
KALX 180735Z AUTO 00000KT 10SM CLR 05/01 A3016 RMK AO2 T00460012,KALX,2014-12-18T07:35:00Z,32.92,-85.97,4.6,1.2,0,0,,10.0,30.159449,,,TRUE,TRUE,,,,,,,CLR,,,,,,,,VFR,,,,,,,,,,,,SPECI,209.0
KAIO 180735Z AUTO 08006KT 10SM SCT065 OVC085 M04/M07 A3024 RMK AO2,KAIO,2014-12-18T07:35:00Z,41.38,-95.03,-4.0,-7.0,80,6,,10.0,30.239174,,,TRUE,TRUE,,,,,,,SCT,6500,OVC,8500,,,,,VFR,,,,,,,,,,,,SPECI,360.0
KAHQ 180735Z AUTO 10003KT 10SM BKN060 BKN075 OVC085 M02/M06 A3022 RMK AO2 T10231065,KAHQ,2014-12-18T07:35:00Z,41.23,-96.6,-2.3,-6.5,100,3,,10.0,30.221457,,,TRUE,TRUE,,,,,,,BKN,6000,BKN,7500,OVC,8500,,,VFR,,,,,,,,,,,,SPECI,374.0
KAFP 180735Z AUTO 00000KT 10SM CLR 01/00 A3010 RMK AO2 T00050000,KAFP,2014-12-18T07:35:00Z,35.02,-80.08,0.5,0.0,0,0,,10.0,30.100393,,,TRUE,TRUE,,,,,,,CLR,,,,,,,,VFR,,,,,,,,,,,,SPECI,92.0
KAFK 180735Z AUTO 00000KT 10SM OVC070 M02/M06 A3022 RMK AO2 T10221063,KAFK,2014-12-18T07:35:00Z,40.6,-95.85,-2.2,-6.3,0,0,,10.0,30.221457,,,TRUE,TRUE,,,,,,,OVC,7000,,,,,,,VFR,,,,,,,,,,,,SPECI,354.0
KADU 180735Z AUTO 10005KT 10SM OVC090 M05/M09 A3025 RMK AO2,KADU,2014-12-18T07:35:00Z,41.7,-94.92,-5.0,-9.0,100,5,,10.0,30.250984,,,TRUE,TRUE,,,,,,,OVC,9000,,,,,,,VFR,,,,,,,,,,,,SPECI,392.0
KADS 180735Z AUTO 09004KT 7SM OVC004 05/05 A3015 RMK AO2 T00520052,KADS,2014-12-18T07:35:00Z,32.97,-96.82,5.2,5.2,90,4,,7.0,30.15059,,,TRUE,TRUE,,,,,,,OVC,400,,,,,,,LIFR,,,,,,,,,,,,SPECI,196.0
KADH 180735Z AUTO 16007KT 5SM BR OVC002 02/02 A3013 RMK AO2,KADH,2014-12-18T07:35:00Z,34.8,-96.67,2.0,2.0,160,7,,5.0,30.129921,,,TRUE,TRUE,,,,,,BR,OVC,200,,,,,,,LIFR,,,,,,,,,,,,SPECI,308.0
K82V 180735Z AUTO 24004KT 10SM SCT055 OVC070 M05/M06 A2997 RMK AO2,K82V,2014-12-18T07:35:00Z,41.15,-104.13,-5.0,-6.0,240,4,,10.0,29.970472,,,TRUE,TRUE,,,,,,,SCT,5500,OVC,7000,,,,,VFR,,,,,,,,,,,,SPECI,1570.0
KAVQ 180735Z AUTO 31003KT 5SM BKN024 OVC060 10/10 A3013 RMK AO2 T01040096,KAVQ,2014-12-18T07:35:00Z,,,10.4,9.6,310,3,,5.0,30.129921,,,TRUE,TRUE,,,,,,,BKN,2400,OVC,6000,,,,,MVFR,,,,,,,,,,,,METAR,
KPDC 180735Z AUTO 00000KT 10SM CLR M09/M11 A3031 RMK AO2 T10871106,KPDC,2014-12-18T07:35:00Z,43.02,-91.12,-8.7,-10.6,0,0,,10.0,30.31004,,,TRUE,TRUE,,,,,,,CLR,,,,,,,,VFR,,,,,,,,,,,,SPECI,201.0
KPBX 180735Z AUTO 30005KT 10SM OVC013 M01/M03 A3022 RMK AO2 T10131035,KPBX,2014-12-18T07:35:00Z,37.57,-82.57,-1.3,-3.5,300,5,,10.0,30.221457,,,TRUE,TRUE,,,,,,,OVC,1300,,,,,,,MVFR,,,,,,,,,,,,SPECI,449.0
KOZA 180735Z AUTO 28004KT 1/4SM FG OVC001 07/07 A3012 RMK AO2,KOZA,2014-12-18T07:35:00Z,30.73,-101.2,7.0,7.0,280,4,,0.25,30.121063,,,TRUE,TRUE,,,,,,FG,OVC,100,,,,,,,LIFR,,,,,,,,,,,,SPECI,726.0
KOXV 180735Z AUTO 09003KT 10SM OVC085 M05/M09 A3027 RMK AO2,KOXV,2014-12-18T07:35:00Z,41.28,-93.12,-5.0,-9.0,90,3,,10.0,30.268702,,,TRUE,TRUE,,,,,,,OVC,8500,,,,,,,VFR,,,,,,,,,,,,SPECI,283.0
KOUN 180735Z AUTO 16006KT 3SM BR OVC002 02/02 A3013 RMK AO2,KOUN,2014-12-18T07:35:00Z,35.25,-97.47,2.0,2.0,160,6,,3.0,30.129921,,,TRUE,TRUE,,,,,,BR,OVC,200,,,,,,,LIFR,,,,,,,,,,,,SPECI,357.0
KOSA 180735Z AUTO 03004KT 3SM BKN003 OVC007 04/04 A3020 RMK AO1 P0001 T00410041,KOSA,2014-12-18T07:35:00Z,33.1,-94.97,4.1,4.1,30,4,,3.0,30.200787,,,TRUE,TRUE,,,,,,,BKN,300,OVC,700,,,,,LIFR,,,,,,0.01,,,,,,SPECI,111.0
KORC 180735Z AUTO 08005KT 10SM OVC070 M06/M08 A3024 RMK AO2,KORC,2014-12-18T07:35:00Z,42.97,-96.07,-6.0,-8.0,80,5,,10.0,30.239174,,,TRUE,TRUE,,,,,,,OVC,7000,,,,,,,VFR,,,,,,,,,,,,SPECI,431.0
KONL 180735Z AUTO 00000KT 10SM BKN014 OVC020 M06/M07 A3016 RMK AO2 T10611070,KONL,2014-12-18T07:35:00Z,42.47,-98.67,-6.1,-7.0,0,0,,10.0,30.159449,,,TRUE,TRUE,,,,,,,BKN,1400,OVC,2000,,,,,MVFR,,,,,,,,,,,,SPECI,619.0
KOMH 180735Z AUTO 00000KT 10SM CLR M02/M03 A3011 RMK AO2,KOMH,2014-12-18T07:35:00Z,38.25,-78.05,-2.0,-3.0,0,0,,10.0,30.109253,,,TRUE,TRUE,,,,,,,CLR,,,,,,,,VFR,,,,,,,,,,,,SPECI,142.0
KOLZ 180735Z AUTO 01004KT 10SM CLR M09/M11 A3029 RMK AO2,KOLZ,2014-12-18T07:35:00Z,42.67,-91.97,-9.0,-11.0,10,4,,10.0,30.28937,,,TRUE,TRUE,,,,,,,CLR,,,,,,,,VFR,,,,,,,,,,,,SPECI,328.0
KOKM 180735Z AUTO 10008KT 3SM BR OVC004 02/02 A3016 RMK AO2 T00210020,KOKM,2014-12-18T07:35:00Z,35.67,-95.95,2.1,2.0,100,8,,3.0,30.159449,,,TRUE,TRUE,,,,,,BR,OVC,400,,,,,,,LIFR,,,,,,,,,,,,SPECI,220.0
KOGA 180735Z AUTO 23004KT 7SM OVC006 M04/M04 A3005 RMK AO2 T10411045,KOGA,2014-12-18T07:35:00Z,41.12,-101.77,-4.1,-4.5,230,4,,7.0,30.050198,,,TRUE,TRUE,,,,,,,OVC,600,,,,,,,IFR,,,,,,,,,,,,SPECI,999.0
KOEO 180735Z AUTO 00000KT 10SM OVC016 M08/M10 A3035 RMK AO2 T10851100,KOEO,2014-12-18T07:35:00Z,45.32,-92.7,-8.5,-10.0,0,0,,10.0,30.351377,,,TRUE,TRUE,,,,,,,OVC,1600,,,,,,,MVFR,,,,,,,,,,,,SPECI,275.0
KMXO 180735Z AUTO 00000KT 10SM CLR M09/M10 A3029 RMK AO2,KMXO,2014-12-18T07:35:00Z,42.22,-91.17,-9.0,-10.0,0,0,,10.0,30.28937,,,TRUE,TRUE,,,,,,,CLR,,,,,,,,VFR,,,,,,,,,,,,SPECI,259.0
KMUT 180735Z AUTO 00000KT 10SM CLR M07/M09 A3032 RMK AO2,KMUT,2014-12-18T07:35:00Z,41.37,-91.15,-7.0,-9.0,0,0,,10.0,30.318897,,,TRUE,TRUE,,,,,,,CLR,,,,,,,,VFR,,,,,,,,,,,,SPECI,167.0
KMRN 180735Z AUTO 00000KT 10SM CLR M02/M03 A3013 RMK AO2 T10201030,KMRN,2014-12-18T07:35:00Z,35.82,-81.62,-2.0,-3.0,0,0,,10.0,30.129921,,,TRUE,TRUE,,,,,,,CLR,,,,,,,,VFR,,,,,,,,,,,,SPECI,387.0
KMPZ 180735Z AUTO 00000KT 10SM CLR M08/M09 A3031 RMK AO2 T10771090,KMPZ,2014-12-18T07:35:00Z,40.95,-91.52,-7.7,-9.0,0,0,,10.0,30.31004,,,TRUE,TRUE,,,,,,,CLR,,,,,,,,VFR,,,,,,,,,,,,SPECI,224.0
KMMH 180735Z AUTO 00000KT M08/M09 RMK AO1 PWINO,KMMH,2014-12-18T07:35:00Z,37.62,-118.82,-8.0,-9.0,0,0,,,,,,TRUE,TRUE,,,,,TRUE,,,,,,,,,,,,,,,,,,,,,,SPECI,2173.0
KMLJ 180735Z AUTO 00000KT 10SM CLR 01/01 A3011 RMK AO2,KMLJ,2014-12-18T07:35:00Z,33.15,-83.23,1.0,1.0,0,0,,10.0,30.109253,,,TRUE,TRUE,,,,,,,CLR,,,,,,,,VFR,,,,,,,,,,,,SPECI,117.0
KGMJ 180735Z AUTO 00000KT 3SM BR BKN002 OVC006 02/02 A3018 RMK AO2,KGMJ,2014-12-18T07:35:00Z,36.6,-94.73,2.0,2.0,0,0,,3.0,30.180119,,,TRUE,TRUE,,,,,,BR,BKN,200,OVC,600,,,,,LIFR,,,,,,,,,,,,SPECI,254.0
KGDJ 180735Z AUTO 00000KT 3SM BR OVC004 08/07 A3012 RMK AO2 T00750065,KGDJ,2014-12-18T07:35:00Z,32.45,-97.82,7.5,6.5,0,0,,3.0,30.121063,,,TRUE,TRUE,,,,,,BR,OVC,400,,,,,,,LIFR,,,,,,,,,,,,SPECI,237.0
KGCD 180735Z AUTO 13003KT 10SM -DZ SCT019 SCT025 OVC036 03/02 A2998 RMK AO2 T00280020,KGCD,2014-12-18T07:35:00Z,44.38,-118.97,2.8,2.0,130,3,,10.0,29.97933,,,TRUE,TRUE,,,,,,-DZ,SCT,1900,SCT,2500,OVC,3600,,,VFR,,,,,,,,,,,,SPECI,1127.0
KGBG 180735Z AUTO 00000KT 10SM CLR M08/M09 A3030 RMK AO2 T10851092,KGBG,2014-12-18T07:35:00Z,40.93,-90.43,-8.5,-9.2,0,0,,10.0,30.301182,,,TRUE,TRUE,,,,,,,CLR,,,,,,,,VFR,,,,,,,,,,,,SPECI,233.0
KGAO 180735Z AUTO 10SM CLR 13/09 A3016 RMK AO2 T01280093,KGAO,2014-12-18T07:35:00Z,29.45,-90.27,12.8,9.3,,,,10.0,30.159449,,,TRUE,TRUE,,,,,,,CLR,,,,,,,,VFR,,,,,,,,,,,,SPECI,1.0
KFXY 180735Z AUTO 21003KT 10SM BKN013 M10/M12 A3029 RMK AO2,KFXY,2014-12-18T07:35:00Z,43.23,-93.62,-10.0,-12.0,210,3,,10.0,30.28937,,,TRUE,TRUE,,,,,,,BKN,1300,,,,,,,MVFR,,,,,,,,,,,,SPECI,375.0
KFWZ 180735Z AUTO 28010KT 10SM CLR M05/M12 RMK AO2,KFWZ,2014-12-18T07:35:00Z,42.52,-108.78,-5.0,-12.0,280,10,,10.0,,,,TRUE,TRUE,,,,,,,CLR,,,,,,,,VFR,,,,,,,,,,,,SPECI,2588.0
KFWC 180735Z AUTO 04003KT 10SM SCT012 OVC090 M02/M04 A3030 RMK AO1 T10201041,KFWC,2014-12-18T07:35:00Z,38.38,-88.42,-2.0,-4.1,40,3,,10.0,30.301182,,,TRUE,TRUE,,,,,,,SCT,1200,OVC,9000,,,,,VFR,,,,,,,,,,,,SPECI,133.0
KFSW 180735Z AUTO 00000KT 10SM CLR M06/M07 A3031 RMK AO2,KFSW,2014-12-18T07:35:00Z,40.67,-91.32,-6.0,-7.0,0,0,,10.0,30.31004,,,TRUE,TRUE,,,,,,,CLR,,,,,,,,VFR,,,,,,,,,,,,SPECI,221.0
KFQD 180735Z AUTO 34004KT 10SM CLR 02/M03 A3010 RMK AO2 T00231032,KFQD,2014-12-18T07:35:00Z,35.42,-81.93,2.3,-3.2,340,4,,10.0,30.100393,,,TRUE,TRUE,,,,,,,CLR,,,,,,,,VFR,,,,,,,,,,,,SPECI,329.0
KFOA 180735Z AUTO 04005KT 10SM CLR M03/M05 A3032 RMK AO2 T10301053,KFOA,2014-12-18T07:35:00Z,38.67,-88.45,-3.0,-5.3,40,5,,10.0,30.318897,,,TRUE,TRUE,,,,,,,CLR,,,,,,,,VFR,,,,,,,,,,,,SPECI,144.0
KFFL 180735Z AUTO 00000KT 10SM FEW190 FEW210 M07/M09 A3031 RMK AO2,KFFL,2014-12-18T07:35:00Z,41.03,-91.97,-7.0,-9.0,0,0,,10.0,30.31004,,,TRUE,TRUE,,,,,,,FEW,19000,FEW,21000,,,,,VFR,,,,,,,,,,,,SPECI,244.0
KFFA 180735Z AUTO 30006KT 10SM CLR 08/05 A3004 RMK AO2 T00800048,KFFA,2014-12-18T07:35:00Z,36.02,-75.67,8.0,4.8,300,6,,10.0,30.041338,,,TRUE,TRUE,,,,,,,CLR,,,,,,,,VFR,,,,,,,,,,,,SPECI,4.0
KF70 180735Z AUTO 00000KT 10SM CLR 08/07 A3013 RMK AO1,KF70,2014-12-18T07:35:00Z,33.57,-117.13,8.0,7.0,0,0,,10.0,30.129921,,,TRUE,TRUE,,,,,,,CLR,,,,,,,,VFR,,,,,,,,,,,,SPECI,412.0
KEZF 180735Z AUTO 35006KT 10SM CLR 03/M03 A3010 RMK AO2 T00311031,KEZF,2014-12-18T07:35:00Z,38.27,-77.45,3.1,-3.1,350,6,,10.0,30.100393,,,TRUE,TRUE,,,,,,,CLR,,,,,,,,VFR,,,,,,,,,,,,SPECI,26.0
KEYF 180735Z AUTO 00000KT 10SM CLR 04/04 A3009 RMK AO2 T00440039,KEYF,2014-12-18T07:35:00Z,34.6,-78.58,4.4,3.9,0,0,,10.0,30.088583,,,TRUE,TRUE,,,,,,,CLR,,,,,,,,VFR,,,,,,,,,,,,SPECI,41.0
KEOK 180735Z AUTO 00000KT 10SM CLR M05/M06 A3030 RMK AO2,KEOK,2014-12-18T07:35:00Z,40.47,-91.42,-5.0,-6.0,0,0,,10.0,30.301182,,,TRUE,TRUE,,,,,,,CLR,,,,,,,,VFR,,,,,,,,,,,,SPECI,205.0
KENL 180735Z AUTO 09004KT 10SM SCT012 SCT095 M02/M05 A3030 RMK AO2 T10191049,KENL,2014-12-18T07:35:00Z,38.52,-89.1,-1.9,-4.9,90,4,,10.0,30.301182,,,TRUE,TRUE,,,,,,,SCT,1200,SCT,9500,,,,,VFR,,,,,,,,,,,,SPECI,163.0
KELA 180735Z AUTO 11003KT 10SM SCT009 SCT018 BKN034 15/15 A3007 RMK AO2 P0001 T01510150,KELA,2014-12-18T07:35:00Z,29.6,-96.32,15.1,15.0,110,3,,10.0,30.070866,,,TRUE,TRUE,,,,,,,SCT,900,SCT,1800,BKN,3400,,,VFR,,,,,,0.01,,,,,,METAR,56.0
KEHO 180735Z AUTO 00000KT 10SM CLR 00/M01 A3009 RMK AO2 T00011013,KEHO,2014-12-18T07:35:00Z,35.25,-81.6,0.1,-1.3,0,0,,10.0,30.088583,,,TRUE,TRUE,,,,,,,CLR,,,,,,,,VFR,,,,,,,,,,,,SPECI,258.0
KEFK 180735Z AUTO 00000KT 3SM -SN BKN010 OVC017 00/M01 A2971 RMK AO2 T00001010,KEFK,2014-12-18T07:35:00Z,44.88,-72.23,0.0,-1.0,0,0,,3.0,29.71063,,,TRUE,TRUE,,,,,,-SN,BKN,1000,OVC,1700,,,,,MVFR,,,,,,,,,,,,SPECI,284.0
KEBS 180735Z AUTO 00000KT 10SM OVC075 M08/M10 A3027 RMK AO2,KEBS,2014-12-18T07:35:00Z,42.42,-93.87,-8.0,-10.0,0,0,,10.0,30.268702,,,TRUE,TRUE,,,,,,,OVC,7500,,,,,,,VFR,,,,,,,,,,,,SPECI,342.0
KDWX 180735Z AUTO 13003KT 10SM OVC005 A3008 RMK AO2,KDWX,2014-12-18T07:35:00Z,41.03,-107.5,,,130,3,,10.0,30.079725,,,TRUE,TRUE,,,,,,,OVC,500,,,,,,,IFR,,,,,,,,,,,,SPECI,1996.0
KDUB 180735Z AUTO 34012KT 10SM BKN038 OVC045 M05/M10 A2996 RMK AO2,KDUB,2014-12-18T07:35:00Z,43.55,-109.68,-5.0,-10.0,340,12,,10.0,29.958662,,,TRUE,TRUE,,,,,,,BKN,3800,OVC,4500,,,,,VFR,,,,,,,,,,,,SPECI,2224.0
KDEH 180735Z AUTO 00000KT 10SM BKN013 M09/M11 A3027 RMK AO2,KDEH,2014-12-18T07:35:00Z,43.27,-91.72,-9.0,-11.0,0,0,,10.0,30.268702,,,TRUE,TRUE,,,,,,,BKN,1300,,,,,,,MVFR,,,,,,,,,,,,SPECI,353.0
KD25 180735Z AUTO 05006KT 10SM OVC007 M06/M07 A3023 RMK AO2 T10621071,KD25,2014-12-18T07:35:00Z,46.12,-89.88,-6.2,-7.1,50,6,,10.0,30.230314,,,TRUE,TRUE,,,,,,,OVC,700,,,,,,,IFR,,,,,,,,,,,,SPECI,491.0
KCXE 180735Z AUTO 30005KT 10SM CLR 04/M01 A3010 RMK AO1 T00361010,KCXE,2014-12-18T07:35:00Z,36.78,-78.5,3.6,-1.0,300,5,,10.0,30.100393,,,TRUE,TRUE,,,,,,,CLR,,,,,,,,VFR,,,,,,,,,,,,SPECI,153.0
KCWV 180735Z AUTO 00000KT 10SM CLR 01/01 A3014 RMK AO2,KCWV,2014-12-18T07:35:00Z,32.2,-81.87,1.0,1.0,0,0,,10.0,30.138779,,,TRUE,TRUE,,,,,,,CLR,,,,,,,,VFR,,,,,,,,,,,,SPECI,33.0
KCTZ 180735Z AUTO 00000KT 10SM CLR 03/03 A3010 RMK AO2 T00340034,KCTZ,2014-12-18T07:35:00Z,34.98,-78.37,3.4,3.4,0,0,,10.0,30.100393,,,TRUE,TRUE,,,,,,,CLR,,,,,,,,VFR,,,,,,,,,,,,SPECI,45.0
KCSQ 180735Z AUTO 10007KT 10SM OVC080 M04/M07 A3025 RMK AO2,KCSQ,2014-12-18T07:35:00Z,41.02,-94.37,-4.0,-7.0,100,7,,10.0,30.250984,,,TRUE,TRUE,,,,,,,OVC,8000,,,,,,,VFR,,,,,,,,,,,,SPECI,394.0
KCQF 180735Z AUTO 00000KT 10SM CLR 05/03 A3018 RMK AO2,KCQF,2014-12-18T07:35:00Z,30.47,-87.88,5.0,3.0,0,0,,10.0,30.180119,,,TRUE,TRUE,,,,,,,CLR,,,,,,,,VFR,,,,,,,,,,,,SPECI,28.0
KCQB 180735Z AUTO 13004KT 2SM BR OVC001 03/03 A3014 RMK AO2,KCQB,2014-12-18T07:35:00Z,35.72,-96.82,3.0,3.0,130,4,,2.0,30.138779,,,TRUE,TRUE,,,,,,BR,OVC,100,,,,,,,LIFR,,,,,,,,,,,,SPECI,300.0
KCPT 180735Z AUTO 11005KT 3SM BR OVC002 06/06 A3012 RMK AO2,KCPT,2014-12-18T07:35:00Z,32.35,-97.43,6.0,6.0,110,5,,3.0,30.121063,,,TRUE,TRUE,,,,,,BR,OVC,200,,,,,,,LIFR,,,,,,,,,,,,SPECI,260.0
KTSP 180735Z AUTO 27006KT 10SM BKN120 01/01 A3011 RMK AO2,KTSP,2014-12-18T07:35:00Z,35.13,-118.43,1.0,1.0,270,6,,10.0,30.109253,,,TRUE,TRUE,,,,,,,BKN,12000,,,,,,,VFR,,,,,,,,,,,,SPECI,1220.0
KRUG 180735Z AUTO 15008KT 10SM CLR M13/M14 A3017 RMK AO2,KRUG,2014-12-18T07:35:00Z,48.38,-100.02,-13.0,-14.0,150,8,,10.0,30.171259,,,TRUE,TRUE,,,,,,,CLR,,,,,,,,VFR,,,,,,,,,,,,SPECI,472.0
KEDC 180735Z AUTO 02008KT 2SM BR OVC004 09/08 A3011 RMK AO2,KEDC,2014-12-18T07:35:00Z,30.4,-97.57,9.0,8.0,20,8,,2.0,30.109253,,,TRUE,TRUE,,,,,,BR,OVC,400,,,,,,,LIFR,,,,,,,,,,,,SPECI,189.0
KDED 180735Z AUTO 00000KT 10SM CLR A3015 RMK AO1,KDED,2014-12-18T07:35:00Z,29.07,-81.28,,,0,0,,10.0,30.15059,,,TRUE,TRUE,,,,,,,CLR,,,,,,,,VFR,,,,,,,,,,,,SPECI,24.0
KANK 180735Z AUTO 00000KT 10SM SCT090 M03/M06 A3007 RMK AO1 T10301058,KANK,2014-12-18T07:35:00Z,38.53,-106.05,-3.0,-5.8,0,0,,10.0,30.070866,,,TRUE,TRUE,,,,,,,SCT,9000,,,,,,,VFR,,,,,,,,,,,,SPECI,2293.0
K96D 180735Z AUTO 22003KT 10SM M18/M18 A3028 RMK AO2,K96D,2014-12-18T07:35:00Z,48.93,-97.9,-18.0,-18.0,220,3,,10.0,30.280512,,,TRUE,TRUE,,,,,,,,,,,,,,,,,,,,,,,,,,,SPECI,290.0
K28J 180735Z AUTO 00000KT 10SM CLR 04/04 A3016 RMK AO2,K28J,2014-12-18T07:35:00Z,29.65,-81.58,4.0,4.0,0,0,,10.0,30.159449,,,TRUE,TRUE,,,,,,,CLR,,,,,,,,VFR,,,,,,,,,,,,SPECI,15.0
K20U 180735Z AUTO 17007KT 10SM OVC006 M06/M06 A2997 RMK AO2,K20U,2014-12-18T07:35:00Z,46.93,-103.98,-6.0,-6.0,170,7,,10.0,29.970472,,,TRUE,TRUE,,,,,,,OVC,600,,,,,,,IFR,,,,,,,,,,,,SPECI,840.0
K2G9 180735Z AUTO 30014G28KT 10SM OVC018 M05/M08 A3005 RMK AO2,K2G9,2014-12-18T07:35:00Z,,,-5.0,-8.0,300,14,28,10.0,30.050198,,,TRUE,TRUE,,,,,,,OVC,1800,,,,,,,MVFR,,,,,,,,,,,,METAR,
KXLL 180735Z AUTO 27007G15KT 10SM SCT041 BKN046 OVC070 02/M05 A2999 RMK AO2,KXLL,2014-12-18T07:35:00Z,40.57,-75.48,2.0,-5.0,270,7,15,10.0,29.991142,,,TRUE,TRUE,,,,,,,SCT,4100,BKN,4600,OVC,7000,,,VFR,,,,,,,,,,,,SPECI,122.0
KW96 180735Z AUTO 00000KT 10SM CLR 01/M03 A3010 RMK AO1 T00061032,KW96,2014-12-18T07:35:00Z,37.5,-77.12,0.6,-3.2,0,0,,10.0,30.100393,,,TRUE,TRUE,,,,,,,CLR,,,,,,,,VFR,,,,,,,,,,,,SPECI,37.0
KVTI 180735Z AUTO 01004KT 10SM CLR M09/M10 A3029 RMK AO2 T10871101,KVTI,2014-12-18T07:35:00Z,42.22,-92.02,-8.7,-10.1,10,4,,10.0,30.28937,,,TRUE,TRUE,,,,,,,CLR,,,,,,,,VFR,,,,,,,,,,,,SPECI,255.0
KVJI 180735Z AUTO 00000KT 10SM CLR M01/M03 A3016 RMK AO2 T10131027,KVJI,2014-12-18T07:35:00Z,36.67,-82.02,-1.3,-2.7,0,0,,10.0,30.159449,,,TRUE,TRUE,,,,,,,CLR,,,,,,,,VFR,,,,,,,,,,,,SPECI,631.0
KVDI 180735Z AUTO 00000KT 10SM CLR 03/03 A3013 RMK AO2,KVDI,2014-12-18T07:35:00Z,32.2,-82.37,3.0,3.0,0,0,,10.0,30.129921,,,TRUE,TRUE,,,,,,,CLR,,,,,,,,VFR,,,,,,,,,,,,SPECI,84.0
KUVA 180735Z AUTO 05003KT 1 3/4SM BR OVC002 14/14 A3007 RMK AO2 T01430141,KUVA,2014-12-18T07:35:00Z,29.22,-99.75,14.3,14.1,50,3,,1.75,30.070866,,,TRUE,TRUE,,,,,,BR,OVC,200,,,,,,,LIFR,,,,,,,,,,,,SPECI,287.0
KUNV 180735Z AUTO 26009G15KT 10SM BKN034 OVC042 M01/M07 A3006 RMK AO2 T10111066,KUNV,2014-12-18T07:35:00Z,40.85,-77.83,-1.1,-6.6,260,9,15,10.0,30.059055,,,TRUE,TRUE,,,,,,,BKN,3400,OVC,4200,,,,,VFR,,,,,,,,,,,,SPECI,378.0
KTTA 180735Z AUTO 00000KT 7SM CLR 01/01 A3010 RMK AO2 T00050005,KTTA,2014-12-18T07:35:00Z,35.58,-79.1,0.5,0.5,0,0,,7.0,30.100393,,,TRUE,TRUE,,,,,,,CLR,,,,,,,,VFR,,,,,,,,,,,,SPECI,75.0
KTQH 180735Z AUTO 14004KT 10SM BKN025 OVC029 01/00 A3016 RMK AO2,KTQH,2014-12-18T07:35:00Z,35.93,-95.0,1.0,0.0,140,4,,10.0,30.159449,,,TRUE,TRUE,,,,,,,BKN,2500,OVC,2900,,,,,MVFR,,,,,,,,,,,,SPECI,266.0
KTOC 180735Z AUTO 00000KT 10SM CLR 04/00 A3009 RMK AO2 T00370000,KTOC,2014-12-18T07:35:00Z,34.6,-83.3,3.7,0.0,0,0,,10.0,30.088583,,,TRUE,TRUE,,,,,,,CLR,,,,,,,,VFR,,,,,,,,,,,,SPECI,304.0
KTNB 180735Z AUTO 34004G15KT 10SM CLR 00/M04 A3007 RMK AO2 T10031043,KTNB,2014-12-18T07:35:00Z,36.2,-81.65,-0.3,-4.3,340,4,15,10.0,30.070866,,,TRUE,TRUE,,,,,,,CLR,,,,,,,,VFR,,,,,,,,,,,,SPECI,911.0
PAUT 180735Z AUTO 30018KT 10SM SCT027 02/M02 A2937 RMK AO2 T00241017,PAUT,2014-12-18T07:35:00Z,54.15,-165.6,2.4,-1.7,300,18,,10.0,29.371063,,,TRUE,TRUE,,,,,,,SCT,2700,,,,,,,VFR,,,,,,,,,,,,SPECI,25.0
KCPK 180735Z AUTO 35004KT 10SM CLR 07/01 A3009 RMK AO2,KCPK,2014-12-18T07:35:00Z,36.67,-76.32,7.0,1.0,350,4,,10.0,30.088583,,,TRUE,TRUE,,,,,,,CLR,,,,,,,,VFR,,,,,,,,,,,,SPECI,6.0
KCNI 180735Z AUTO 30003KT 10SM CLR 02/M01 A3012 RMK AO2,KCNI,2014-12-18T07:35:00Z,34.32,-84.42,2.0,-1.0,300,3,,10.0,30.121063,,,TRUE,TRUE,,,,,,,CLR,,,,,,,,VFR,,,,,,,,,,,,SPECI,372.0
KCFD 180735Z AUTO 03003KT 10SM OVC007 10/09 A3012 RMK AO2 T00980088,KCFD,2014-12-18T07:35:00Z,30.72,-96.33,9.8,8.8,30,3,,10.0,30.121063,,,TRUE,TRUE,,,,,,,OVC,700,,,,,,,IFR,,,,,,,,,,,,SPECI,112.0
KBYY 180735Z AUTO 10004KT 7SM 18/18 A3006 RMK AO2 T01850185,KBYY,2014-12-18T07:35:00Z,28.97,-95.87,18.5,18.5,100,4,,7.0,30.059055,,,TRUE,TRUE,,,,,,,,,,,,,,,,,,,,,,,,,,,SPECI,14.0
KBTA 180735Z AUTO 06003KT 10SM SCT065 OVC080 M02/M06 A3022 RMK AO2 T10251058,KBTA,2014-12-18T07:35:00Z,41.42,-96.12,-2.5,-5.8,60,3,,10.0,30.221457,,,TRUE,TRUE,,,,,,,SCT,6500,OVC,8000,,,,,VFR,,,,,,,,,,,,SPECI,396.0
KBPC 180735Z AUTO 17004KT 3SM BR OVC004 03/02 A3002 RMK AO2,KBPC,2014-12-18T07:35:00Z,35.88,-101.03,3.0,2.0,170,4,,3.0,30.02067,,,TRUE,TRUE,,,,,,BR,OVC,400,,,,,,,LIFR,,,,,,,,,,,,SPECI,845.0
KBMT 180735Z AUTO 07003KT 10SM SCT024 SCT028 OVC065 14/11 A3012 RMK AO2 T01400110,KBMT,2014-12-18T07:35:00Z,30.07,-94.22,14.0,11.0,70,3,,10.0,30.121063,,,TRUE,TRUE,,,,,,,SCT,2400,SCT,2800,OVC,6500,,,VFR,,,,,,,,,,,,SPECI,10.0
KAZC 180735Z AUTO 00000KT 10SM -RA SCT019 OVC025 03/03 A3012 RMK AO2 T00300026,KAZC,2014-12-18T07:35:00Z,36.97,-113.02,3.0,2.6,0,0,,10.0,30.121063,,,TRUE,TRUE,,,,,,-RA,SCT,1900,OVC,2500,,,,,MVFR,,,,,,,,,,,,SPECI,1486.0
KAYS 180735Z AUTO 00000KT 10SM CLR 07/06 A3014 RMK AO2 T00700060,KAYS,2014-12-18T07:35:00Z,31.25,-82.4,7.0,6.0,0,0,,10.0,30.138779,,,TRUE,TRUE,,,,,,,CLR,,,,,,,,VFR,,,,,,,,,,,,SPECI,46.0
KAXS 180735Z AUTO 14008KT 3/4SM BR OVC003 05/04 A3009 RMK AO2 T00450037,KAXS,2014-12-18T07:35:00Z,34.7,-99.33,4.5,3.7,140,8,,0.75,30.088583,,,TRUE,TRUE,,,,,,BR,OVC,300,,,,,,,LIFR,,,,,,,,,,,,SPECI,437.0
KAUN 180735Z AUTO 11006KT 6SM FEW015 SCT034 BKN045 08/06 A3011 RMK AO1 P0001,KAUN,2014-12-18T07:35:00Z,38.95,-121.08,8.0,6.0,110,6,,6.0,30.109253,,,TRUE,TRUE,,,,,,,FEW,1500,SCT,3400,BKN,4500,,,VFR,,,,,,0.01,,,,,,SPECI,467.0
KAUH 180735Z AUTO 09004KT 2 1/2SM -SN SCT021 OVC039 M04/M05 A3018 RMK AO2 T10451052,KAUH,2014-12-18T07:35:00Z,40.88,-98.0,-4.5,-5.2,90,4,,2.5,30.180119,,,TRUE,TRUE,,,,,,-SN,SCT,2100,OVC,3900,,,,,IFR,,,,,,,,,,,,SPECI,550.0
KANW 180735Z AUTO 00000KT 5SM BR OVC008 M05/M06 A3009 RMK AO2 T10541058,KANW,2014-12-18T07:35:00Z,42.57,-100.0,-5.4,-5.8,0,0,,5.0,30.088583,,,TRUE,TRUE,,,,,,BR,OVC,800,,,,,,,IFR,,,,,,,,,,,,SPECI,789.0
KAJG 180735Z AUTO 03004KT 10SM OVC011 M01/M05 A3032 RMK AO2,KAJG,2014-12-18T07:35:00Z,38.62,-87.73,-1.0,-5.0,30,4,,10.0,30.318897,,,TRUE,TRUE,,,,,,,OVC,1100,,,,,,,MVFR,,,,,,,,,,,,SPECI,131.0
KAFO 180735Z AUTO 19003KT 10SM OVC050 M06/M07 A3003 RMK AO2,KAFO,2014-12-18T07:35:00Z,42.72,-110.95,-6.0,-7.0,190,3,,10.0,30.029528,,,TRUE,TRUE,,,,,,,OVC,5000,,,,,,,VFR,,,,,,,,,,,,SPECI,1897.0
KADM 180735Z AUTO 14004KT 7SM OVC005 04/04 A3015 RMK AO2 P0001 T00400040,KADM,2014-12-18T07:35:00Z,34.28,-97.02,4.0,4.0,140,4,,7.0,30.15059,,,TRUE,TRUE,,,,,,,OVC,500,,,,,,,IFR,,,,,,0.01,,,,,,SPECI,232.0
K6R3 180735Z AUTO 00000KT 7SM OVC012 13/11 A3011 RMK AO2 T01290106,K6R3,2014-12-18T07:35:00Z,30.35,-95.0,12.9,10.6,0,0,,7.0,30.109253,,,TRUE,TRUE,,,,,,,OVC,1200,,,,,,,MVFR,,,,,,,,,,,,SPECI,46.0
K6B0 180735Z AUTO 00000KT 7SM -RA SCT013 BKN017 OVC034 01/01 A2975 RMK AO2 P0001 T00100010,K6B0,2014-12-18T07:35:00Z,43.98,-73.1,1.0,1.0,0,0,,7.0,29.749016,,,TRUE,TRUE,,,,,,-RA,SCT,1300,BKN,1700,OVC,3400,,,MVFR,,,,,,0.01,,,,,,SPECI,149.0
K66R 180735Z AUTO 00000KT 7SM OVC005 15/15 A3007 RMK AO2 T01500148,K66R,2014-12-18T07:35:00Z,29.65,-96.52,15.0,14.8,0,0,,7.0,30.070866,,,TRUE,TRUE,,,,,,,OVC,500,,,,,,,IFR,,,,,,,,,,,,SPECI,74.0
K5W8 180735Z AUTO 00000KT 10SM CLR M01/M01 A3009 RMK AO2 T10101011,K5W8,2014-12-18T07:35:00Z,35.7,-79.5,-1.0,-1.1,0,0,,10.0,30.088583,,,TRUE,TRUE,,,,,,,CLR,,,,,,,,VFR,,,,,,,,,,,,SPECI,188.0
K5R8 180735Z AUTO 09003KT 10SM BKN110 11/08 A3014 RMK AO2 T01070076,K5R8,2014-12-18T07:35:00Z,30.43,-93.47,10.7,7.6,90,3,,10.0,30.138779,,,TRUE,TRUE,,,,,,,BKN,11000,,,,,,,VFR,,,,,,,,,,,,SPECI,24.0
K5C1 180735Z AUTO 00000KT 1/2SM OVC003 11/10 A3008 RMK AO1,K5C1,2014-12-18T07:35:00Z,29.72,-98.7,11.0,10.0,0,0,,0.5,30.079725,,,TRUE,TRUE,,,,,,,OVC,300,,,,,,,LIFR,,,,,,,,,,,,SPECI,423.0
K54J 180735Z AUTO 35003KT 10SM CLR 06/04 A3018 RMK AO2 T00570044,K54J,2014-12-18T07:35:00Z,30.73,-86.15,5.7,4.4,350,3,,10.0,30.180119,,,TRUE,TRUE,,,,,,,CLR,,,,,,,,VFR,,,,,,,,,,,,SPECI,88.0
K4O4 180735Z AUTO 09007KT 4SM OVC004 02/02 A3018 RMK AO2 P0002,K4O4,2014-12-18T07:35:00Z,33.92,-94.87,2.0,2.0,90,7,,4.0,30.180119,,,TRUE,TRUE,,,,,,,OVC,400,,,,,,,LIFR,,,,,,0.02,,,,,,SPECI,144.0
K4A9 180735Z AUTO 00000KT 10SM CLR 01/M01 A3018 RMK AO2,K4A9,2014-12-18T07:35:00Z,34.47,-85.72,1.0,-1.0,0,0,,10.0,30.180119,,,TRUE,TRUE,,,,,,,CLR,,,,,,,,VFR,,,,,,,,,,,,SPECI,267.0
K3R7 180735Z AUTO 09004KT 10SM BKN034 OVC046 10/08 A3016 RMK AO2 T01030075,K3R7,2014-12-18T07:35:00Z,30.25,-92.67,10.3,7.5,90,4,,10.0,30.159449,,,TRUE,TRUE,,,,,,,BKN,3400,OVC,4600,,,,,VFR,,,,,,,,,,,,SPECI,7.0
K3LF 180735Z AUTO 06006KT 10SM OVC100 M04/M06 A3028 RMK AO2 T10411065,K3LF,2014-12-18T07:35:00Z,39.17,-89.67,-4.1,-6.5,60,6,,10.0,30.280512,,,TRUE,TRUE,,,,,,,OVC,10000,,,,,,,VFR,,,,,,,,,,,,SPECI,210.0
K3I2 180735Z AUTO 30006KT 10SM OVC022 00/M05 A3029 RMK AO2,K3I2,2014-12-18T07:35:00Z,38.92,-82.1,0.0,-5.0,300,6,,10.0,30.28937,,,TRUE,TRUE,,,,,,,OVC,2200,,,,,,,MVFR,,,,,,,,,,,,SPECI,196.0
K36U 180735Z AUTO 00000KT 10SM SCT026 OVC060 M02/M04 A3005 RMK AO2,K36U,2014-12-18T07:35:00Z,40.48,-111.43,-2.0,-4.0,0,0,,10.0,30.050198,,,TRUE,TRUE,,,,,,,SCT,2600,OVC,6000,,,,,VFR,,,,,,,,,,,,SPECI,1718.0
K2I0 180735Z AUTO 00000KT 10SM SCT090 OVC110 00/M01 A3031 RMK AO2 T00001015,K2I0,2014-12-18T07:35:00Z,37.35,-87.4,0.0,-1.5,0,0,,10.0,30.31004,,,TRUE,TRUE,,,,,,,SCT,9000,OVC,11000,,,,,VFR,,,,,,,,,,,,SPECI,134.0
K1L0 180735Z AUTO 03003KT 10SM CLR 10/07 A3017 RMK AO2 T00950067,K1L0,2014-12-18T07:35:00Z,30.08,-90.58,9.5,6.7,30,3,,10.0,30.171259,,,TRUE,TRUE,,,,,,,CLR,,,,,,,,VFR,,,,,,,,,,,,SPECI,2.0
K1H2 180735Z AUTO 00000KT 10SM OVC013 M04/M07 A3032 RMK AO2 T10361069,K1H2,2014-12-18T07:35:00Z,39.07,-88.53,-3.6,-6.9,0,0,,10.0,30.318897,,,TRUE,TRUE,,,,,,,OVC,1300,,,,,,,MVFR,,,,,,,,,,,,SPECI,179.0
K1A6 180735Z AUTO 00000KT 7SM OVC020 M03/M03 A3024 RMK AO2 T10301034,K1A6,2014-12-18T07:35:00Z,36.62,-83.73,-3.0,-3.4,0,0,,7.0,30.239174,,,TRUE,TRUE,,,,,,,OVC,2000,,,,,,,MVFR,,,,,,,,,,,,SPECI,352.0
K1A5 180735Z AUTO 00000KT 10SM M03/M03 A3015 RMK AO2 T10291034,K1A5,2014-12-18T07:35:00Z,35.22,-83.42,-2.9,-3.4,0,0,,10.0,30.15059,,,TRUE,TRUE,,,,,,,,,,,,,,,,,,,,,,,,,,,SPECI,616.0
K19A 180735Z AUTO 00000KT 10SM CLR 03/01 A3009 RMK AO2,K19A,2014-12-18T07:35:00Z,34.18,-83.57,3.0,1.0,0,0,,10.0,30.088583,,,TRUE,TRUE,,,,,,,CLR,,,,,,,,VFR,,,,,,,,,,,,SPECI,290.0
K11R 180735Z AUTO 02005KT 10SM -RA OVC009 13/12 A3010 RMK AO2 T01270115,K11R,2014-12-18T07:35:00Z,30.22,-96.37,12.7,11.5,20,5,,10.0,30.100393,,,TRUE,TRUE,,,,,,-RA,OVC,900,,,,,,,IFR,,,,,,,,,,,,SPECI,94.0
K0E0 180735Z AUTO 26007KT 10SM OVC050 M01/M03 A3009 RMK AO2 T10151031,K0E0,2014-12-18T07:35:00Z,34.98,-106.0,-1.5,-3.1,260,7,,10.0,30.088583,,,TRUE,TRUE,,,,,,,OVC,5000,,,,,,,VFR,,,,,,,,,,,,SPECI,1890.0
KJAS 180735Z AUTO 10004KT 10SM BKN014 OVC019 11/07 A3015 RMK AO2 T01130070,KJAS,2014-12-18T07:35:00Z,30.88,-94.03,11.3,7.0,100,4,,10.0,30.15059,,,TRUE,TRUE,,,,,,,BKN,1400,OVC,1900,,,,,MVFR,,,,,,,,,,,,SPECI,65.0
KIXA 180735Z AUTO 32003KT 10SM CLR 03/00 A3010 RMK AO2,KIXA,2014-12-18T07:35:00Z,36.33,-77.63,3.0,0.0,320,3,,10.0,30.100393,,,TRUE,TRUE,,,,,,,CLR,,,,,,,,VFR,,,,,,,,,,,,SPECI,44.0
KIPJ 180735Z AUTO 00000KT 10SM CLR M01/M02 A3009 RMK AO2 T10121018,KIPJ,2014-12-18T07:35:00Z,35.48,-81.17,-1.2,-1.8,0,0,,10.0,30.088583,,,TRUE,TRUE,,,,,,,CLR,,,,,,,,VFR,,,,,,,,,,,,SPECI,267.0
KIIY 180735Z AUTO 00000KT 10SM CLR 03/03 A3009 RMK AO2,KIIY,2014-12-18T07:35:00Z,33.78,-82.82,3.0,3.0,0,0,,10.0,30.088583,,,TRUE,TRUE,,,,,,,CLR,,,,,,,,VFR,,,,,,,,,,,,SPECI,197.0
KIGQ 180735Z AUTO 29004KT 10SM OVC022 M04/M08 A3029 RMK AO2 T10381080,KIGQ,2014-12-18T07:35:00Z,41.53,-87.53,-3.8,-8.0,290,4,,10.0,30.28937,,,TRUE,TRUE,,,,,,,OVC,2200,,,,,,,MVFR,,,,,,,,,,,,SPECI,188.0
KIFA 180735Z AUTO 33003KT 10SM CLR M11/M12 A3030 RMK AO2 T11061119,KIFA,2014-12-18T07:35:00Z,42.47,-93.27,-10.6,-11.9,330,3,,10.0,30.301182,,,TRUE,TRUE,,,,,,,CLR,,,,,,,,VFR,,,,,,,,,,,,SPECI,347.0
KIBM 180735Z AUTO 30007KT 10SM SCT055 BKN070 M03/M06 A2995 RMK AO2 T10351056,KIBM,2014-12-18T07:35:00Z,41.18,-103.68,-3.5,-5.6,300,7,,10.0,29.949802,,,TRUE,TRUE,,,,,,,SCT,5500,BKN,7000,,,,,VFR,,,,,,,,,,,,SPECI,1501.0
KHZL 180735Z AUTO 28010G17KT 10SM OVC031 00/M05 A2996 RMK AO2,KHZL,2014-12-18T07:35:00Z,40.98,-76.0,0.0,-5.0,280,10,17,10.0,29.958662,,,TRUE,TRUE,,,,,,,OVC,3100,,,,,,,VFR,,,,,,,,,,,,SPECI,489.0
KHUM 180735Z AUTO 00000KT 10SM CLR 09/08 A3016 RMK AO2 T00930082,KHUM,2014-12-18T07:35:00Z,29.57,-90.67,9.3,8.2,0,0,,10.0,30.159449,,,TRUE,TRUE,,,,,,,CLR,,,,,,,,VFR,,,,,,,,,,,,SPECI,3.0
KHSB 180735Z AUTO 06004KT 10SM CLR 00/M03 A3031 RMK AO2 T10041027,KHSB,2014-12-18T07:35:00Z,37.82,-88.55,-0.4,-2.7,60,4,,10.0,30.31004,,,TRUE,TRUE,,,,,,,CLR,,,,,,,,VFR,,,,,,,,,,,,SPECI,121.0
KHQZ 180735Z AUTO 10006KT 10SM BKN005 OVC025 05/05 A3014 RMK AO1 T00500046,KHQZ,2014-12-18T07:35:00Z,32.75,-96.53,5.0,4.6,100,6,,10.0,30.138779,,,TRUE,TRUE,,,,,,,BKN,500,OVC,2500,,,,,IFR,,,,,,,,,,,,SPECI,136.0
KHNZ 180735Z AUTO 33005KT 10SM CLR 04/M04 A3009 RMK AO2 T00411038,KHNZ,2014-12-18T07:35:00Z,36.37,-78.53,4.1,-3.8,330,5,,10.0,30.088583,,,TRUE,TRUE,,,,,,,CLR,,,,,,,,VFR,,,,,,,,,,,,SPECI,161.0
KHLX 180735Z AUTO 31012KT 10SM CLR M01/M04 A3006 RMK AO2 T10081043,KHLX,2014-12-18T07:35:00Z,36.77,-80.82,-0.8,-4.3,310,12,,10.0,30.059055,,,TRUE,TRUE,,,,,,,CLR,,,,,,,,VFR,,,,,,,,,,,,SPECI,834.0
KHHF 180735Z AUTO 00000KT 1 3/4SM BR OVC005 03/03 A3004 RMK AO2 T00320030,KHHF,2014-12-18T07:35:00Z,35.9,-100.4,3.2,3.0,0,0,,1.75,30.041338,,,TRUE,TRUE,,,,,,BR,OVC,500,,,,,,,IFR,,,,,,,,,,,,SPECI,712.0
KHBI 180735Z AUTO 00000KT 10SM CLR 02/00 A3013 RMK AO2 T00191004,KHBI,2014-12-18T07:35:00Z,35.65,-79.9,1.9,-0.4,0,0,,10.0,30.129921,,,TRUE,TRUE,,,,,,,CLR,,,,,,,,VFR,,,,,,,,,,,,SPECI,205.0
KGYB 180735Z AUTO 36004KT 4SM BR OVC005 10/09 A3014 RMK AO2 T00970088,KGYB,2014-12-18T07:35:00Z,30.17,-96.98,9.7,8.8,360,4,,4.0,30.138779,,,TRUE,TRUE,,,,,,BR,OVC,500,,,,,,,IFR,,,,,,,,,,,,SPECI,148.0
KGWB 180735Z AUTO 27005KT 10SM OVC022 M02/M06 A3024 RMK AO2,KGWB,2014-12-18T07:35:00Z,41.3,-85.07,-2.0,-6.0,270,5,,10.0,30.239174,,,TRUE,TRUE,,,,,,,OVC,2200,,,,,,,MVFR,,,,,,,,,,,,SPECI,269.0
KGIC 180735Z AUTO 03005KT 10SM SCT065 OVC095 02/00 A2998 RMK AO1 T00221005,KGIC,2014-12-18T07:35:00Z,45.95,-116.12,2.2,-0.5,30,5,,10.0,29.97933,,,TRUE,TRUE,,,,,,,SCT,6500,OVC,9500,,,,,VFR,,,,,,,,,,,,SPECI,1009.0
KFYJ 180735Z AUTO 00000KT 10SM CLR 01/M02 A3012 RMK AO2 T00121025,KFYJ,2014-12-18T07:35:00Z,37.52,-76.77,1.2,-2.5,0,0,,10.0,30.121063,,,TRUE,TRUE,,,,,,,CLR,,,,,,,,VFR,,,,,,,,,,,,SPECI,7.0
KFRR 180735Z AUTO 00000KT 10SM BKN040 00/M05 A3009 RMK AO1,KFRR,2014-12-18T07:35:00Z,38.92,-78.25,0.0,-5.0,0,0,,10.0,30.088583,,,TRUE,TRUE,,,,,,,BKN,4000,,,,,,,VFR,,,,,,,,,,,,SPECI,216.0
KFET 180735Z AUTO 00000KT 10SM OVC050 M02/M06 A3023 RMK AO2 T10201060,KFET,2014-12-18T07:35:00Z,41.45,-96.52,-2.0,-6.0,0,0,,10.0,30.230314,,,TRUE,TRUE,,,,,,,OVC,5000,,,,,,,VFR,,,,,,,,,,,,SPECI,367.0
KFEP 180735Z AUTO 27003KT 10SM CLR M09/M11 A3030 RMK AO2 T10951108,KFEP,2014-12-18T07:35:00Z,42.25,-89.58,-9.5,-10.8,270,3,,10.0,30.301182,,,TRUE,TRUE,,,,,,,CLR,,,,,,,,VFR,,,,,,,,,,,,SPECI,262.0
KF05 180735Z AUTO 12006KT 3/4SM OVC001 06/03 A3008 RMK AO1 T00550033,KF05,2014-12-18T07:35:00Z,34.23,-99.28,5.5,3.3,120,6,,0.75,30.079725,,,TRUE,TRUE,,,,,,,OVC,100,,,,,,,LIFR,,,,,,,,,,,,SPECI,386.0
KEZM 180735Z AUTO 00000KT 7SM CLR 02/02 A3015 RMK AO2 T00190019,KEZM,2014-12-18T07:35:00Z,32.22,-83.13,1.9,1.9,0,0,,7.0,30.15059,,,TRUE,TRUE,,,,,,,CLR,,,,,,,,VFR,,,,,,,,,,,,SPECI,93.0
KETC 180735Z AUTO 00000KT 10SM CLR 00/00 A3010 RMK AO2 T00041001,KETC,2014-12-18T07:35:00Z,35.93,-77.55,0.4,-0.1,0,0,,10.0,30.100393,,,TRUE,TRUE,,,,,,,CLR,,,,,,,,VFR,,,,,,,,,,,,SPECI,17.0
KERV 180735Z AUTO 30003KT 1SM BR OVC001 11/11 A3009 RMK AO2 T01130107,KERV,2014-12-18T07:35:00Z,29.98,-99.08,11.3,10.7,300,3,,1.0,30.088583,,,TRUE,TRUE,,,,,,BR,OVC,100,,,,,,,LIFR,,,,,,,,,,,,SPECI,510.0
KELK 180735Z AUTO 16005KT M1/4SM FG OVC002 A3010 RMK AO2,KELK,2014-12-18T07:35:00Z,35.43,-99.4,,,160,5,,0.25,30.100393,,,TRUE,TRUE,,,,,,FG,OVC,200,,,,,,,LIFR,,,,,,,,,,,,SPECI,610.0
KEDN 180735Z AUTO 36004KT 10SM CLR 05/03 A3018 RMK AO2,KEDN,2014-12-18T07:35:00Z,31.3,-85.9,5.0,3.0,360,4,,10.0,30.180119,,,TRUE,TRUE,,,,,,,CLR,,,,,,,,VFR,,,,,,,,,,,,SPECI,110.0
KE38 180735Z AUTO 21006KT 10SM CLR 02/M03 A3019 RMK AO2 T00171032,KE38,2014-12-18T07:35:00Z,30.38,-103.68,1.7,-3.2,210,6,,10.0,30.188976,,,TRUE,TRUE,,,,,,,CLR,,,,,,,,VFR,,,,,,,,,,,,SPECI,1376.0
KDVO 180735Z AUTO 14004KT 6SM BR OVC017 10/10 A3008 RMK AO2,KDVO,2014-12-18T07:35:00Z,38.15,-122.55,10.0,10.0,140,4,,6.0,30.079725,,,TRUE,TRUE,,,,,,BR,OVC,1700,,,,,,,MVFR,,,,,,,,,,,,SPECI,1.0
KDUX 180735Z AUTO 35005KT 10SM OVC005 02/01 A2999 RMK AO2 T00200009,KDUX,2014-12-18T07:35:00Z,35.85,-102.02,2.0,0.9,350,5,,10.0,29.991142,,,TRUE,TRUE,,,,,,,OVC,500,,,,,,,IFR,,,,,,,,,,,,SPECI,1129.0
KDUC 180735Z AUTO 13009KT OVC001 03/03 A3010 RMK AO2 PWINO,KDUC,2014-12-18T07:35:00Z,34.47,-97.97,3.0,3.0,130,9,,,30.100393,,,TRUE,TRUE,,,,,TRUE,,OVC,100,,,,,,,,,,,,,,,,,,,SPECI,339.0
KDKB 180735Z AUTO 31005KT 10SM OVC017 M06/M10 A3028 RMK AO2 T10651097,KDKB,2014-12-18T07:35:00Z,41.93,-88.7,-6.5,-9.7,310,5,,10.0,30.280512,,,TRUE,TRUE,,,,,,,OVC,1700,,,,,,,MVFR,,,,,,,,,,,,SPECI,279.0
KDBN 180735Z AUTO 00000KT 5SM BR CLR 00/00 A3014 RMK AO2,KDBN,2014-12-18T07:35:00Z,32.57,-82.98,0.0,0.0,0,0,,5.0,30.138779,,,TRUE,TRUE,,,,,,BR,CLR,,,,,,,,MVFR,,,,,,,,,,,,SPECI,94.0
KCZT 180735Z AUTO 00000KT 2 1/2SM BR OVC007 12/12 A3006 RMK AO2,KCZT,2014-12-18T07:35:00Z,28.52,-99.82,12.0,12.0,0,0,,2.5,30.059055,,,TRUE,TRUE,,,,,,BR,OVC,700,,,,,,,IFR,,,,,,,,,,,,SPECI,183.0
KCWF 180735Z AUTO 08005KT 10SM BKN110 10/08 A3015 RMK AO2 T01060081,KCWF,2014-12-18T07:35:00Z,30.22,-93.15,10.6,8.1,80,5,,10.0,30.15059,,,TRUE,TRUE,,,,,,,BKN,11000,,,,,,,VFR,,,,,,,,,,,,SPECI,4.0
KCUH 180735Z AUTO 12003KT 4SM BR OVC003 02/02 A3014 RMK AO2,KCUH,2014-12-18T07:35:00Z,35.95,-96.77,2.0,2.0,120,3,,4.0,30.138779,,,TRUE,TRUE,,,,,,BR,OVC,300,,,,,,,LIFR,,,,,,,,,,,,SPECI,279.0
KCTJ 180735Z AUTO 35005KT 10SM CLR 03/01 A3019 RMK AO2,KCTJ,2014-12-18T07:35:00Z,33.63,-85.15,3.0,1.0,350,5,,10.0,30.188976,,,TRUE,TRUE,,,,,,,CLR,,,,,,,,VFR,,,,,,,,,,,,SPECI,354.0
KTKV 180735Z AUTO 00000KT 10SM OVC010 M06/M08 A3026 RMK AO2 T10581076,KTKV,2014-12-18T07:35:00Z,45.47,-89.82,-5.8,-7.6,0,0,,10.0,30.259842,,,TRUE,TRUE,,,,,,,OVC,1000,,,,,,,MVFR,,,,,,,,,,,,SPECI,453.0
KT20 180735Z AUTO 04003KT 7SM TS OVC006 16/15 A3006 RMK AO2 T01600152,KT20,2014-12-18T07:35:00Z,29.52,-97.47,16.0,15.2,40,3,,7.0,30.059055,,,TRUE,TRUE,,,,,,TS,OVC,600,,,,,,,IFR,,,,,,,,,,,,SPECI,108.0
KSUT 180735Z AUTO 00000KT 10SM CLR 05/04 A3008 RMK AO2 T00490039,KSUT,2014-12-18T07:35:00Z,33.93,-78.08,4.9,3.9,0,0,,10.0,30.079725,,,TRUE,TRUE,,,,,,,CLR,,,,,,,,VFR,,,,,,,,,,,,SPECI,8.0
KSUN 180735Z AUTO 32007KT 10SM CLR M03/M06 A3005 RMK AO2,KSUN,2014-12-18T07:35:00Z,43.5,-114.28,-3.0,-6.0,320,7,,10.0,30.050198,,,TRUE,TRUE,,,,,,,CLR,,,,,,,,VFR,,,,,,,,,,,,SPECI,1620.0
KSNL 180735Z AUTO 18003KT 3SM BR OVC004 05/05 A3014 RMK AO2,KSNL,2014-12-18T07:35:00Z,35.35,-96.95,5.0,5.0,180,3,,3.0,30.138779,,,TRUE,TRUE,,,,,,BR,OVC,400,,,,,,,LIFR,,,,,,,,,,,,SPECI,327.0
KSLO 180735Z AUTO 00000KT 7SM OVC011 M01/M04 A3031 RMK AO2 T10141040,KSLO,2014-12-18T07:35:00Z,38.65,-88.97,-1.4,-4.0,0,0,,7.0,30.31004,,,TRUE,TRUE,,,,,,,OVC,1100,,,,,,,MVFR,,,,,,,,,,,,SPECI,175.0
KSFY 180735Z AUTO 00000KT 7SM CLR M08/M10 A3029 RMK AO2 T10851096,KSFY,2014-12-18T07:35:00Z,42.05,-90.12,-8.5,-9.6,0,0,,7.0,30.28937,,,TRUE,TRUE,,,,,,,CLR,,,,,,,,VFR,,,,,,,,,,,,SPECI,188.0
KSDA 180735Z AUTO 10005KT 10SM OVC055 M02/M05 A3025 RMK AO2,KSDA,2014-12-18T07:35:00Z,40.75,-95.42,-2.0,-5.0,100,5,,10.0,30.250984,,,TRUE,TRUE,,,,,,,OVC,5500,,,,,,,VFR,,,,,,,,,,,,SPECI,296.0
KSBO 180735Z AUTO 00000KT 10SM CLR 03/03 A3013 RMK AO2,KSBO,2014-12-18T07:35:00Z,32.62,-82.37,3.0,3.0,0,0,,10.0,30.129921,,,TRUE,TRUE,,,,,,,CLR,,,,,,,,VFR,,,,,,,,,,,,SPECI,100.0
KSAA 180735Z AUTO 17005KT 10SM BKN045 M10/M12 A3001 RMK AO2,KSAA,2014-12-18T07:35:00Z,41.45,-106.83,-10.0,-12.0,170,5,,10.0,30.008858,,,TRUE,TRUE,,,,,,,BKN,4500,,,,,,,VFR,,,,,,,,,,,,SPECI,2138.0
KRYW 180735Z AUTO 05004KT 1/4SM DZ OVC003 10/09 A3010 RMK AO2 T00950086,KRYW,2014-12-18T07:35:00Z,30.5,-97.97,9.5,8.6,50,4,,0.25,30.100393,,,TRUE,TRUE,,,,,,DZ,OVC,300,,,,,,,LIFR,,,,,,,,,,,,SPECI,376.0
KRSN 180735Z AUTO 03005KT 10SM OVC041 07/05 A3025 RMK AO2 T00700053,KRSN,2014-12-18T07:35:00Z,32.52,-92.58,7.0,5.3,30,5,,10.0,30.250984,,,TRUE,TRUE,,,,,,,OVC,4100,,,,,,,VFR,,,,,,,,,,,,SPECI,95.0
KRPJ 180735Z AUTO 01007KT 10SM OVC016 M06/M08 A3029 RMK AO2 T10591085,KRPJ,2014-12-18T07:35:00Z,41.88,-89.08,-5.9,-8.5,10,7,,10.0,30.28937,,,TRUE,TRUE,,,,,,,OVC,1600,,,,,,,MVFR,,,,,,,,,,,,SPECI,238.0
KRKR 180735Z AUTO 00000KT 10SM SCT025 OVC036 03/01 A3018 RMK AO2 T00330010,KRKR,2014-12-18T07:35:00Z,35.02,-94.62,3.3,1.0,0,0,,10.0,30.180119,,,TRUE,TRUE,,,,,,,SCT,2500,OVC,3600,,,,,VFR,,,,,,,,,,,,SPECI,138.0
KRFI 180735Z AUTO 09005KT 10SM OVC005 07/07 A3015 RMK AO2 T00700068,KRFI,2014-12-18T07:35:00Z,32.15,-94.85,7.0,6.8,90,5,,10.0,30.15059,,,TRUE,TRUE,,,,,,,OVC,500,,,,,,,IFR,,,,,,,,,,,,SPECI,135.0
KRCZ 180735Z AUTO 00000KT 10SM CLR 03/02 A3008 RMK AO2 T00250020,KRCZ,2014-12-18T07:35:00Z,34.88,-79.77,2.5,2.0,0,0,,10.0,30.079725,,,TRUE,TRUE,,,,,,,CLR,,,,,,,,VFR,,,,,,,,,,,,SPECI,109.0
KPTS 180735Z AUTO 05003KT 4SM BR OVC004 01/01 A3018 RMK AO2 T00060007,KPTS,2014-12-18T07:35:00Z,37.45,-94.73,0.6,0.7,50,3,,4.0,30.180119,,,TRUE,TRUE,,,,,,BR,OVC,400,,,,,,,LIFR,,,,,,,,,,,,SPECI,290.0
KPMV 180735Z AUTO 09003KT 10SM OVC060 M02/M06 A3022 RMK AO2 T10251061,KPMV,2014-12-18T07:35:00Z,40.95,-95.92,-2.5,-6.1,90,3,,10.0,30.221457,,,TRUE,TRUE,,,,,,,OVC,6000,,,,,,,VFR,,,,,,,,,,,,SPECI,367.0
KOPN 180735Z AUTO 34005KT 10SM CLR 05/02 A3013 RMK AO2,KOPN,2014-12-18T07:35:00Z,32.95,-84.27,5.0,2.0,340,5,,10.0,30.129921,,,TRUE,TRUE,,,,,,,CLR,,,,,,,,VFR,,,,,,,,,,,,SPECI,243.0
KOPL 180735Z AUTO 12003KT 10SM SCT120 10/05 A3017 RMK AO2 T00950052,KOPL,2014-12-18T07:35:00Z,30.55,-92.1,9.5,5.2,120,3,,10.0,30.171259,,,TRUE,TRUE,,,,,,,SCT,12000,,,,,,,VFR,,,,,,,,,,,,SPECI,23.0
KONX 180735Z AUTO 35007KT 10SM CLR 06/01 A3007 RMK AO2 T00570006,KONX,2014-12-18T07:35:00Z,36.4,-76.02,5.7,0.6,350,7,,10.0,30.070866,,,TRUE,TRUE,,,,,,,CLR,,,,,,,,VFR,,,,,,,,,,,,SPECI,5.0
KONM 180735Z AUTO 21004KT 10SM CLR 00/M01 A3012 RMK AO2 T00001015,KONM,2014-12-18T07:35:00Z,34.02,-106.9,0.0,-1.5,210,4,,10.0,30.121063,,,TRUE,TRUE,,,,,,,CLR,,,,,,,,VFR,,,,,,,,,,,,SPECI,1410.0
KOLG 180735Z AUTO 00000KT 10SM OVC016 M06/M08 A3030 RMK AO1,KOLG,2014-12-18T07:35:00Z,46.3,-91.82,-6.0,-8.0,0,0,,10.0,30.301182,,,TRUE,TRUE,,,,,,,OVC,1600,,,,,,,MVFR,,,,,,,,,,,,SPECI,336.0
KOKV 180735Z AUTO 29012G17KT 10SM OVC041 02/M08 A3009 RMK AO2,KOKV,2014-12-18T07:35:00Z,39.13,-78.15,2.0,-8.0,290,12,17,10.0,30.088583,,,TRUE,TRUE,,,,,,,OVC,4100,,,,,,,VFR,,,,,,,,,,,,SPECI,222.0
KOCW 180735Z AUTO 00000KT 10SM CLR 04/02 A3009 RMK AO2 T00350024,KOCW,2014-12-18T07:35:00Z,35.57,-77.05,3.5,2.4,0,0,,10.0,30.088583,,,TRUE,TRUE,,,,,,,CLR,,,,,,,,VFR,,,,,,,,,,,,SPECI,12.0
KMWO 180735Z AUTO 28003KT 10SM OVC032 M01/M06 A3030 RMK AO2 T10151060,KMWO,2014-12-18T07:35:00Z,39.53,-84.4,-1.5,-6.0,280,3,,10.0,30.301182,,,TRUE,TRUE,,,,,,,OVC,3200,,,,,,,VFR,,,,,,,,,,,,SPECI,198.0
KMQI 180735Z AUTO 31005KT 10SM CLR 08/04 A3006 RMK AO2 T00750038,KMQI,2014-12-18T07:35:00Z,35.92,-75.7,7.5,3.8,310,5,,10.0,30.059055,,,TRUE,TRUE,,,,,,,CLR,,,,,,,,VFR,,,,,,,,,,,,SPECI,4.0
KMMU 180735Z AUTO 27003KT 10SM 05/M03 A2992 RMK AO2,KMMU,2014-12-18T07:35:00Z,40.78,-74.42,5.0,-3.0,270,3,,10.0,29.920275,,,TRUE,TRUE,,,,,,,,,,,,,,,,,,,,,,,,,,,SPECI,57.0
KMDQ 180735Z AUTO 35004KT 10SM SCT100 01/M01 A3023 RMK AO2,KMDQ,2014-12-18T07:35:00Z,34.87,-86.55,1.0,-1.0,350,4,,10.0,30.230314,,,TRUE,TRUE,,,,,,,SCT,10000,,,,,,,VFR,,,,,,,,,,,,SPECI,230.0
KLUA 180735Z AUTO 00000KT 10SM BKN041 01/M04 A3009 RMK AO2,KLUA,2014-12-18T07:35:00Z,38.67,-78.5,1.0,-4.0,0,0,,10.0,30.088583,,,TRUE,TRUE,,,,,,,BKN,4100,,,,,,,VFR,,,,,,,,,,,,SPECI,275.0
KLSB 180735Z AUTO 00000KT 10SM DZ BKN034 BKN042 OVC049 04/03 A3016 RMK AO2,KLSB,2014-12-18T07:35:00Z,32.33,-108.7,4.0,3.0,0,0,,10.0,30.159449,,,TRUE,TRUE,,,,,,DZ,BKN,3400,BKN,4200,OVC,4900,,,VFR,,,,,,,,,,,,SPECI,1307.0
KLOM 180735Z AUTO 29006KT 10SM BKN060 02/M05 A2998 RMK AO1,KLOM,2014-12-18T07:35:00Z,40.13,-75.27,2.0,-5.0,290,6,,10.0,29.97933,,,TRUE,TRUE,,,,,,,BKN,6000,,,,,,,VFR,,,,,,,,,,,,SPECI,92.0
KLGC 180735Z AUTO 00000KT 7SM CLR 03/03 A3014 RMK AO2 T00340026,KLGC,2014-12-18T07:35:00Z,33.0,-85.07,3.4,2.6,0,0,,7.0,30.138779,,,TRUE,TRUE,,,,,,,CLR,,,,,,,,VFR,,,,,,,,,,,,SPECI,211.0
KLAL 180735Z AUTO 00000KT 10SM CLR 07/06 A3015 RMK AO2,KLAL,2014-12-18T07:35:00Z,27.97,-82.02,7.0,6.0,0,0,,10.0,30.15059,,,TRUE,TRUE,,,,,,,CLR,,,,,,,,VFR,,,,,,,,,,,,SPECI,43.0
KJYL 180735Z AUTO 00000KT 10SM CLR 03/03 A3013 RMK AO2 T00310031,KJYL,2014-12-18T07:35:00Z,32.65,-81.6,3.1,3.1,0,0,,10.0,30.129921,,,TRUE,TRUE,,,,,,,CLR,,,,,,,,VFR,,,,,,,,,,,,SPECI,57.0
KJFZ 180735Z AUTO 33005KT 10SM OVC011 M02/M05 A3013 RMK AO2 T10201048,KJFZ,2014-12-18T07:35:00Z,37.07,-81.8,-2.0,-4.8,330,5,,10.0,30.129921,,,TRUE,TRUE,,,,,,,OVC,1100,,,,,,,MVFR,,,,,,,,,,,,SPECI,809.0
CWHN 180735Z AUTO 22004KT 180V290 9SM OVC002 M08/M10 A2983 RMK ICG,CWHN,2014-12-18T07:35:00Z,54.88,-109.97,-8.0,-10.0,220,4,,9.0,29.828741,,,TRUE,,,,,,,,OVC,200,,,,,,,LIFR,,,,,,,,,,,,SPECI,636.0
KCKM 180735Z AUTO 36010KT 10SM FEW042 OVC075 04/03 A3029 RMK AO1,KCKM,2014-12-18T07:35:00Z,34.3,-90.52,4.0,3.0,360,10,,10.0,30.28937,,,TRUE,TRUE,,,,,,,FEW,4200,OVC,7500,,,,,VFR,,,,,,,,,,,,SPECI,53.0
KCKF 180735Z AUTO 00000KT 10SM CLR 06/04 A3015 RMK AO2 T00560040,KCKF,2014-12-18T07:35:00Z,31.98,-83.77,5.6,4.0,0,0,,10.0,30.15059,,,TRUE,TRUE,,,,,,,CLR,,,,,,,,VFR,,,,,,,,,,,,SPECI,91.0
KCDA 180735Z AUTO 00000KT 2SM -SN SCT004 OVC009 01/00 A2970 RMK AO2 T00071001,KCDA,2014-12-18T07:35:00Z,44.57,-72.02,0.7,-0.1,0,0,,2.0,29.698818,,,TRUE,TRUE,,,,,,-SN,SCT,400,OVC,900,,,,,IFR,,,,,,,,,,,,SPECI,363.0
KCCY 180735Z AUTO 00000KT 10SM CLR M09/M10 A3030 RMK AO2,KCCY,2014-12-18T07:35:00Z,43.07,-92.62,-9.0,-10.0,0,0,,10.0,30.301182,,,TRUE,TRUE,,,,,,,CLR,,,,,,,,VFR,,,,,,,,,,,,SPECI,343.0
KCCO 180735Z AUTO 34005KT 10SM CLR 04/03 A3013 RMK AO2 T00410025,KCCO,2014-12-18T07:35:00Z,33.32,-84.77,4.1,2.5,340,5,,10.0,30.129921,,,TRUE,TRUE,,,,,,,CLR,,,,,,,,VFR,,,,,,,,,,,,SPECI,296.0
KBXK 180735Z AUTO 35003KT 10SM SCT039 07/07 A3013 RMK AO1,KBXK,2014-12-18T07:35:00Z,33.42,-112.68,7.0,7.0,350,3,,10.0,30.129921,,,TRUE,TRUE,,,,,,,SCT,3900,,,,,,,VFR,,,,,,,,,,,,SPECI,315.0
KBXA 180735Z AUTO 36003KT 10SM 05/04 A3020 RMK AO2 T00540039,KBXA,2014-12-18T07:35:00Z,30.82,-89.87,5.4,3.9,360,3,,10.0,30.200787,,,TRUE,TRUE,,,,,,,,,,,,,,,,,,,,,,,,,,,SPECI,36.0
KBVS 180735Z AUTO 12003KT 9SM FEW001 SCT020 BKN039 07/06 A2993 RMK A01 P003,KBVS,2014-12-18T07:35:00Z,48.47,-122.42,7.0,6.0,120,3,,9.0,29.929134,,,TRUE,TRUE,,,,,,,FEW,100,SCT,2000,BKN,3900,,,VFR,,,,,,,,,,,,SPECI,43.0
KBHC 180735Z AUTO 00000KT 10SM CLR 05/04 A3013 RMK AO2,KBHC,2014-12-18T07:35:00Z,31.72,-82.4,5.0,4.0,0,0,,10.0,30.129921,,,TRUE,TRUE,,,,,,,CLR,,,,,,,,VFR,,,,,,,,,,,,SPECI,61.0
KBEA 180735Z AUTO 10003KT 10SM BKN019 BKN027 OVC034 19/19 A3003 RMK AO2 T01900190,KBEA,2014-12-18T07:35:00Z,28.37,-97.78,19.0,19.0,100,3,,10.0,30.029528,,,TRUE,TRUE,,,,,,,BKN,1900,BKN,2700,OVC,3400,,,MVFR,,,,,,,,,,,,SPECI,82.0
KBBF 180735Z AUTO 19011KT 8SM OVC048 23/19 A3005 RMK A01,KBBF,2014-12-18T07:35:00Z,27.83,-96.02,23.0,19.0,190,11,,8.0,30.050198,,,TRUE,TRUE,,,,,,,OVC,4800,,,,,,,VFR,,,,,,,,,,,,SPECI,36.0
KBAC 180735Z AUTO 18004KT 10SM CLR M15/M15 A3024 RMK AO2,KBAC,2014-12-18T07:35:00Z,46.93,-98.02,-15.0,-15.0,180,4,,10.0,30.239174,,,TRUE,TRUE,,,,,,,CLR,,,,,,,,VFR,,,,,,,,,,,,SPECI,684.0
KAVK 180735Z AUTO 08007KT 1/4SM -RA OVC002 00/00 A3012 RMK AO2,KAVK,2014-12-18T07:35:00Z,36.77,-98.67,0.0,0.0,80,7,,0.25,30.121063,,,TRUE,TRUE,,,,,,-RA,OVC,200,,,,,,,LIFR,,,,,,,,,,,,SPECI,449.0
KATP 180735Z AUTO 13011KT 10SM CLR 21/16 A3012 RMK A01,KATP,2014-12-18T07:35:00Z,27.2,-90.03,21.0,16.0,130,11,,10.0,30.121063,,,TRUE,TRUE,,,,,,,CLR,,,,,,,,VFR,,,,,,,,,,,,SPECI,62.0
KASW 180735Z AUTO 28006KT 10SM OVC020 M03/M06 A3025 RMK AO2,KASW,2014-12-18T07:35:00Z,41.27,-85.83,-3.0,-6.0,280,6,,10.0,30.250984,,,TRUE,TRUE,,,,,,,OVC,2000,,,,,,,MVFR,,,,,,,,,,,,SPECI,259.0
KASN 180735Z AUTO 00000KT 5SM BR CLR 01/00 A3019 RMK AO2 T00130002,KASN,2014-12-18T07:35:00Z,33.57,-86.05,1.3,0.2,0,0,,5.0,30.188976,,,TRUE,TRUE,,,,,,BR,CLR,,,,,,,,MVFR,,,,,,,,,,,,SPECI,162.0
KALN 180735Z AUTO 05005KT 10SM SCT011 BKN100 OVC120 M02/M05 A3029 RMK AO2 T10201046,KALN,2014-12-18T07:35:00Z,38.88,-90.03,-2.0,-4.6,50,5,,10.0,30.28937,,,TRUE,TRUE,,,,,,,SCT,1100,BKN,10000,OVC,12000,,,VFR,,,,,,,,,,,,SPECI,166.0
KAJZ 180735Z AUTO 00000KT 4SM BR OVC008 03/02 A3006 RMK AO2 T00280022,KAJZ,2014-12-18T07:35:00Z,38.78,-108.07,2.8,2.2,0,0,,4.0,30.059055,,,TRUE,TRUE,,,,,,BR,OVC,800,,,,,,,IFR,,,,,,,,,,,,SPECI,1583.0
KAEJ 180735Z AUTO 26005KT 10SM CLR M08/M10 A3000 RMK AO2 T10811097,KAEJ,2014-12-18T07:35:00Z,38.82,-106.12,-8.1,-9.7,260,5,,10.0,30.0,,,TRUE,TRUE,,,,,,,CLR,,,,,,,,VFR,,,,,,,,,,,,SPECI,2422.0
KAAA 180735Z AUTO 00000KT 10SM CLR M05/M06 A3032 RMK AO2 T10461061,KAAA,2014-12-18T07:35:00Z,40.17,-89.33,-4.6,-6.1,0,0,,10.0,30.318897,,,TRUE,TRUE,,,,,,,CLR,,,,,,,,VFR,,,,,,,,,,,,SPECI,182.0
K8W2 180735Z AUTO 00000KT 10SM BKN041 M02/M06 A3009 RMK AO1 T10191056,K8W2,2014-12-18T07:35:00Z,37.97,-77.75,-1.9,-5.6,0,0,,10.0,30.088583,,,TRUE,TRUE,,,,,,,BKN,4100,,,,,,,VFR,,,,,,,,,,,,SPECI,106.0
K7L2 180735Z AUTO 16013KT 10SM OVC012 M09/M10 A3015 RMK AO2,K7L2,2014-12-18T07:35:00Z,46.22,-100.25,-9.0,-10.0,160,13,,10.0,30.15059,,,TRUE,TRUE,,,,,,,OVC,1200,,,,,,,MVFR,,,,,,,,,,,,SPECI,543.0
K6I2 180735Z AUTO 5SM BR FEW014 M03/M04 A3027 RMK AO2,K6I2,2014-12-18T07:35:00Z,37.63,-85.25,-3.0,-4.0,,,,5.0,30.268702,,,TRUE,TRUE,,,,,,BR,FEW,1400,,,,,,,MVFR,,,,,,,,,,,,METAR,264.0
K65S 180735Z AUTO 00000KT 4SM BR OVC006 00/00 A2997 RMK AO2,K65S,2014-12-18T07:35:00Z,48.73,-116.3,0.0,0.0,0,0,,4.0,29.970472,,,TRUE,TRUE,,,,,,BR,OVC,600,,,,,,,IFR,,,,,,,,,,,,SPECI,713.0
K5M9 180735Z AUTO 06003KT 7SM -SN BKN080 OVC090 M01/M03 A3029 RMK AO2 T10061026,K5M9,2014-12-18T07:35:00Z,37.33,-88.12,-0.6,-2.6,60,3,,7.0,30.28937,,,TRUE,TRUE,,,,,,-SN,BKN,8000,OVC,9000,,,,,VFR,,,,,,,,,,,,SPECI,199.0
K40J 180735Z AUTO 00000KT 1 1/2SM BR VV007 04/04 A3017 RMK AO2 T00400040,K40J,2014-12-18T07:35:00Z,30.07,-83.57,4.0,4.0,0,0,,1.5,30.171259,,,TRUE,TRUE,,,,,,BR,OVX,0,,,,,,,LIFR,,,,,,,,,,,700,SPECI,13.0
K3J7 180735Z AUTO 27003KT 10SM CLR 05/03 A3006 RMK AO2,K3J7,2014-12-18T07:35:00Z,33.6,-83.13,5.0,3.0,270,3,,10.0,30.059055,,,TRUE,TRUE,,,,,,,CLR,,,,,,,,VFR,,,,,,,,,,,,SPECI,206.0
K3D2 180735Z AUTO 36006KT 10SM OVC016 M02/M05 A3021 RMK AO2 T10251055,K3D2,2014-12-18T07:35:00Z,45.13,-87.18,-2.5,-5.5,360,6,,10.0,30.209646,,,TRUE,TRUE,,,,,,,OVC,1600,,,,,,,MVFR,,,,,,,,,,,,METAR,234.0
K2C8 180735Z AUTO 00000KT 9SM CLR M15/M17 A3029 RMK AO2,K2C8,2014-12-18T07:35:00Z,48.78,-97.63,-15.0,-17.0,0,0,,9.0,30.28937,,,TRUE,TRUE,,,,,,,CLR,,,,,,,,VFR,,,,,,,,,,,,SPECI,272.0
K1K1 180735Z AUTO 10005KT 1 3/4SM -SN SCT005 OVC019 M02/M02 A3015 RMK AO2 T10161020,K1K1,2014-12-18T07:35:00Z,37.77,-97.12,-1.6,-2.0,100,5,,1.75,30.15059,,,TRUE,TRUE,,,,,,-SN,SCT,500,OVC,1900,,,,,IFR,,,,,,,,,,,,SPECI,416.0
K1II 180735Z AUTO 10SM OVC016 M03/M06 A3030 RMK AO2,K1II,2014-12-18T07:35:00Z,39.33,-86.03,-3.0,-6.0,,,,10.0,30.301182,,,TRUE,TRUE,,,,,,,OVC,1600,,,,,,,MVFR,,,,,,,,,,,,SPECI,214.0
K1A9 180735Z AUTO 00000KT 10SM CLR 02/02 A3018 RMK AO2 T00230017,K1A9,2014-12-18T07:35:00Z,32.43,-86.52,2.3,1.7,0,0,,10.0,30.180119,,,TRUE,TRUE,,,,,,,CLR,,,,,,,,VFR,,,,,,,,,,,,SPECI,69.0
KSCD 180735Z AUTO 00000KT 10SM CLR 02/02 A3018 RMK AO2 T00170017,KSCD,2014-12-18T07:35:00Z,33.17,-86.3,1.7,1.7,0,0,,10.0,30.180119,,,TRUE,TRUE,,,,,,,CLR,,,,,,,,VFR,,,,,,,,,,,,SPECI,173.0
KSAR 180735Z AUTO 07004KT 10SM BKN085 OVC090 M01/M03 A3029 RMK AO2 T10071026,KSAR,2014-12-18T07:35:00Z,38.15,-89.7,-0.7,-2.6,70,4,,10.0,30.28937,,,TRUE,TRUE,,,,,,,BKN,8500,OVC,9000,,,,,VFR,,,,,,,,,,,,SPECI,164.0
KS39 180735Z AUTO 00000KT 10SM CLR M00/M01 A2996 RMK AO2,KS39,2014-12-18T07:35:00Z,44.28,-120.9,0.0,-1.0,0,0,,10.0,29.958662,,,TRUE,TRUE,,,,,,,CLR,,,,,,,,VFR,,,,,,,,,,,,SPECI,991.0
KRTS 180735Z AUTO 30005KT 10SM BKN070 02/M03 A3004 RMK AO2,KRTS,2014-12-18T07:35:00Z,39.67,-119.88,2.0,-3.0,300,5,,10.0,30.041338,,,TRUE,TRUE,,,,,,,BKN,7000,,,,,,,VFR,,,,,,,,,,,,SPECI,1540.0
KRSV 180735Z AUTO 03004KT 10SM OVC014 M04/M06 A3033 RMK AO2 T10361060,KRSV,2014-12-18T07:35:00Z,39.02,-87.65,-3.6,-6.0,30,4,,10.0,30.33071,,,TRUE,TRUE,,,,,,,OVC,1400,,,,,,,MVFR,,,,,,,,,,,,SPECI,141.0
KRNC 180735Z AUTO 00000KT 10SM OVC100 00/M01 A3022 RMK,KRNC,2014-12-18T07:35:00Z,35.7,-85.85,0.0,-1.0,0,0,,10.0,30.221457,,,TRUE,,,,,,,,OVC,10000,,,,,,,VFR,,,,,,,,,,,,METAR,315.0
KRCX 180735Z AUTO 34005KT 10SM OVC012 M06/M07 A3029 RMK AO2 T10571075,KRCX,2014-12-18T07:35:00Z,45.5,-91.0,-5.7,-7.5,340,5,,10.0,30.28937,,,TRUE,TRUE,,,,,,,OVC,1200,,,,,,,MVFR,,,,,,,,,,,,SPECI,377.0
KPUJ 180735Z AUTO 32009KT 10SM CLR 03/02 A3015 RMK AO2,KPUJ,2014-12-18T07:35:00Z,33.92,-84.93,3.0,2.0,320,9,,10.0,30.15059,,,TRUE,TRUE,,,,,,,CLR,,,,,,,,VFR,,,,,,,,,,,,SPECI,393.0
KPSN 180735Z AUTO 34005KT 10SM OVC018 08/07 A3015 RMK AO2 T00820076,KPSN,2014-12-18T07:35:00Z,31.78,-95.7,8.2,7.6,340,5,,10.0,30.15059,,,TRUE,TRUE,,,,,,,OVC,1800,,,,,,,MVFR,,,,,,,,,,,,SPECI,129.0
KPRO 180735Z AUTO 00000KT 10SM OVC085 M06/M07 A3029 RMK AO2 T10571068,KPRO,2014-12-18T07:35:00Z,41.83,-94.17,-5.7,-6.8,0,0,,10.0,30.28937,,,TRUE,TRUE,,,,,,,OVC,8500,,,,,,,VFR,,,,,,,,,,,,SPECI,308.0
KPKV 180735Z AUTO 14003KT 7SM SCT022 BKN055 OVC065 19/18 A3005 RMK AO2 T01850180,KPKV,2014-12-18T07:35:00Z,28.65,-96.68,18.5,18.0,140,3,,7.0,30.050198,,,TRUE,TRUE,,,,,,,SCT,2200,BKN,5500,OVC,6500,,,VFR,,,,,,,,,,,,SPECI,9.0
KPEZ 180735Z AUTO 00000KT 10SM BKN011 14/13 A3005 RMK AO2 T01370126,KPEZ,2014-12-18T07:35:00Z,28.95,-98.52,13.7,12.6,0,0,,10.0,30.050198,,,TRUE,TRUE,,,,,,,BKN,1100,,,,,,,MVFR,,,,,,,,,,,,SPECI,132.0
KPCZ 180735Z AUTO 29004KT 10SM OVC018 M04/M08 A3028 RMK AO2 T10411078,KPCZ,2014-12-18T07:35:00Z,44.33,-89.02,-4.1,-7.8,290,4,,10.0,30.280512,,,TRUE,TRUE,,,,,,,OVC,1800,,,,,,,MVFR,,,,,,,,,,,,SPECI,252.0
KOXI 180735Z AUTO 28004KT 10SM OVC023 M03/M07 A3027 RMK AO1 T10351071,KOXI,2014-12-18T07:35:00Z,41.33,-86.67,-3.5,-7.1,280,4,,10.0,30.268702,,,TRUE,TRUE,,,,,,,OVC,2300,,,,,,,MVFR,,,,,,,,,,,,SPECI,209.0
KOWP 180735Z AUTO 10004KT 7SM OVC008 04/02 A3016 RMK AO2 T00360023,KOWP,2014-12-18T07:35:00Z,36.18,-96.15,3.6,2.3,100,4,,7.0,30.159449,,,TRUE,TRUE,,,,,,,OVC,800,,,,,,,IFR,,,,,,,,,,,,SPECI,272.0
KORG 180735Z AUTO 06004KT 10SM OVC110 13/11 A3013 RMK AO2 T01340110,KORG,2014-12-18T07:35:00Z,30.07,-93.8,13.4,11.0,60,4,,10.0,30.129921,,,TRUE,TRUE,,,,,,,OVC,11000,,,,,,,VFR,,,,,,,,,,,,SPECI,4.0
KONP 180735Z AUTO 13005KT 7SM SCT003 BKN016 OVC028 08/08 A2999 RMK AO2,KONP,2014-12-18T07:35:00Z,44.57,-124.03,8.0,8.0,130,5,,7.0,29.991142,,,TRUE,TRUE,,,,,,,SCT,300,BKN,1600,OVC,2800,,,MVFR,,,,,,,,,,,,SPECI,48.0
KOLE 180735Z AUTO 28006KT 10SM OVC009 M04/M04 A2996 RMK AO2,KOLE,2014-12-18T07:35:00Z,42.23,-78.37,-4.0,-4.0,280,6,,10.0,29.958662,,,TRUE,TRUE,,,,,,,OVC,900,,,,,,,IFR,,,,,,,,,,,,SPECI,651.0
KOKZ 180735Z AUTO 00000KT 10SM CLR 03/03 A3012 RMK AO2 T00260025,KOKZ,2014-12-18T07:35:00Z,32.97,-82.83,2.6,2.5,0,0,,10.0,30.121063,,,TRUE,TRUE,,,,,,,CLR,,,,,,,,VFR,,,,,,,,,,,,SPECI,134.0
KOBE 180735Z AUTO 00000KT 10SM CLR 11/10 A3015 RMK AO2,KOBE,2014-12-18T07:35:00Z,27.27,-80.85,11.0,10.0,0,0,,10.0,30.15059,,,TRUE,TRUE,,,,,,,CLR,,,,,,,,VFR,,,,,,,,,,,,SPECI,11.0
KN38 180735Z AUTO 30014G27KT 270V330 10SM OVC023 M02/M07 A2997 RMK AO2,KN38,2014-12-18T07:35:00Z,41.73,-77.4,-2.0,-7.0,300,14,27,10.0,29.970472,,,TRUE,TRUE,,,,,,,OVC,2300,,,,,,,MVFR,,,,,,,,,,,,SPECI,577.0
KMZG 180735Z AUTO 16006KT 10SM BKN042 OVC049 23/20 A3005 RMK A01,KMZG,2014-12-18T07:35:00Z,27.73,-96.18,23.0,20.0,160,6,,10.0,30.050198,,,TRUE,TRUE,,,,,,,BKN,4200,OVC,4900,,,,,VFR,,,,,,,,,,,,SPECI,29.0
KMOR 180735Z AUTO 00000KT 10SM CLR M02/M03 A3020 RMK,KMOR,2014-12-18T07:35:00Z,36.18,-83.37,-2.0,-3.0,0,0,,10.0,30.200787,,,TRUE,,,,,,,,CLR,,,,,,,,VFR,,,,,,,,,,,,METAR,400.0
KMNZ 180735Z AUTO 13006KT 1/4SM FG OVC003 08/08 A3011 RMK AO2 T00750075,KMNZ,2014-12-18T07:35:00Z,31.67,-98.15,7.5,7.5,130,6,,0.25,30.109253,,,TRUE,TRUE,,,,,,FG,OVC,300,,,,,,,LIFR,,,,,,,,,,,,SPECI,396.0
KMIS 180735Z AUTO VRB05G12KT 10SM CLR 17/10 A3016 RMK A01,KMIS,2014-12-18T07:35:00Z,29.3,-88.85,17.0,10.0,0,5,12,10.0,30.159449,,,TRUE,TRUE,,,,,,,CLR,,,,,,,,VFR,,,,,,,,,,,,SPECI,32.0
KMHV 180735Z AUTO 00000KT 10SM CLR 07/M03 A3009 RMK AO1,KMHV,2014-12-18T07:35:00Z,35.07,-118.15,7.0,-3.0,0,0,,10.0,30.088583,,,TRUE,TRUE,,,,,,,CLR,,,,,,,,VFR,,,,,,,,,,,,SPECI,849.0
KMEV 180735Z AUTO 09009KT 10SM CLR M02/M06 A3006 RMK AO2,KMEV,2014-12-18T07:35:00Z,38.98,-119.75,-2.0,-6.0,90,9,,10.0,30.059055,,,TRUE,TRUE,,,,,,,CLR,,,,,,,,VFR,,,,,,,,,,,,SPECI,1439.0
KMDJ 180735Z AUTO 12007KT 10SM FEW029 SCT036 19/13 A3018 RMK A01,KMDJ,2014-12-18T07:35:00Z,28.65,-89.8,19.0,13.0,120,7,,10.0,30.180119,,,TRUE,TRUE,,,,,,,FEW,2900,SCT,3600,,,,,VFR,,,,,,,,,,,,SPECI,31.0
KY19 180735Z AUTO 14008KT 10SM OVC013 M09/M11 A3013 RMK AO2,KY19,2014-12-18T07:35:00Z,46.77,-100.9,-9.0,-11.0,140,8,,10.0,30.129921,,,TRUE,TRUE,,,,,,,OVC,1300,,,,,,,MVFR,,,,,,,,,,,,SPECI,593.0
KXSA 180735Z AUTO 00000KT 10SM CLR 03/M05 A3010 RMK AO2 T00251052,KXSA,2014-12-18T07:35:00Z,37.87,-76.9,2.5,-5.2,0,0,,10.0,30.100393,,,TRUE,TRUE,,,,,,,CLR,,,,,,,,VFR,,,,,,,,,,,,SPECI,42.0
KXPY 180735Z AUTO 10006KT 9SM CLR 15/12 A3018 RMK A01,KXPY,2014-12-18T07:35:00Z,29.12,-90.2,15.0,12.0,100,6,,9.0,30.180119,,,TRUE,TRUE,,,,,,,CLR,,,,,,,,VFR,,,,,,,,,,,,SPECI,2.0
KXIH 180735Z AUTO 14010KT 7SM FEW032 BKN090 20/18 A3008 RMK A01,KXIH,2014-12-18T07:35:00Z,29.18,-94.52,20.0,18.0,140,10,,7.0,30.079725,,,TRUE,TRUE,,,,,,,FEW,3200,BKN,9000,,,,,VFR,,,,,,,,,,,,SPECI,75.0
KXBP 180735Z AUTO 11003KT 2 1/2SM BR OVC003 05/05 A3014 RMK AO2 T00510051,KXBP,2014-12-18T07:35:00Z,33.18,-97.83,5.1,5.1,110,3,,2.5,30.138779,,,TRUE,TRUE,,,,,,BR,OVC,300,,,,,,,LIFR,,,,,,,,,,,,SPECI,260.0
KW81 180735Z AUTO 33003KT 10SM CLR 02/M05 A3009 RMK AO1 T00191046,KW81,2014-12-18T07:35:00Z,37.18,-78.1,1.9,-4.6,330,3,,10.0,30.088583,,,TRUE,TRUE,,,,,,,CLR,,,,,,,,VFR,,,,,,,,,,,,SPECI,129.0
KW75 180735Z AUTO 33005KT 10SM CLR 03/M03 A3009 RMK AO1 T00301030,KW75,2014-12-18T07:35:00Z,37.6,-76.45,3.0,-3.0,330,5,,10.0,30.088583,,,TRUE,TRUE,,,,,,,CLR,,,,,,,,VFR,,,,,,,,,,,,SPECI,9.0
KW31 180735Z AUTO 00000KT 10SM CLR 02/M03 A3009 RMK AO1 T00171029,KW31,2014-12-18T07:35:00Z,36.95,-78.18,1.7,-2.9,0,0,,10.0,30.088583,,,TRUE,TRUE,,,,,,,CLR,,,,,,,,VFR,,,,,,,,,,,,SPECI,162.0
KW13 180735Z AUTO 00000KT 10SM CLR M02/M06 A3007 RMK AO1 T10201056,KW13,2014-12-18T07:35:00Z,38.08,-78.95,-2.0,-5.6,0,0,,10.0,30.070866,,,TRUE,TRUE,,,,,,,CLR,,,,,,,,VFR,,,,,,,,,,,,SPECI,443.0
KVQT 180735Z AUTO 15012KT 10SM FEW021 FEW026 OVC033 21/17 A3012 RMK A01,KVQT,2014-12-18T07:35:00Z,28.27,-92.27,21.0,17.0,150,12,,10.0,30.121063,,,TRUE,TRUE,,,,,,,FEW,2100,FEW,2600,OVC,3300,,,VFR,,,,,,,,,,,,SPECI,25.0
KVOA 180735Z AUTO 00000KT 10SM CLR 17/10 A3016 RMK A01,KVOA,2014-12-18T07:35:00Z,29.23,-87.78,17.0,10.0,0,0,,10.0,30.159449,,,TRUE,TRUE,,,,,,,CLR,,,,,,,,VFR,,,,,,,,,,,,SPECI,53.0
KVKY 180735Z AUTO 05006KT 10SM CLR 17/09 A3018 RMK A01,KVKY,2014-12-18T07:35:00Z,29.25,-88.43,17.0,9.0,50,6,,10.0,30.180119,,,TRUE,TRUE,,,,,,,CLR,,,,,,,,VFR,,,,,,,,,,,,SPECI,32.0
KVKS 180735Z AUTO 00000KT 10SM FEW055 SCT070 OVC080 08/04 A3020 RMK A01,KVKS,2014-12-18T07:35:00Z,,,8.0,4.0,0,0,,10.0,30.200787,,,TRUE,TRUE,,,,,,,FEW,5500,SCT,7000,OVC,8000,,,VFR,,,,,,,,,,,,SPECI,
KVBW 180735Z AUTO 00000KT 10SM CLR M02/M06 A3007 RMK AO2 T10191060,KVBW,2014-12-18T07:35:00Z,38.37,-78.97,-1.9,-6.0,0,0,,10.0,30.070866,,,TRUE,TRUE,,,,,,,CLR,,,,,,,,VFR,,,,,,,,,,,,METAR,355.0
KVAF 180735Z AUTO 21015KT 10SM FEW027 BKN065 23/19 A3007 RMK A01,KVAF,2014-12-18T07:35:00Z,27.35,-94.63,23.0,19.0,210,15,,10.0,30.070866,,,TRUE,TRUE,,,,,,,FEW,2700,BKN,6500,,,,,VFR,,,,,,,,,,,,SPECI,46.0
KUSE 180735Z AUTO 28008KT 10SM OVC027 M02/M05 A3022 RMK AO2,KUSE,2014-12-18T07:35:00Z,41.62,-84.13,-2.0,-5.0,280,8,,10.0,30.221457,,,TRUE,TRUE,,,,,,,OVC,2700,,,,,,,MVFR,,,,,,,,,,,,SPECI,238.0
KTMK 180735Z AUTO 00000KT 7SM SCT030 BKN065 OVC080 05/05 A2997 RMK AO2,KTMK,2014-12-18T07:35:00Z,45.42,-123.82,5.0,5.0,0,0,,7.0,29.970472,,,TRUE,TRUE,,,,,,,SCT,3000,BKN,6500,OVC,8000,,,VFR,,,,,,,,,,,,SPECI,11.0
KSRR 180735Z AUTO 28009KT 10SM CLR 00/M05 A3011 RMK AO2,KSRR,2014-12-18T07:35:00Z,33.47,-105.52,0.0,-5.0,280,9,,10.0,30.109253,,,TRUE,TRUE,,,,,,,CLR,,,,,,,,VFR,,,,,,,,,,,,SPECI,2076.0
KSQE 180735Z AUTO VRB06G11KT 10SM CLR 21/17 A3013 RMK A01,KSQE,2014-12-18T07:35:00Z,28.07,-90.82,21.0,17.0,0,6,11,10.0,30.129921,,,TRUE,TRUE,,,,,,,CLR,,,,,,,,VFR,,,,,,,,,,,,SPECI,0.0
KSPR 180735Z AUTO VRB03KT 10SM CLR 20/16 A3012 RMK A01,KSPR,2014-12-18T07:35:00Z,28.6,-91.2,20.0,16.0,0,3,,10.0,30.121063,,,TRUE,TRUE,,,,,,,CLR,,,,,,,,VFR,,,,,,,,,,,,SPECI,31.0
KSLR 180735Z AUTO 09009KT 5SM -RA BKN004 BKN014 OVC034 04/04 A3019 RMK AO2 P0005 T00420042,KSLR,2014-12-18T07:35:00Z,33.17,-95.62,4.2,4.2,90,9,,5.0,30.188976,,,TRUE,TRUE,,,,,,-RA,BKN,400,BKN,1400,OVC,3400,,,LIFR,,,,,,0.05,,,,,,SPECI,149.0
KSJS 180735Z AUTO 00000KT 10SM OVC016 M01/M03 A3023 RMK AO2 T10101034,KSJS,2014-12-18T07:35:00Z,37.75,-82.63,-1.0,-3.4,0,0,,10.0,30.230314,,,TRUE,TRUE,,,,,,,OVC,1600,,,,,,,MVFR,,,,,,,,,,,,SPECI,372.0
KSEP 180735Z AUTO 14004KT 2SM OVC003 07/06 A3012 RMK AO2 T00650055,KSEP,2014-12-18T07:35:00Z,32.22,-98.17,6.5,5.5,140,4,,2.0,30.121063,,,TRUE,TRUE,,,,,,,OVC,300,,,,,,,LIFR,,,,,,,,,,,,SPECI,402.0
KSCF 180735Z AUTO 12011KT 10SM CLR 17/15 A3014 RMK A01,KSCF,2014-12-18T07:35:00Z,29.12,-91.87,17.0,15.0,120,11,,10.0,30.138779,,,TRUE,TRUE,,,,,,,CLR,,,,,,,,VFR,,,,,,,,,,,,SPECI,8.0
KMCC 180735Z AUTO 11005KT 8SM FEW016 FEW046 SCT065 10/09 A3013 RMK AO2,KMCC,2014-12-18T07:35:00Z,38.67,-121.4,10.0,9.0,110,5,,8.0,30.129921,,,TRUE,TRUE,,,,,,,FEW,1600,FEW,4600,SCT,6500,,,VFR,,,,,,,,,,,,METAR,23.0
KLVL 180735Z AUTO 00000KT 10SM CLR 02/M01 A3010 RMK AO1 T00171007,KLVL,2014-12-18T07:35:00Z,36.78,-77.8,1.7,-0.7,0,0,,10.0,30.100393,,,TRUE,TRUE,,,,,,,CLR,,,,,,,,VFR,,,,,,,,,,,,SPECI,100.0
KLUM 180735Z AUTO 32003KT 10SM OVC016 M06/M09 A3031 RMK AO2 T10651092,KLUM,2014-12-18T07:35:00Z,44.9,-91.87,-6.5,-9.2,320,3,,10.0,30.31004,,,TRUE,TRUE,,,,,,,OVC,1600,,,,,,,MVFR,,,,,,,,,,,,SPECI,273.0
KLNC 180735Z AUTO 12008KT 7SM OVC003 06/05 A3014 RMK AO2 T00550045,KLNC,2014-12-18T07:35:00Z,32.58,-96.72,5.5,4.5,120,8,,7.0,30.138779,,,TRUE,TRUE,,,,,,,OVC,300,,,,,,,LIFR,,,,,,,,,,,,SPECI,153.0
KLHM 180735Z AUTO 10003KT 10SM OVC023 09/08 A3011 RMK AO1,KLHM,2014-12-18T07:35:00Z,38.92,-121.35,9.0,8.0,100,3,,10.0,30.109253,,,TRUE,TRUE,,,,,,,OVC,2300,,,,,,,MVFR,,,,,,,,,,,,SPECI,37.0
KLHB 180735Z AUTO 34007KT 10SM OVC011 09/08 A3013 RMK AO2 T00930082,KLHB,2014-12-18T07:35:00Z,30.87,-96.62,9.3,8.2,340,7,,10.0,30.129921,,,TRUE,TRUE,,,,,,,OVC,1100,,,,,,,MVFR,,,,,,,,,,,,SPECI,87.0
KL18 180735Z AUTO 00000KT 10SM SCT080 OVC085 11/08 A3013 RMK AO2,KL18,2014-12-18T07:35:00Z,33.35,-117.25,11.0,8.0,0,0,,10.0,30.129921,,,TRUE,TRUE,,,,,,,SCT,8000,OVC,8500,,,,,VFR,,,,,,,,,,,,SPECI,216.0
KJWY 180735Z AUTO 10005KT 3SM BR OVC003 06/06 A3013 RMK AO2 T00560056,KJWY,2014-12-18T07:35:00Z,32.45,-96.92,5.6,5.6,100,5,,3.0,30.129921,,,TRUE,TRUE,,,,,,BR,OVC,300,,,,,,,LIFR,,,,,,,,,,,,SPECI,217.0
KJWG 180735Z AUTO 14003KT 2SM UP OVC003 03/03 A3009 RMK AO2 T00280028 TSNO,KJWG,2014-12-18T07:35:00Z,35.87,-98.42,2.8,2.8,140,3,,2.0,30.088583,,,TRUE,TRUE,,,TRUE,,,UP,OVC,300,,,,,,,LIFR,,,,,,,,,,,,SPECI,472.0
KJTC 180735Z AUTO 22003KT 10SM CLR M04/M07 A3014 RMK AO2,KJTC,2014-12-18T07:35:00Z,34.13,-109.32,-4.0,-7.0,220,3,,10.0,30.138779,,,TRUE,TRUE,,,,,,,CLR,,,,,,,,VFR,,,,,,,,,,,,METAR,2150.0
KJSV 180735Z AUTO 10008KT 10SM BKN025 OVC034 02/01 A3019 RMK AO2,KJSV,2014-12-18T07:35:00Z,35.43,-94.8,2.0,1.0,100,8,,10.0,30.188976,,,TRUE,TRUE,,,,,,,BKN,2500,OVC,3400,,,,,MVFR,,,,,,,,,,,,SPECI,161.0
KJQF 180735Z AUTO 00000KT 10SM CLR 00/00 A3012 RMK AO2,KJQF,2014-12-18T07:35:00Z,35.38,-80.72,0.0,0.0,0,0,,10.0,30.121063,,,TRUE,TRUE,,,,,,,CLR,,,,,,,,VFR,,,,,,,,,,,,SPECI,210.0
KJNX 180735Z AUTO 00000KT 10SM CLR 01/01 A3010 RMK AO2,KJNX,2014-12-18T07:35:00Z,35.53,-78.38,1.0,1.0,0,0,,10.0,30.100393,,,TRUE,TRUE,,,,,,,CLR,,,,,,,,VFR,,,,,,,,,,,,SPECI,50.0
KJDD 180735Z AUTO 04003KT 1 1/4SM BR OVC003 05/05 A3018 RMK AO2,KJDD,2014-12-18T07:35:00Z,32.75,-95.5,5.0,5.0,40,3,,1.25,30.180119,,,TRUE,TRUE,,,,,,BR,OVC,300,,,,,,,LIFR,,,,,,,,,,,,SPECI,132.0
KIPN 180735Z AUTO VRB06KT 10SM CLR 19/13 A3014 RMK A01,KIPN,2014-12-18T07:35:00Z,28.08,-87.98,19.0,13.0,0,6,,10.0,30.138779,,,TRUE,TRUE,,,,,,,CLR,,,,,,,,VFR,,,,,,,,,,,,SPECI,41.0
KIKT 180735Z AUTO 09005KT 10SM CLR 19/13 A3014 RMK A01,KIKT,2014-12-18T07:35:00Z,28.52,-88.28,19.0,13.0,90,5,,10.0,30.138779,,,TRUE,TRUE,,,,,,,CLR,,,,,,,,VFR,,,,,,,,,,,,SPECI,25.0
KIFP 180735Z AUTO 00000KT 10SM SCT040 OVC095 11/09 A3013 RMK AO2,KIFP,2014-12-18T07:35:00Z,35.15,-114.57,11.0,9.0,0,0,,10.0,30.129921,,,TRUE,TRUE,,,,,,,SCT,4000,OVC,9500,,,,,VFR,,,,,,,,,,,,SPECI,212.0
KIER 180735Z AUTO 00000KT 10SM OVC030 10/06 A3018 RMK AO2 T00950060,KIER,2014-12-18T07:35:00Z,31.73,-93.1,9.5,6.0,0,0,,10.0,30.180119,,,TRUE,TRUE,,,,,,,OVC,3000,,,,,,,MVFR,,,,,,,,,,,,SPECI,37.0
KICL 180735Z AUTO 09005KT 10SM BKN060 OVC075 M02/M06 A3027 RMK AO2,KICL,2014-12-18T07:35:00Z,40.72,-95.02,-2.0,-6.0,90,5,,10.0,30.268702,,,TRUE,TRUE,,,,,,,BKN,6000,OVC,7500,,,,,VFR,,,,,,,,,,,,SPECI,303.0
KHRX 180735Z AUTO 26005KT 10SM CLR 01/00 A2999 RMK AO2 T00141004,KHRX,2014-12-18T07:35:00Z,34.87,-102.33,1.4,-0.4,260,5,,10.0,29.991142,,,TRUE,TRUE,,,,,,,CLR,,,,,,,,VFR,,,,,,,,,,,,SPECI,1154.0
KHQU 180735Z AUTO 00000KT 4SM CLR 02/02 A3013 RMK AO1 T00200020,KHQU,2014-12-18T07:35:00Z,33.53,-82.52,2.0,2.0,0,0,,4.0,30.129921,,,TRUE,TRUE,,,,,,,CLR,,,,,,,,MVFR,,,,,,,,,,,,SPECI,152.0
KHQI 180735Z AUTO 15012G17KT 110V210 10SM FEW060 23/19 A3010 RMK A01,KHQI,2014-12-18T07:35:00Z,27.93,-93.67,23.0,19.0,150,12,17,10.0,30.100393,,,TRUE,TRUE,,,,,,,FEW,6000,,,,,,,VFR,,,,,,,,,,,,SPECI,26.0
KHHV 180735Z AUTO 19012G21KT 10SM CLR 23/19 A3007 RMK A01,KHHV,2014-12-18T07:35:00Z,26.93,-94.68,23.0,19.0,190,12,21,10.0,30.070866,,,TRUE,TRUE,,,,,,,CLR,,,,,,,,VFR,,,,,,,,,,,,SPECI,25.0
KGYY 180735Z AUTO 29004KT 10SM OVC025 M03/M08 A3029 RMK AO2 T10271081,KGYY,2014-12-18T07:35:00Z,41.62,-87.42,-2.7,-8.1,290,4,,10.0,30.28937,,,TRUE,TRUE,,,,,,,OVC,2500,,,,,,,MVFR,,,,,,,,,,,,SPECI,180.0
KGYI 180735Z AUTO 12006KT 10SM OVC005 04/04 A3015 RMK AO2 T00400040,KGYI,2014-12-18T07:35:00Z,33.72,-96.67,4.0,4.0,120,6,,10.0,30.15059,,,TRUE,TRUE,,,,,,,OVC,500,,,,,,,IFR,,,,,,,,,,,,SPECI,228.0
KGYH 180735Z AUTO 00000KT 10SM CLR 03/M03 A3008 RMK AO2,KGYH,2014-12-18T07:35:00Z,34.75,-82.38,3.0,-3.0,0,0,,10.0,30.079725,,,TRUE,TRUE,,,,,,,CLR,,,,,,,,VFR,,,,,,,,,,,,SPECI,292.0
KGWW 180735Z AUTO 33003KT 10SM CLR 05/01 A3009 RMK AO2 T00530010,KGWW,2014-12-18T07:35:00Z,35.47,-77.97,5.3,1.0,330,3,,10.0,30.088583,,,TRUE,TRUE,,,,,,,CLR,,,,,,,,VFR,,,,,,,,,,,,SPECI,41.0
KGVX 180735Z AUTO 16011KT 10SM BKN060 OVC075 21/20 A3008 RMK A01,KGVX,2014-12-18T07:35:00Z,28.58,-94.98,21.0,20.0,160,11,,10.0,30.079725,,,TRUE,TRUE,,,,,,,BKN,6000,OVC,7500,,,,,VFR,,,,,,,,,,,,SPECI,39.0
KGUL 180735Z AUTO 10SM FEW021 BKN027 BKN034 23/19 A3010 RMK A01,KGUL,2014-12-18T07:35:00Z,27.3,-93.53,23.0,19.0,,,,10.0,30.100393,,,TRUE,TRUE,,,,,,,FEW,2100,BKN,2700,BKN,3400,,,MVFR,,,,,,,,,,,,SPECI,30.0
KGRY 180735Z AUTO 17009KT 10SM CLR 21/16 A3012 RMK A01,KGRY,2014-12-18T07:35:00Z,27.63,-90.45,21.0,16.0,170,9,,10.0,30.121063,,,TRUE,TRUE,,,,,,,CLR,,,,,,,,VFR,,,,,,,,,,,,SPECI,58.0
PAAD 180735Z AUTO 04007KT 10SM OVC060 M19/M23 A2989 RMK AO2,PAAD,2014-12-18T07:35:00Z,,,-19.0,-23.0,40,7,,10.0,29.890747,,,TRUE,TRUE,,,,,,,OVC,6000,,,,,,,VFR,,,,,,,,,,,,SPECI,
KGNT 180735Z AUTO 31003KT 10SM OVC030 M03/M03 A3013 RMK AO2 T10271035,KGNT,2014-12-18T07:35:00Z,35.17,-107.9,-2.7,-3.5,310,3,,10.0,30.129921,,,TRUE,TRUE,,,,,,,OVC,3000,,,,,,,MVFR,,,,,,,,,,,,SPECI,1987.0
KGHB 180735Z AUTO VRB05G13KT 10SM SCT024 22/17 A3012 RMK A01,KGHB,2014-12-18T07:35:00Z,27.83,-91.98,22.0,17.0,0,5,13,10.0,30.121063,,,TRUE,TRUE,,,,,,,SCT,2400,,,,,,,VFR,,,,,,,,,,,,SPECI,30.0
KGGI 180735Z AUTO 00000KT 10SM CLR M09/M10 A3029 RMK AO2 T10891105,KGGI,2014-12-18T07:35:00Z,41.72,-92.73,-8.9,-10.5,0,0,,10.0,30.28937,,,TRUE,TRUE,,,,,,,CLR,,,,,,,,VFR,,,,,,,,,,,,SPECI,307.0
KGEV 180735Z AUTO 28013G17KT 10SM CLR 00/M06 A3005 RMK AO2 T00011061,KGEV,2014-12-18T07:35:00Z,36.43,-81.42,0.1,-6.1,280,13,17,10.0,30.050198,,,TRUE,TRUE,,,,,,,CLR,,,,,,,,VFR,,,,,,,,,,,,SPECI,969.0
KGCM 180735Z AUTO 00000KT 10SM BKN017 02/01 A3020 RMK AO2,KGCM,2014-12-18T07:35:00Z,36.3,-95.48,2.0,1.0,0,0,,10.0,30.200787,,,TRUE,TRUE,,,,,,,BKN,1700,,,,,,,MVFR,,,,,,,,,,,,SPECI,221.0
KGBK 180735Z AUTO 13009G15KT 10SM BKN025 BKN032 22/17 A3011 RMK A01,KGBK,2014-12-18T07:35:00Z,27.2,-92.2,22.0,17.0,130,9,15,10.0,30.109253,,,TRUE,TRUE,,,,,,,BKN,2500,BKN,3200,,,,,MVFR,,,,,,,,,,,,SPECI,59.0
KFSO 180735Z AUTO 28005KT 2SM -SN BKN006 BKN012 OVC018 00/00 A2977 RMK AO2 T00001002,KFSO,2014-12-18T07:35:00Z,44.93,-73.1,0.0,-0.2,280,5,,2.0,29.769686,,,TRUE,TRUE,,,,,,-SN,BKN,600,BKN,1200,OVC,1800,,,IFR,,,,,,,,,,,,SPECI,70.0
KFOT 180735Z AUTO 12015G21KT 10SM BKN032 BKN050 09/07 A3000 RMK AO1,KFOT,2014-12-18T07:35:00Z,40.55,-124.13,9.0,7.0,120,15,21,10.0,30.0,,,TRUE,TRUE,,,,,,,BKN,3200,BKN,5000,,,,,VFR,,,,,,,,,,,,SPECI,120.0
KFHB 180735Z AUTO 00000KT 10SM CLR 11/07 A3012 RMK AO1,KFHB,2014-12-18T07:35:00Z,30.62,-81.47,11.0,7.0,0,0,,10.0,30.121063,,,TRUE,TRUE,,,,,,,CLR,,,,,,,,VFR,,,,,,,,,,,,SPECI,5.0
KF46 180735Z AUTO 09006KT 10SM OVC004 05/05 A3013 RMK AO2 T00470045,KF46,2014-12-18T07:35:00Z,32.93,-96.43,4.7,4.5,90,6,,10.0,30.129921,,,TRUE,TRUE,,,,,,,OVC,400,,,,,,,LIFR,,,,,,,,,,,,SPECI,176.0
KEZS 180735Z AUTO 28004KT 10SM OVC016 M02/M05 A3027 RMK AO2 T10221053,KEZS,2014-12-18T07:35:00Z,44.78,-88.57,-2.2,-5.3,280,4,,10.0,30.268702,,,TRUE,TRUE,,,,,,,OVC,1600,,,,,,,MVFR,,,,,,,,,,,,SPECI,248.0
KEOE 180735Z AUTO 00000KT 10SM CLR 03/ A3012 RMK AO2,KEOE,2014-12-18T07:35:00Z,34.32,-81.63,3.0,,0,0,,10.0,30.121063,,,TRUE,TRUE,,,,,,,CLR,,,,,,,,VFR,,,,,,,,,,,,SPECI,174.0
KEMK 180735Z AUTO 16017KT 10SM BKN065 23/19 A3007 RMK A01,KEMK,2014-12-18T07:35:00Z,27.82,-94.32,23.0,19.0,160,17,,10.0,30.070866,,,TRUE,TRUE,,,,,,,BKN,6500,,,,,,,VFR,,,,,,,,,,,,SPECI,26.0
KEIR 180735Z AUTO VRB05KT 10SM OVC022 19/17 A3015 RMK A01,KEIR,2014-12-18T07:35:00Z,28.63,-91.48,19.0,17.0,0,5,,10.0,30.15059,,,TRUE,TRUE,,,,,,,OVC,2200,,,,,,,MVFR,,,,,,,,,,,,SPECI,28.0
KEHY 180735Z AUTO 25011G17KT 10SM CLR M04/M08 A2994 RMK AO2,KEHY,2014-12-18T07:35:00Z,41.73,-106.47,-4.0,-8.0,250,11,17,10.0,29.940945,,,TRUE,TRUE,,,,,,,CLR,,,,,,,,VFR,,,,,,,,,,,,SPECI,2225.0
KEHC 180735Z AUTO 14014KT 10SM CLR 23/18 A3010 RMK A01,KEHC,2014-12-18T07:35:00Z,28.43,-92.88,23.0,18.0,140,14,,10.0,30.100393,,,TRUE,TRUE,,,,,,,CLR,,,,,,,,VFR,,,,,,,,,,,,SPECI,31.0
KEDE 180735Z AUTO 33005KT 10SM 06/00 A3007 RMK AO2 T00550002,KEDE,2014-12-18T07:35:00Z,36.02,-76.57,5.5,0.2,330,5,,10.0,30.070866,,,TRUE,TRUE,,,,,,,,,,,,,,,,,,,,,,,,,,,SPECI,6.0
KECS 180735Z AUTO 00000KT 1/2SM FZFG OVC001 M10/M11 A2999 RMK AO2,KECS,2014-12-18T07:35:00Z,43.88,-104.32,-10.0,-11.0,0,0,,0.5,29.991142,,,TRUE,TRUE,,,,,,FZFG,OVC,100,,,,,,,LIFR,,,,,,,,,,,,SPECI,1273.0
KE16 180735Z AUTO 16006KT 4SM -RA OVC041 10/10 A3012 RMK AO2,KE16,2014-12-18T07:35:00Z,37.08,-121.6,10.0,10.0,160,6,,4.0,30.121063,,,TRUE,TRUE,,,,,,-RA,OVC,4100,,,,,,,MVFR,,,,,,,,,,,,SPECI,86.0
KDZB 180735Z AUTO 00000KT 1/2SM FG OVC002 10/10 A3010 RMK AO2 T00980098,KDZB,2014-12-18T07:35:00Z,30.53,-98.37,9.8,9.8,0,0,,0.5,30.100393,,,TRUE,TRUE,,,,,,FG,OVC,200,,,,,,,LIFR,,,,,,,,,,,,SPECI,334.0
KDVK 180735Z AUTO 00000KT 10SM BKN014 M03/M05 A3027 RMK AO2,KDVK,2014-12-18T07:35:00Z,37.58,-84.77,-3.0,-5.0,0,0,,10.0,30.268702,,,TRUE,TRUE,,,,,,,BKN,1400,,,,,,,MVFR,,,,,,,,,,,,SPECI,312.0
KDUA 180735Z AUTO 00000KT 5SM BR OVC003 03/03 A3015 RMK AO2,KDUA,2014-12-18T07:35:00Z,33.95,-96.4,3.0,3.0,0,0,,5.0,30.15059,,,TRUE,TRUE,,,,,,BR,OVC,300,,,,,,,LIFR,,,,,,,,,,,,SPECI,213.0
KDRI 180735Z AUTO 00000KT 10SM OVC022 11/06 A3017 RMK AO2 T01100057,KDRI,2014-12-18T07:35:00Z,30.83,-93.33,11.0,5.7,0,0,,10.0,30.171259,,,TRUE,TRUE,,,,,,,OVC,2200,,,,,,,MVFR,,,,,,,,,,,,SPECI,63.0
KDQH 180735Z AUTO 00000KT 10SM CLR 06/05 A3015 RMK AO2,KDQH,2014-12-18T07:35:00Z,31.48,-82.87,6.0,5.0,0,0,,10.0,30.15059,,,TRUE,TRUE,,,,,,,CLR,,,,,,,,VFR,,,,,,,,,,,,SPECI,78.0
KDPL 180735Z AUTO 00000KT 10SM CLR 03/03 A3010 RMK AO2 T00330030,KDPL,2014-12-18T07:35:00Z,35.0,-77.97,3.3,3.0,0,0,,10.0,30.100393,,,TRUE,TRUE,,,,,,,CLR,,,,,,,,VFR,,,,,,,,,,,,SPECI,42.0
KDNV 180735Z AUTO 01003KT 10SM OVC019 M04/M07 A3027 RMK AO2 T10421075,KDNV,2014-12-18T07:35:00Z,40.2,-87.6,-4.2,-7.5,10,3,,10.0,30.268702,,,TRUE,TRUE,,,,,,,OVC,1900,,,,,,,MVFR,,,,,,,,,,,,SPECI,212.0
KDLP 180735Z AUTO 09009KT 10SM CLR 17/10 A3016 RMK A01,KDLP,2014-12-18T07:35:00Z,29.12,-89.55,17.0,10.0,90,9,,10.0,30.159449,,,TRUE,TRUE,,,,,,,CLR,,,,,,,,VFR,,,,,,,,,,,,SPECI,36.0
KD55 180735Z AUTO 17008KT 10SM CLR M15/M17 A3020 RMK AO2,KD55,2014-12-18T07:35:00Z,48.75,-98.4,-15.0,-17.0,170,8,,10.0,30.200787,,,TRUE,TRUE,,,,,,,CLR,,,,,,,,VFR,,,,,,,,,,,,SPECI,491.0
KCWC 180735Z AUTO 11004KT 1 1/4SM BR OVC002 05/05 A3011 RMK AO2 T00500050,KCWC,2014-12-18T07:35:00Z,33.85,-98.48,5.0,5.0,110,4,,1.25,30.109253,,,TRUE,TRUE,,,,,,BR,OVC,200,,,,,,,LIFR,,,,,,,,,,,,SPECI,305.0
KCVW 180735Z AUTO 10008KT 10SM 12/10 A3015 RMK A01,KCVW,2014-12-18T07:35:00Z,29.78,-93.3,12.0,10.0,100,8,,10.0,30.15059,,,TRUE,TRUE,,,,,,,,,,,,,,,,,,,,,,,,,,,SPECI,1.0
KCVC 180735Z AUTO 30005KT 10SM CLR 05/02 A3010 RMK AO2,KCVC,2014-12-18T07:35:00Z,33.63,-83.85,5.0,2.0,300,5,,10.0,30.100393,,,TRUE,TRUE,,,,,,,CLR,,,,,,,,VFR,,,,,,,,,,,,SPECI,247.0
KCUL 180735Z AUTO 01004KT 10SM SCT120 00/M02 A3032 RMK AO2 T10041019,KCUL,2014-12-18T07:35:00Z,38.08,-88.12,-0.4,-1.9,10,4,,10.0,30.318897,,,TRUE,TRUE,,,,,,,SCT,12000,,,,,,,VFR,,,,,,,,,,,,SPECI,118.0
KCRX 180735Z AUTO 03006KT 10SM -DZ FEW050 FEW060 OVC075 04/00 A3024 RMK AO2,KCRX,2014-12-18T07:35:00Z,34.92,-88.6,4.0,0.0,30,6,,10.0,30.239174,,,TRUE,TRUE,,,,,,-DZ,FEW,5000,FEW,6000,OVC,7500,,,VFR,,,,,,,,,,,,SPECI,130.0
CYQX 180735Z 15008KT 15SM FEW008 OVC016 M02/M04 A3007 RMK SF1SC7 SLP192,CYQX,2014-12-18T07:35:00Z,48.95,-54.58,-2.0,-4.0,150,8,,15.0,30.070866,1019.2,,,,,,,,,,FEW,800,OVC,1600,,,,,MVFR,,,,,,,,,,,,SPECI,151.0
UMMS 180735Z 18002MPS 7000 OVC008 M00/M01 Q1009 R13/610450 NOSIG,UMMS,2014-12-18T07:35:00Z,53.88,28.03,0.0,-1.0,180,4,,4.35,29.793306,,,,,,TRUE,,,,,OVC,800,,,,,,,IFR,,,,,,,,,,,,SPECI,205.0
KRZL 180735Z AUTO 32003KT 10SM OVC019 M03/M06 A3029 RMK AO2,KRZL,2014-12-18T07:35:00Z,40.95,-87.18,-3.0,-6.0,320,3,,10.0,30.28937,,,TRUE,TRUE,,,,,,,OVC,1900,,,,,,,MVFR,,,,,,,,,,,,SPECI,213.0
KJZI 180735Z AUTO 00000KT 7SM CLR 04/ A3011 RMK A02 P000,KJZI,2014-12-18T07:35:00Z,32.7,-80.0,4.0,,0,0,,7.0,30.109253,,,TRUE,TRUE,,,,,,,CLR,,,,,,,,VFR,,,,,,,,,,,,SPECI,6.0
KFDW 180735Z AUTO 31003KT 10SM CLR 05/04 A3008 RMK AO1,KFDW,2014-12-18T07:35:00Z,34.32,-81.12,5.0,4.0,310,3,,10.0,30.079725,,,TRUE,TRUE,,,,,,,CLR,,,,,,,,VFR,,,,,,,,,,,,SPECI,176.0
KCEY 180735Z AUTO 10003KT 6SM FEW030 BKN035 OVC070 00/00 A3027 RMK AO1 P0002,KCEY,2014-12-18T07:35:00Z,36.67,-88.37,0.0,0.0,100,3,,6.0,30.268702,,,TRUE,TRUE,,,,,,,FEW,3000,BKN,3500,OVC,7000,,,VFR,,,,,,0.02,,,,,,SPECI,176.0
KCCA 180735Z AUTO 00000KT 4SM -RA OVC008 02/01 A3026 RMK AO2 P0001,KCCA,2014-12-18T07:35:00Z,35.6,-92.45,2.0,1.0,0,0,,4.0,30.259842,,,TRUE,TRUE,,,,,,-RA,OVC,800,,,,,,,IFR,,,,,,0.01,,,,,,SPECI,157.0
K9D7 180735Z AUTO 12005KT 10SM CLR M17/M18 A3021 RMK AO2,K9D7,2014-12-18T07:35:00Z,48.48,-99.23,-17.0,-18.0,120,5,,10.0,30.209646,,,TRUE,TRUE,,,,,,,CLR,,,,,,,,VFR,,,,,,,,,,,,SPECI,452.0
K5H4 180735Z AUTO 11005KT 10SM CLR M14/M15 A3017 RMK AO2,K5H4,2014-12-18T07:35:00Z,47.78,-99.93,-14.0,-15.0,110,5,,10.0,30.171259,,,TRUE,TRUE,,,,,,,CLR,,,,,,,,VFR,,,,,,,,,,,,SPECI,490.0
K2J9 180735Z AUTO 32004KT 10SM BKN016 OVC022 04/03 A3018 RMK AO1,K2J9,2014-12-18T07:35:00Z,30.6,-84.55,4.0,3.0,320,4,,10.0,30.180119,,,TRUE,TRUE,,,,,,,BKN,1600,OVC,2200,,,,,MVFR,,,,,,,,,,,,SPECI,69.0
KVNC 180735Z AUTO 10003KT 10SM CLR 10/09 A3015 RMK AO2 TSNO,KVNC,2014-12-18T07:35:00Z,27.07,-82.43,10.0,9.0,100,3,,10.0,30.15059,,,TRUE,TRUE,,,TRUE,,,,CLR,,,,,,,,VFR,,,,,,,,,,,,SPECI,6.0
LERT 180735Z 01003KT 310V070 0800 R10/P2000 FG FEW001 07/07 Q1027 NOSIG,LERT,2014-12-18T07:35:00Z,36.63,-6.33,7.0,7.0,10,3,,0.5,30.324802,,,,,,TRUE,,,,FG,FEW,100,,,,,,,LIFR,,,,,,,,,,,,SPECI,26.0
KY51 180734Z AUTO 29003KT 10SM BKN016 M09/M10 A3026 RMK AO1 T10951105,KY51,2014-12-18T07:34:00Z,43.58,-90.9,-9.5,-10.5,290,3,,10.0,30.259842,,,TRUE,TRUE,,,,,,,BKN,1600,,,,,,,MVFR,,,,,,,,,,,,METAR,394.0
LTBU 180734Z 29009KT 3500 BR SCT004 BKN025 09/09 Q1015 RMK RWY23 28011KT,LTBU,2014-12-18T07:34:00Z,41.12,27.92,9.0,9.0,290,9,,2.17,29.970472,,,,,,,,,,BR,SCT,400,BKN,2500,,,,,IFR,,,,,,,,,,,,SPECI,173.0
KTTF 180734Z AUTO 28008KT 10SM OVC025 M02/M06 A3020 RMK AO2,KTTF,2014-12-18T07:34:00Z,41.93,-83.42,-2.0,-6.0,280,8,,10.0,30.200787,,,TRUE,TRUE,,,,,,,OVC,2500,,,,,,,MVFR,,,,,,,,,,,,SPECI,188.0
ETHN 180734Z 21010KT 9999 FEW004 OVC011 07/06 Q1014 GRN YLO TEMPO GRN,ETHN,2014-12-18T07:34:00Z,49.38,9.97,7.0,6.0,210,10,,6.21,29.940945,,,,,,,,,,,FEW,400,OVC,1100,,,,,MVFR,,,,,,,,,,,,SPECI,473.0
CYRQ 180734Z AUTO 03006KT 2 1/2SM -SN BKN012 OVC019 M01/M01 A2976 RMK SLP080,CYRQ,2014-12-18T07:34:00Z,46.35,-72.68,-1.0,-1.0,30,6,,2.5,29.760826,1008.0,,TRUE,,,,,,,-SN,BKN,1200,OVC,1900,,,,,IFR,,,,,,,,,,,,SPECI,61.0
CYYL 180733Z AUTO 21007KT 180V240 9SM -SN OVC006 M10/M11 A2998 RMK SLP183,CYYL,2014-12-18T07:33:00Z,56.87,-101.07,-10.0,-11.0,210,7,,9.0,29.97933,1018.3,,TRUE,,,,,,,-SN,OVC,600,,,,,,,IFR,,,,,,,,,,,,SPECI,357.0
YLIS 180733Z AUTO 30018KT 240V310 9999 -SHRA SCT022 SCT042 BKN054 22/19 Q1009,YLIS,2014-12-18T07:33:00Z,-28.83,153.27,22.0,19.0,300,18,,6.21,29.793306,,,TRUE,,,,,,,-SHRA,SCT,2200,SCT,4200,BKN,5400,,,VFR,,,,,,,,,,,,SPECI,11.0
EGVA 180733Z AUTO 24024G31KT 9999 OVC009 12/11 A2979 RMK AO2,EGVA,2014-12-18T07:33:00Z,51.67,-1.77,12.0,11.0,240,24,31,6.21,29.790354,,,TRUE,TRUE,,,,,,,OVC,900,,,,,,,IFR,,,,,,,,,,,,SPECI,87.0
LTAN 180733Z VRB01KT 2600 BR SCT030 BKN090 06/04 Q1019 BECMG TL0830 6000 RMK RWY19 20002KT,LTAN,2014-12-18T07:33:00Z,37.97,32.53,6.0,4.0,0,1,,1.62,30.088583,,,,,,,,,,BR,SCT,3000,BKN,9000,,,,,IFR,,,0.2,,,,,,,,,SPECI,1006.0
LBPD 180733Z 00000MPS 1900 BR SCT060 06/05 Q1016 R99/19//95 NOSIG,LBPD,2014-12-18T07:33:00Z,42.13,24.8,6.0,5.0,0,0,,1.18,30.0,,,,,,TRUE,,,,BR,SCT,6000,,,,,,,IFR,,,,,,,,,,,,SPECI,185.0
KMMT 180733Z AUTO 33003KT 10SM CLR 00/00 A3009 RMK AO2,KMMT,2014-12-18T07:33:00Z,33.92,-80.78,0.0,0.0,330,3,,10.0,30.088583,,,TRUE,TRUE,,,,,,,CLR,,,,,,,,VFR,,,,,,,,,,,,SPECI,77.0
KEND 180733Z AUTO 10007KT 2 1/2SM R17C/3500FT BR OVC002 02/02 A3011 RMK AO2 $,KEND,2014-12-18T07:33:00Z,36.32,-97.92,2.0,2.0,100,7,,2.5,30.109253,,,TRUE,TRUE,TRUE,,,,,BR,OVC,200,,,,,,,LIFR,,,,,,,,,,,,SPECI,398.0
KFKS 180732Z AUTO 36005KT 7SM OVC016 M01/M02 A3020 RMK AO2 T10081025,KFKS,2014-12-18T07:32:00Z,44.63,-86.2,-0.8,-2.5,360,5,,7.0,30.200787,,,TRUE,TRUE,,,,,,,OVC,1600,,,,,,,MVFR,,,,,,,,,,,,SPECI,193.0
KHOP 180732Z 07002KT 10SM -FZRA FEW037 BKN065 00/M02 A3028 RMK AO2A,KHOP,2014-12-18T07:32:00Z,36.67,-87.5,0.0,-2.0,70,2,,10.0,30.280512,,,,TRUE,,,,,,-FZRA,FEW,3700,BKN,6500,,,,,VFR,,,,,,,,,,,,SPECI,174.0
CYUL 180732Z 30004KT 2 1/2SM -SN BR FEW005 BKN014 OVC033 M00/M01 A2978 RMK SF1SF5SC2 SLP087,CYUL,2014-12-18T07:32:00Z,45.47,-73.73,0.0,-1.0,300,4,,2.5,29.778543,1008.7,,,,,,,,,-SN BR,FEW,500,BKN,1400,OVC,3300,,,IFR,,,,,,,,,,,,SPECI,36.0
CYGX 180731Z 22008KT 14SM SCT008 M16/M18 A3012 RMK SC3 SLP215,CYGX,2014-12-18T07:31:00Z,56.35,-94.7,-16.0,-18.0,220,8,,14.0,30.121063,1021.5,,,,,,,,,,SCT,800,,,,,,,VFR,,,,,,,,,,,,SPECI,145.0
SPQT 180731Z 040009KT 1000 +SHRA BKN005 FEW025CB OVC100 24/23 Q1010,SPQT,2014-12-18T07:31:00Z,-3.78,-73.32,24.0,23.0,40,9,,0.62,29.822834,,,,,,,,,,+SHRA,BKN,500,FEW,2500,OVC,10000,,,LIFR,,,,,,,,,,,,SPECI,126.0
CYQY 180731Z 11018G27KT 4SM -SHRA BR BKN005 OVC012 04/04 A2969 RMK ST6SC2 PRESFR SLP057,CYQY,2014-12-18T07:31:00Z,46.17,-60.03,4.0,4.0,110,18,27,4.0,29.68996,1005.7,,,,,,,,,-SHRA BR,BKN,500,OVC,1200,,,,,IFR,,,,,,,,,,,,SPECI,62.0
KFHU 180731Z 17004KT 1SM -RA BR BKN002 OVC033 06/06 A3014,KFHU,2014-12-18T07:31:00Z,31.58,-110.35,6.0,6.0,170,4,,1.0,30.138779,,,,,,,,,,-RA BR,BKN,200,OVC,3300,,,,,LIFR,,,,,,,,,,,,SPECI,1438.0
EICK 180730Z 23020G32KT 3500 -RADZ OVC004 11/11 Q1007 NOSIG,EICK,2014-12-18T07:30:00Z,51.85,-8.47,11.0,11.0,230,20,32,2.17,29.734253,,,,,,TRUE,,,,-RA -DZ,OVC,400,,,,,,,LIFR,,,,,,,,,,,,METAR,162.0
EIKN 180730Z 23019G30KT 210V270 4000 -RADZ BKN005 OVC009 11/10 Q0998 TEMPO 2000 BKN002,EIKN,2014-12-18T07:30:00Z,53.92,-8.82,11.0,10.0,230,19,30,2.49,29.468504,,,,,,,,,,-RA -DZ,BKN,500,OVC,900,,,,,IFR,,,,,,,,,,,,METAR,64.0
EINN 180730Z 22022KT 7000 -DZ FEW007 OVC013 12/11 Q1003 TEMPO BKN004,EINN,2014-12-18T07:30:00Z,52.7,-8.92,12.0,11.0,220,22,,4.35,29.616142,,,,,,,,,,-DZ,FEW,700,OVC,1300,,,,,MVFR,,,,,,,,,,,,METAR,20.0
EIDW 180730Z 23023KT 8000 -DZ FEW007 BKN009 BKN012 12/11 Q1000 TEMPO 4000 BKN005,EIDW,2014-12-18T07:30:00Z,53.42,-6.25,12.0,11.0,230,23,,4.97,29.52756,,,,,,,,,,-DZ,FEW,700,BKN,900,BKN,1200,,,IFR,,,,,,,,,,,,METAR,85.0
EPWA 180730Z 22004KT 7000 SCT011 OVC014 03/02 Q1008 BECMG 4000 BR BKN008,EPWA,2014-12-18T07:30:00Z,52.17,20.97,3.0,2.0,220,4,,4.35,29.763779,,,,,,,,,,,SCT,1100,OVC,1400,,,,,MVFR,,,,,,,,,,,,METAR,107.0
EPRZ 180730Z 21009KT 9999 OVC023 04/02 Q1012,EPRZ,2014-12-18T07:30:00Z,50.1,22.05,4.0,2.0,210,9,,6.21,29.88189,,,,,,,,,,,OVC,2300,,,,,,,MVFR,,,,,,,,,,,,METAR,202.0
EPPO 180730Z 25010KT 7000 SCT008 06/05 Q1008,EPPO,2014-12-18T07:30:00Z,52.42,16.82,6.0,5.0,250,10,,4.35,29.763779,,,,,,,,,,,SCT,800,,,,,,,MVFR,,,,,,,,,,,,METAR,92.0
EPLL 180730Z 23008KT 3200 -RA BR BKN004 04/03 Q1009,EPLL,2014-12-18T07:30:00Z,51.72,19.4,4.0,3.0,230,8,,1.99,29.793306,,,,,,,,,,-RA BR,BKN,400,,,,,,,LIFR,,,,,,,,,,,,METAR,184.0
EPKK 180730Z 24009KT 9999 SCT013 BKN020 05/03 Q1012,EPKK,2014-12-18T07:30:00Z,50.07,19.8,5.0,3.0,240,9,,6.21,29.88189,,,,,,,,,,,SCT,1300,BKN,2000,,,,,MVFR,,,,,,,,,,,,METAR,237.0
EPGD 180730Z 25003KT 200V290 2500 BR OVC004 02/02 Q1005,EPGD,2014-12-18T07:30:00Z,54.37,18.47,2.0,2.0,250,3,,1.55,29.675198,,,,,,,,,,BR,OVC,400,,,,,,,LIFR,,,,,,,,,,,,METAR,138.0
EPZG 180730Z 23009KT 9999 FEW010 OVC043 07/06 Q1010,EPZG,2014-12-18T07:30:00Z,52.13,15.8,7.0,6.0,230,9,,6.21,29.822834,,,,,,,,,,,FEW,1000,OVC,4300,,,,,VFR,,,,,,,,,,,,METAR,59.0
EPWR 180730Z 26007KT 230V290 9999 BKN046 08/05 Q1011,EPWR,2014-12-18T07:30:00Z,51.1,16.87,8.0,5.0,260,7,,6.21,29.852362,,,,,,,,,,,BKN,4600,,,,,,,VFR,,,,,,,,,,,,METAR,121.0
EPSC 180730Z 23005KT 190V260 5000 BR BKN009 06/05 Q1007,EPSC,2014-12-18T07:30:00Z,53.58,14.9,6.0,5.0,230,5,,3.11,29.734253,,,,,,,,,,BR,BKN,900,,,,,,,IFR,,,,,,,,,,,,METAR,3.0
EPMO 180730Z 21007KT 180V240 6000 BKN008 02/02 Q1008,EPMO,2014-12-18T07:30:00Z,52.45,20.65,2.0,2.0,210,7,,3.73,29.763779,,,,,,,,,,,BKN,800,,,,,,,IFR,,,,,,,,,,,,METAR,104.0
EPLB 180730Z 22010KT 9999 SCT029 BKN034 OVC044 03/01 Q1010,EPLB,2014-12-18T07:30:00Z,51.23,22.72,3.0,1.0,220,10,,6.21,29.822834,,,,,,,,,,,SCT,2900,BKN,3400,OVC,4400,,,VFR,,,,,,,,,,,,METAR,206.0
EPKT 180730Z 22009KT 5000 -RA BR FEW007 BKN011 04/03 Q1011,EPKT,2014-12-18T07:30:00Z,50.47,19.08,4.0,3.0,220,9,,3.11,29.852362,,,,,,,,,,-RA BR,FEW,700,BKN,1100,,,,,MVFR,,,,,,,,,,,,METAR,284.0
EPBY 180730Z 23007KT 5000 BR OVC004 04/04 Q1007,EPBY,2014-12-18T07:30:00Z,53.1,18.0,4.0,4.0,230,7,,3.11,29.734253,,,,,,,,,,BR,OVC,400,,,,,,,LIFR,,,,,,,,,,,,METAR,71.0
CYZS 180730Z 05004KT 15SM BKN020 RMK SC4,CYZS,2014-12-18T07:30:00Z,64.2,-83.37,,,50,4,,15.0,,,,,,,,,,,,BKN,2000,,,,,,,MVFR,,,,,,,,,,,,SPECI,64.0
BIKF 180730Z 32011KT 9999 FEW020CB BKN048 01/M02 Q0965,BIKF,2014-12-18T07:30:00Z,63.98,-22.6,1.0,-2.0,320,11,,6.21,28.494095,,,,,,,,,,,FEW,2000,BKN,4800,,,,,VFR,,,,,,,,,,,,METAR,54.0
LYVR 180730Z 36003KT 240V050 2000 BR SCT005 BKN040 06/06 Q1017 NOSIG,LYVR,2014-12-18T07:30:00Z,45.13,21.32,6.0,6.0,360,3,,1.24,30.029528,,,,,,TRUE,,,,BR,SCT,500,BKN,4000,,,,,IFR,,,,,,,,,,,,METAR,85.0
LYUZ 180730Z 30006KT 270V330 0200 FG VV002 04/03 Q1016,LYUZ,2014-12-18T07:30:00Z,43.9,19.7,4.0,3.0,300,6,,0.12,30.0,,,,,,,,,,FG,OVX,0,,,,,,,LIFR,,,,,,,,,,,200,METAR,904.0
LYTV 180730Z VRB01KT 9999 FEW050 SCT080 09/09 Q1016 NOSIG,LYTV,2014-12-18T07:30:00Z,42.38,18.72,9.0,9.0,0,1,,6.21,30.0,,,,,,TRUE,,,,,FEW,5000,SCT,8000,,,,,VFR,,,,,,,,,,,,METAR,5.0
LYPG 180730Z VRB02KT 9999 SCT040 08/08 Q1017 NOSIG,LYPG,2014-12-18T07:30:00Z,42.37,19.25,8.0,8.0,0,2,,6.21,30.029528,,,,,,TRUE,,,,,SCT,4000,,,,,,,VFR,,,,,,,,,,,,METAR,43.0
LYNI 180730Z VRB02KT 2000 BR OVC007 06/06 Q1017 BECMG 4000,LYNI,2014-12-18T07:30:00Z,43.32,21.88,6.0,6.0,0,2,,1.24,30.029528,,,,,,,,,,BR,OVC,700,,,,,,,IFR,,,,,,,,,,,,METAR,202.0
LYKV 180730Z 00000KT 0300 FG BKN008 OVC027 06/06 Q1017 NOSIG,LYKV,2014-12-18T07:30:00Z,43.82,20.58,6.0,6.0,0,0,,0.19,30.029528,,,,,,TRUE,,,,FG,BKN,800,OVC,2700,,,,,LIFR,,,,,,,,,,,,METAR,209.0
LYBT 180730Z VRB03KT 1500 BR SCT010 04/04 Q1018 TEMPO BKN010,LYBT,2014-12-18T07:30:00Z,44.93,20.25,4.0,4.0,0,3,,0.93,30.059055,,,,,,,,,,BR,SCT,1000,,,,,,,LIFR,,,,,,,,,,,,METAR,80.0
LYBE 180730Z VRB01KT 1500 BR FEW005 BKN012 05/05 Q1018 NOSIG,LYBE,2014-12-18T07:30:00Z,44.82,20.28,5.0,5.0,0,1,,0.93,30.059055,,,,,,TRUE,,,,BR,FEW,500,BKN,1200,,,,,LIFR,,,,,,,,,,,,METAR,99.0
LQSA 180730Z VRB02KT 4000 BR OVC010 06/06 Q1018 NOSIG,LQSA,2014-12-18T07:30:00Z,43.82,18.32,6.0,6.0,0,2,,2.49,30.059055,,,,,,TRUE,,,,BR,OVC,1000,,,,,,,IFR,,,,,,,,,,,,METAR,511.0
LQBK 180730Z 30004KT 4000 1800N PRFG SCT002 03/02 Q1019 NOSIG,LQBK,2014-12-18T07:30:00Z,44.93,17.3,3.0,2.0,300,4,,2.49,30.088583,,,,,,TRUE,,,,PRFG,SCT,200,,,,,,,IFR,,,,,,,,,,,,METAR,122.0
LKTB 180730Z VRB01KT 9999 BKN021 04/03 Q1015 NOSIG,LKTB,2014-12-18T07:30:00Z,49.13,16.68,4.0,3.0,0,1,,6.21,29.970472,,,,,,TRUE,,,,,BKN,2100,,,,,,,MVFR,,,,,,,,,,,,METAR,246.0
LKPR 180730Z 22013KT 9999 BKN047 06/04 Q1013 NOSIG,LKPR,2014-12-18T07:30:00Z,50.1,14.27,6.0,4.0,220,13,,6.21,29.911417,,,,,,TRUE,,,,,BKN,4700,,,,,,,VFR,,,,,,,,,,,,METAR,365.0
LKMT 180730Z 23011KT 9999 FEW025 05/03 Q1014 NOSIG,LKMT,2014-12-18T07:30:00Z,49.67,18.12,5.0,3.0,230,11,,6.21,29.940945,,,,,,TRUE,,,,,FEW,2500,,,,,,,VFR,,,,,,,,,,,,METAR,256.0
LKKV 180730Z 24006KT 190V270 8000 1200N R29/P2000N BKN002 OVC003 05/05 Q1013 R29///////,LKKV,2014-12-18T07:30:00Z,50.2,12.92,5.0,5.0,240,6,,4.97,29.911417,,,,,,,,,,,BKN,200,OVC,300,,,,,LIFR,,,,,,,,,,,,METAR,604.0
VHHH 180730Z 04007KT 9999 FEW040 16/M02 Q1024 NOSIG,VHHH,2014-12-18T07:30:00Z,22.32,113.92,16.0,-2.0,40,7,,6.21,30.236221,,,,,,TRUE,,,,,FEW,4000,,,,,,,VFR,,,,,,,,,,,,METAR,9.0
LCPH 180730Z 07009KT CAVOK 18/12 Q1018,LCPH,2014-12-18T07:30:00Z,34.72,32.47,18.0,12.0,70,9,,6.21,30.059055,,,,,,,,,,,CAVOK,,,,,,,,VFR,,,,,,,,,,,,METAR,8.0
LCLK 180730Z 33004KT 9999 FEW030 16/12 Q1019 NOSIG,LCLK,2014-12-18T07:30:00Z,34.87,33.62,16.0,12.0,330,4,,6.21,30.088583,,,,,,TRUE,,,,,FEW,3000,,,,,,,VFR,,,,,,,,,,,,METAR,2.0
UBBB 180730Z 20014KT 9999 FEW034 11/06 Q1021 88CLRD70 NOSIG,UBBB,2014-12-18T07:30:00Z,40.45,50.07,11.0,6.0,200,14,,6.21,30.147638,,,,,,TRUE,,,,,FEW,3400,,,,,,,VFR,,,,,,,,,,,,METAR,-6.0
VOCB 180730Z 05005KT 3000 BR SCT015 BKN080 24/20 Q1015 NOSIG,VOCB,2014-12-18T07:30:00Z,11.02,77.03,24.0,20.0,50,5,,1.86,29.970472,,,,,,TRUE,,,,BR,SCT,1500,BKN,8000,,,,,IFR,,,,,,,,,,,,METAR,399.0
GMTT 180730Z VRB01KT 8000 FEW016 08/07 Q1027 NOSIG,GMTT,2014-12-18T07:30:00Z,35.72,-5.9,8.0,7.0,0,1,,4.97,30.324802,,,,,,TRUE,,,,,FEW,1600,,,,,,,MVFR,,,,,,,,,,,,METAR,21.0
GMMX 180730Z 00000KT CAVOK 06/06 Q1026 NOSIG,GMMX,2014-12-18T07:30:00Z,31.62,-8.02,6.0,6.0,0,0,,6.21,30.295275,,,,,,TRUE,,,,,CAVOK,,,,,,,,VFR,,,,,,,,,,,,METAR,466.0
GMMN 180730Z 07004KT 7000 FEW010 09/09 Q1027 VOSIG,GMMN,2014-12-18T07:30:00Z,33.37,-7.57,9.0,9.0,70,4,,4.35,30.324802,,,,,,,,,,,FEW,1000,,,,,,,MVFR,,,,,,,,,,,,METAR,206.0
GMAD 180730Z 06004KT CAVOK 07/06 Q1025 NOSIG,GMAD,2014-12-18T07:30:00Z,30.32,-9.42,7.0,6.0,60,4,,6.21,30.265747,,,,,,TRUE,,,,,CAVOK,,,,,,,,VFR,,,,,,,,,,,,METAR,74.0
VOCL 180730Z 00000KT 8000 FEW015 SCT018 32/20 Q1010 NOSIG,VOCL,2014-12-18T07:30:00Z,11.13,75.95,32.0,20.0,0,0,,4.97,29.822834,,,,,,TRUE,,,,,FEW,1500,SCT,1800,,,,,MVFR,,,,,,,,,,,,METAR,104.0
WSSS 180730Z 03009KT 330V070 9999 FEW018TCU SCT020 BKN300 31/24 Q1008 NOSIG,WSSS,2014-12-18T07:30:00Z,1.37,103.97,31.0,24.0,30,9,,6.21,29.763779,,,,,,TRUE,,,,,FEW,1800,SCT,2000,BKN,30000,,,VFR,,,,,,,,,,,,METAR,16.0
UBBG 180730Z VRB03KT 9999 BKN084 07/02 Q1021 R30/CLRD70 NOSIG,UBBG,2014-12-18T07:30:00Z,40.73,46.32,7.0,2.0,0,3,,6.21,30.147638,,,,,,TRUE,,,,,BKN,8400,,,,,,,VFR,,,,,,,,,,,,METAR,330.0
LUBL 180730Z 00000KT 0400 R15/0600D FG VV002 01/00 Q1015,LUBL,2014-12-18T07:30:00Z,47.83,27.78,1.0,0.0,0,0,,0.25,29.970472,,,,,,,,,,FG,OVX,0,,,,,,,LIFR,,,,,,,,,,,200,METAR,232.0
LHBP 180730Z VRB03KT 5000 BR BKN027 02/02 Q1016 NOSIG,LHBP,2014-12-18T07:30:00Z,47.42,19.27,2.0,2.0,0,3,,3.11,30.0,,,,,,TRUE,,,,BR,BKN,2700,,,,,,,MVFR,,,,,,,,,,,,METAR,185.0
SOCA 180730Z AUTO 25001KT 9999 FEW020/// SCT044/// 23/22 Q1010,SOCA,2014-12-18T07:30:00Z,4.82,-52.37,23.0,22.0,250,1,,6.21,29.822834,,,TRUE,,,,,,,,,,,,,,,,,,,,,,,,,,,,METAR,9.0
TFFR 180730Z AUTO 00000KT 9999 NSC 21/20 Q1013,TFFR,2014-12-18T07:30:00Z,16.27,-61.53,21.0,20.0,0,0,,6.21,29.911417,,,TRUE,,,,,,,,,,,,,,,,,,,,,,,,,,,,METAR,11.0
NWWW 180730Z AUTO 10006KT 9999 BKN068/// 27/21 Q1012,NWWW,2014-12-18T07:30:00Z,-22.02,166.22,27.0,21.0,100,6,,6.21,29.88189,,,TRUE,,,,,,,,,,,,,,,,,,,,,,,,,,,,SPECI,16.0
LZTT 180730Z 23007KT 9999 FEW006 SCT020 BKN050 02/M00 Q1012 NOSIG,LZTT,2014-12-18T07:30:00Z,49.07,20.25,2.0,0.0,230,7,,6.21,29.88189,,,,,,TRUE,,,,,FEW,600,SCT,2000,BKN,5000,,,VFR,,,,,,,,,,,,METAR,707.0
LZKZ 180730Z 20006KT 8000 BKN016 OVC065 03/01 Q1014 NOSIG,LZKZ,2014-12-18T07:30:00Z,48.67,21.23,3.0,1.0,200,6,,4.97,29.940945,,,,,,TRUE,,,,,BKN,1600,OVC,6500,,,,,MVFR,,,,,,,,,,,,METAR,232.0
LZIB 180730Z 24005KT 9999 FEW006 BKN065 06/04 Q1016 NOSIG,LZIB,2014-12-18T07:30:00Z,48.17,17.22,6.0,4.0,240,5,,6.21,30.0,,,,,,TRUE,,,,,FEW,600,BKN,6500,,,,,VFR,,,,,,,,,,,,METAR,134.0
YNAR 180730Z AUTO 25017G28KT //// // ////// 29/01 Q1006,YNAR,2014-12-18T07:30:00Z,-34.7,146.52,29.0,1.0,250,17,28,,29.704725,,,TRUE,,,,,,,,,,,,,,,,,,,,,,,,,,,,SPECI,145.0
LZZI 180730Z 07003KT 1600 BR SCT003 OVC009 02/02 Q1014,LZZI,2014-12-18T07:30:00Z,49.23,18.62,2.0,2.0,70,3,,0.99,29.940945,,,,,,,,,,BR,SCT,300,OVC,900,,,,,LIFR,,,,,,,,,,,,METAR,311.0
LZSL 180730Z 00000KT 3000 BR FEW003 SCT013 BKN021 01/01 Q1015,LZSL,2014-12-18T07:30:00Z,48.63,19.13,1.0,1.0,0,0,,1.86,29.970472,,,,,,,,,,BR,FEW,300,SCT,1300,BKN,2100,,,IFR,,,,,,,,,,,,METAR,313.0
LZPP 180730Z 14002KT 2700 BR SCT025 BKN060 04/03 Q1016,LZPP,2014-12-18T07:30:00Z,48.62,17.83,4.0,3.0,140,2,,1.68,30.0,,,,,,,,,,BR,SCT,2500,BKN,6000,,,,,IFR,,,,,,,,,,,,METAR,161.0
LBBG 180730Z 23005MPS 6000 SCT030 BKN040 08/07 Q1014 R99/29//95 NOSIG,LBBG,2014-12-18T07:30:00Z,42.57,27.52,8.0,7.0,230,10,,3.73,29.940945,,,,,,TRUE,,,,,SCT,3000,BKN,4000,,,,,MVFR,,,,,,,,,,,,METAR,28.0
LBWN 180730Z 28004MPS 9999 FEW050 08/06 Q1014 NOSIG,LBWN,2014-12-18T07:30:00Z,43.22,27.82,8.0,6.0,280,8,,6.21,29.940945,,,,,,TRUE,,,,,FEW,5000,,,,,,,VFR,,,,,,,,,,,,METAR,43.0
LBSF 180730Z VRB01MPS 0250 R27/0275D FG VV002 02/02 Q1016 TEMPO 0400 FG,LBSF,2014-12-18T07:30:00Z,42.65,23.38,2.0,2.0,0,2,,0.16,30.0,,,,,,,,,,FG,OVX,0,,,,,,,LIFR,,,,,,,,,,,200,METAR,595.0
TFFF 180730Z AUTO 03002KT 9999 FEW023 23/22 Q1013,TFFF,2014-12-18T07:30:00Z,14.6,-61.0,23.0,22.0,30,2,,6.21,29.911417,,,TRUE,,,,,,,,FEW,2300,,,,,,,VFR,,,,,,,,,,,,METAR,5.0
CYED 180730Z AUTO 00000KT 2 1/2SM OVC005 M07/M08 A2983,CYED,2014-12-18T07:30:00Z,53.67,-113.47,-7.0,-8.0,0,0,,2.5,29.828741,,,TRUE,,,,,,,,OVC,500,,,,,,,IFR,,,,,,,,,,,,SPECI,688.0
FMCZ 180730Z 02007KT 310V070 9999 FEW025 32/25 Q1012 NOSIG,FMCZ,2014-12-18T07:30:00Z,-12.8,45.27,32.0,25.0,20,7,,6.21,29.88189,,,,,,TRUE,,,,,FEW,2500,,,,,,,VFR,,,,,,,,,,,,METAR,7.0
HECA 180730Z 17005KT 6000 FEW025 BKN070 18/04 Q1019 NOSIG,HECA,2014-12-18T07:30:00Z,30.12,31.38,18.0,4.0,170,5,,3.73,30.088583,,,,,,TRUE,,,,,FEW,2500,BKN,7000,,,,,MVFR,,,,,,,,,,,,METAR,74.0
UTAA 180730Z 08002MPS 3400 BR OVC005 06/04 Q1026 R12/290055 NOSIG,UTAA,2014-12-18T07:30:00Z,37.98,58.37,6.0,4.0,80,4,,2.11,30.295275,,,,,,TRUE,,,,BR,OVC,500,,,,,,,IFR,,,,,,,,,,,,METAR,210.0
ORBI 180730Z 28005KT 9000 NSC 13/10 Q1025,ORBI,2014-12-18T07:30:00Z,33.27,44.23,13.0,10.0,280,5,,5.59,30.265747,,,,,,,,,,,,,,,,,,,,,,,,,,,,,,,METAR,35.0
SBQV 180730Z 17005KT 1500 RA FEW004 OVC070 19/19 Q1015,SBQV,2014-12-18T07:30:00Z,-14.87,-40.87,19.0,19.0,170,5,,0.93,29.970472,,,,,,,,,,RA,FEW,400,OVC,7000,,,,,LIFR,,,,,,,,,,,,METAR,893.0
YMAY 180730Z AUTO 27016G27KT 9999 // BKN105 OVC125 26/04 Q1006,YMAY,2014-12-18T07:30:00Z,-36.07,146.93,26.0,4.0,270,16,27,6.21,29.704725,,,TRUE,,,,,,,,BKN,10500,OVC,12500,,,,,VFR,,,,,,,,,,,,SPECI,171.0
CYPD 180730Z AUTO 09020G34KT 2 1/2SM -RA BR OVC008 05/05 A2953 RMK PRESFR PCPN 4.0MM PAST HR SLP005,CYPD,2014-12-18T07:30:00Z,45.67,-61.37,5.0,5.0,90,20,34,2.5,29.530512,1000.5,,TRUE,,,,,,,-RA BR,OVC,800,,,,,,,IFR,,,,,,,,,,,,SPECI,114.0
YKRY 180730Z AUTO 22017G27KT //// // ////// 23/20 Q1011,YKRY,2014-12-18T07:30:00Z,-26.57,151.83,23.0,20.0,220,17,27,,29.852362,,,TRUE,,,,,,,,,,,,,,,,,,,,,,,,,,,,SPECI,434.0
LUKK 180730Z 02006KT 7000 OVC007 03/00 Q1015 R08/65D NOSIG,LUKK,2014-12-18T07:30:00Z,46.93,28.93,3.0,0.0,20,6,,4.35,29.970472,,,,,,TRUE,,,,,OVC,700,,,,,,,IFR,,,,,,,,,,,,METAR,122.0
VOBL 180730Z 09009KT 9999 SCT010 SCT080 26/21 Q1018 NOSIG,VOBL,2014-12-18T07:30:00Z,13.2,77.7,26.0,21.0,90,9,,6.21,30.059055,,,,,,TRUE,,,,,SCT,1000,SCT,8000,,,,,VFR,,,,,,,,,,,,METAR,915.0
NTAA 180730Z VRB02KT 9999 FEW020 27/22 Q1012 NOSIG,NTAA,2014-12-18T07:30:00Z,-17.55,-149.62,27.0,22.0,0,2,,6.21,29.88189,,,,,,TRUE,,,,,FEW,2000,,,,,,,VFR,,,,,,,,,,,,METAR,2.0
LDOS 180730Z 22003KT 180V250 0100 FG NSC 01/01 Q1018,LDOS,2014-12-18T07:30:00Z,45.47,18.82,1.0,1.0,220,3,,0.06,30.059055,,,,,,,,,,FG,,,,,,,,,,,,,,,,,,,,,METAR,89.0
LDRI 180730Z 00000KT CAVOK 06/M01 Q1017,LDRI,2014-12-18T07:30:00Z,45.22,14.57,6.0,-1.0,0,0,,6.21,30.029528,,,,,,,,,,,CAVOK,,,,,,,,VFR,,,,,,,,,,,,METAR,85.0
LDZD 180730Z 12003KT 9999 FEW060 05/05 Q1017 NOSIG,LDZD,2014-12-18T07:30:00Z,44.1,15.37,5.0,5.0,120,3,,6.21,30.029528,,,,,,TRUE,,,,,FEW,6000,,,,,,,VFR,,,,,,,,,,,,METAR,84.0
LDZA 180730Z 00000KT 0100 R05/0325N R23/0250V0375N FG NSC 01/01 Q1018 BECMG 0300,LDZA,2014-12-18T07:30:00Z,45.72,16.07,1.0,1.0,0,0,,0.06,30.059055,,,,,,,,,,FG,,,,,,,,,,,,,,,,,,,,,METAR,107.0
LDDU 180730Z 07003KT 9999 FEW055 10/07 Q1016 NOSIG,LDDU,2014-12-18T07:30:00Z,42.57,18.27,10.0,7.0,70,3,,6.21,30.0,,,,,,TRUE,,,,,FEW,5500,,,,,,,VFR,,,,,,,,,,,,METAR,165.0
LDPL 180730Z VRB02KT CAVOK 05/03 Q1018 NOSIG,LDPL,2014-12-18T07:30:00Z,44.88,13.92,5.0,3.0,0,2,,6.21,30.059055,,,,,,TRUE,,,,,CAVOK,,,,,,,,VFR,,,,,,,,,,,,METAR,63.0
LDSP 180730Z VRB01KT CAVOK 10/08 Q1017 NOSIG,LDSP,2014-12-18T07:30:00Z,43.52,16.3,10.0,8.0,0,1,,6.21,30.029528,,,,,,TRUE,,,,,CAVOK,,,,,,,,VFR,,,,,,,,,,,,METAR,21.0
OPST 180730Z 23004KT 0600 FG VV/// 08/08 Q1022 RH100,OPST,2014-12-18T07:30:00Z,32.53,74.37,8.0,8.0,230,4,,0.37,30.177166,,,,,,,,,,FG,OVX,0,,,,,,,LIFR,,,,,,,,,,,,SPECI,247.0
LWOH 180730Z 35001KT 9999 FEW020 03/01 Q1017,LWOH,2014-12-18T07:30:00Z,41.18,20.75,3.0,1.0,350,1,,6.21,30.029528,,,,,,,,,,,FEW,2000,,,,,,,VFR,,,,,,,,,,,,METAR,761.0
GOOY 180730Z 02008KT CAVOK 21/12 Q1013 NOSIG,GOOY,2014-12-18T07:30:00Z,14.72,-17.5,21.0,12.0,20,8,,6.21,29.911417,,,,,,TRUE,,,,,CAVOK,,,,,,,,VFR,,,,,,,,,,,,METAR,24.0
UBBN 180730Z 24002KT 6000 BKN043 05/02 Q1025 R14R/CLRD60 NOSIG RMK MT OBSC QFE693,UBBN,2014-12-18T07:30:00Z,39.18,45.45,5.0,2.0,240,2,,3.73,30.265747,,,,,,TRUE,,,,,BKN,4300,,,,,,,MVFR,,,,,,,,,,,,METAR,873.0
KMHR 180730Z 13005KT 10SM OVC060 10/10 A3012,KMHR,2014-12-18T07:30:00Z,38.53,-121.28,10.0,10.0,130,5,,10.0,30.121063,,,,,,,,,,,OVC,6000,,,,,,,VFR,,,,,,,,,,,,METAR,29.0
GLRB 180730Z 03005KT 0300 FG OVC001 24/23 Q1011,GLRB,2014-12-18T07:30:00Z,6.25,-10.33,24.0,23.0,30,5,,0.19,29.852362,,,,,,,,,,FG,OVC,100,,,,,,,LIFR,,,,,,,,,,,,METAR,18.0
GQNN 180730Z 05007KT 7000 NSC 12/M04 Q1016 NOSIG,GQNN,2014-12-18T07:30:00Z,18.1,-15.93,12.0,-4.0,50,7,,4.35,30.0,,,,,,TRUE,,,,,,,,,,,,,,,,,,,,,,,,,METAR,3.0
WIII 180730Z 34007KT 300V030 9999 FEW022 32/26 Q1007 NOSIG,WIII,2014-12-18T07:30:00Z,-6.13,106.67,32.0,26.0,340,7,,6.21,29.734253,,,,,,TRUE,,,,,FEW,2200,,,,,,,VFR,,,,,,,,,,,,METAR,8.0
HSSS 180730Z 36006KT CAVOK Q1016,HSSS,2014-12-18T07:30:00Z,15.58,32.53,,,360,6,,6.21,30.0,,,,,,,,,,,CAVOK,,,,,,,,VFR,,,,,,,,,,,,METAR,380.0
WAMM 180730Z 35004KT 300V030 6000 FEW018CB SCT019 27/25 Q1009 TEMPO RA,WAMM,2014-12-18T07:30:00Z,1.55,124.92,27.0,25.0,350,4,,3.73,29.793306,,,,,,,,,,,FEW,1800,SCT,1900,,,,,MVFR,,,,,,,,,,,,METAR,80.0
LFJL 180730Z AUTO 20012KT 6000 -RADZ OVC005 10/09 Q1015,LFJL,2014-12-18T07:30:00Z,48.97,6.25,10.0,9.0,200,12,,3.73,29.970472,,,TRUE,,,,,,,-RA -DZ,OVC,500,,,,,,,IFR,,,,,,,,,,,,METAR,264.0
LFCR 180730Z AUTO 26008KT 1700 -RA BR OVC008 09/09 Q1024,LFCR,2014-12-18T07:30:00Z,44.38,2.47,9.0,9.0,260,8,,1.06,30.236221,,,TRUE,,,,,,,-RA BR,OVC,800,,,,,,,IFR,,,,,,,,,,,,METAR,580.0
LFTH 180730Z AUTO 29003KT 240V310 9999 NSC 11/07 Q1018,LFTH,2014-12-18T07:30:00Z,43.1,6.15,11.0,7.0,290,3,,6.21,30.059055,,,TRUE,,,,,,,,,,,,,,,,,,,,,,,,,,,,METAR,4.0
LFST 180730Z AUTO 18007KT 160V220 9999 OVC029 09/08 Q1016,LFST,2014-12-18T07:30:00Z,48.53,7.62,9.0,8.0,180,7,,6.21,30.0,,,TRUE,,,,,,,,OVC,2900,,,,,,,MVFR,,,,,,,,,,,,METAR,154.0
LFSG 180730Z AUTO 19011KT 9999 -RA FEW008 BKN022 BKN031 08/08 Q1017,LFSG,2014-12-18T07:30:00Z,48.33,6.07,8.0,8.0,190,11,,6.21,30.029528,,,TRUE,,,,,,,-RA,FEW,800,BKN,2200,BKN,3100,,,MVFR,,,,,,,,,,,,METAR,330.0
LFSB 180730Z 17005KT 7000 -RA FEW003 SCT027 BKN080 08/07 Q1018 TEMPO 4000 BR,LFSB,2014-12-18T07:30:00Z,47.6,7.52,8.0,7.0,170,5,,4.35,30.059055,,,,,,,,,,-RA,FEW,300,SCT,2700,BKN,8000,,,MVFR,,,,,,,,,,,,METAR,271.0
LFRZ 180730Z AUTO 26011KT 9999 -RA BKN010 OVC018 12/12 Q1022,LFRZ,2014-12-18T07:30:00Z,47.32,-2.17,12.0,12.0,260,11,,6.21,30.177166,,,TRUE,,,,,,,-RA,BKN,1000,OVC,1800,,,,,MVFR,,,,,,,,,,,,METAR,4.0
LFRV 180730Z AUTO 26007KT 220V290 9000 OVC004 11/11 Q1022,LFRV,2014-12-18T07:30:00Z,47.72,-2.72,11.0,11.0,260,7,,5.59,30.177166,,,TRUE,,,,,,,,OVC,400,,,,,,,LIFR,,,,,,,,,,,,METAR,133.0
LFRO 180730Z AUTO 24015KT 210V270 6000 -DZ BKN004 OVC010 11/11 Q1019,LFRO,2014-12-18T07:30:00Z,48.75,-3.47,11.0,11.0,240,15,,3.73,30.088583,,,TRUE,,,,,,,-DZ,BKN,400,OVC,1000,,,,,LIFR,,,,,,,,,,,,METAR,89.0
LFRN 180730Z AUTO 26009KT 9999 OVC017 12/10 Q1021,LFRN,2014-12-18T07:30:00Z,48.07,-1.72,12.0,10.0,260,9,,6.21,30.147638,,,TRUE,,,,,,,,OVC,1700,,,,,,,MVFR,,,,,,,,,,,,METAR,37.0
LFRM 180730Z AUTO 25008KT 200V280 9999 BKN008 OVC023 12/11 Q1020,LFRM,2014-12-18T07:30:00Z,47.95,0.2,12.0,11.0,250,8,,6.21,30.11811,,,TRUE,,,,,,,,BKN,800,OVC,2300,,,,,IFR,,,,,,,,,,,,METAR,52.0
LFRI 180730Z AUTO 27010KT 240V300 9999 OVC011 12/11 Q1024,LFRI,2014-12-18T07:30:00Z,46.7,-1.37,12.0,11.0,270,10,,6.21,30.236221,,,TRUE,,,,,,,,OVC,1100,,,,,,,MVFR,,,,,,,,,,,,METAR,91.0
LFRD 180730Z AUTO 25008KT 9999 OVC015 12/10 Q1019,LFRD,2014-12-18T07:30:00Z,48.58,-2.07,12.0,10.0,250,8,,6.21,30.088583,,,TRUE,,,,,,,,OVC,1500,,,,,,,MVFR,,,,,,,,,,,,METAR,59.0
LFOV 180730Z AUTO 25012KT 9999 BKN013 OVC019 12/10 Q1020,LFOV,2014-12-18T07:30:00Z,48.03,-0.75,12.0,10.0,250,12,,6.21,30.11811,,,TRUE,,,,,,,,BKN,1300,OVC,1900,,,,,MVFR,,,,,,,,,,,,METAR,101.0
LFMK 180730Z AUTO 27012KT 9999 -RA OVC012 11/10 Q1026,LFMK,2014-12-18T07:30:00Z,43.22,2.32,11.0,10.0,270,12,,6.21,30.295275,,,TRUE,,,,,,,-RA,OVC,1200,,,,,,,MVFR,,,,,,,,,,,,METAR,130.0
LFMI 180730Z AUTO 33015KT 9999 NSC 12/09 Q1019,LFMI,2014-12-18T07:30:00Z,43.52,4.92,12.0,9.0,330,15,,6.21,30.088583,,,TRUE,,,,,,,,,,,,,,,,,,,,,,,,,,,,METAR,24.0
LRTR 180730Z 00000KT 4500 BR NSC 04/04 Q1017 R11/190095 BECMG 5000,LRTR,2014-12-18T07:30:00Z,45.82,21.33,4.0,4.0,0,0,,2.8,30.029528,,,,,,,,,,BR,,,,,,,,,,,,,,,,,,,,,METAR,88.0
LRSB 180730Z VRB02KT 9999 FEW020 SCT080 05/03 Q1017,LRSB,2014-12-18T07:30:00Z,45.78,24.08,5.0,3.0,0,2,,6.21,30.029528,,,,,,,,,,,FEW,2000,SCT,8000,,,,,VFR,,,,,,,,,,,,METAR,444.0
LROP 180730Z VRB02KT 3000 BR FEW004 OVC005 03/02 Q1016 R08R/09//95 R08L/09//95 NOSIG,LROP,2014-12-18T07:30:00Z,44.57,26.1,3.0,2.0,0,2,,1.86,30.0,,,,,,TRUE,,,,BR,FEW,400,OVC,500,,,,,IFR,,,,,,,,,,,,METAR,95.0
LRCK 180730Z 30005KT 0400 R36/0800N FG BKN001 02/02 Q1014 R36/19//95 BECMG 1500 BR BKN005,LRCK,2014-12-18T07:30:00Z,44.37,28.48,2.0,2.0,300,5,,0.25,29.940945,,,,,,,,,,FG,BKN,100,,,,,,,LIFR,,,,,,,,,,,,METAR,108.0
LRBS 180730Z VRB02KT 2000 BR SCT003 OVC004 03/02 Q1016 BECMG 3000,LRBS,2014-12-18T07:30:00Z,44.5,26.08,3.0,2.0,0,2,,1.24,30.0,,,,,,,,,,BR,SCT,300,OVC,400,,,,,LIFR,,,,,,,,,,,,METAR,91.0
LFRK 180730Z AUTO 27017KT 9999 OVC007 12/11 Q1017,LFRK,2014-12-18T07:30:00Z,49.17,-0.45,12.0,11.0,270,17,,6.21,30.029528,,,TRUE,,,,,,,,OVC,700,,,,,,,IFR,,,,,,,,,,,,METAR,67.0
LFRC 180730Z AUTO 25017KT 2600 BR OVC002 11/11 Q1016,LFRC,2014-12-18T07:30:00Z,49.63,-1.47,11.0,11.0,250,17,,1.62,30.0,,,TRUE,,,,,,,BR,OVC,200,,,,,,,LIFR,,,,,,,,,,,,METAR,138.0
LFPN 180730Z AUTO 26013KT 9999 OVC009 12/11 Q1017,LFPN,2014-12-18T07:30:00Z,48.75,2.12,12.0,11.0,260,13,,6.21,30.029528,,,TRUE,,,,,,,,OVC,900,,,,,,,IFR,,,,,,,,,,,,METAR,164.0
LFOT 180730Z AUTO 26010KT 230V300 7000 OVC006 12/11 Q1021,LFOT,2014-12-18T07:30:00Z,47.43,0.72,12.0,11.0,260,10,,4.35,30.147638,,,TRUE,,,,,,,,OVC,600,,,,,,,IFR,,,,,,,,,,,,METAR,108.0
LFMH 180730Z 13003KT 6000 -RA SCT011 OVC033 09/09 Q1021 NOSIG,LFMH,2014-12-18T07:30:00Z,45.52,4.28,9.0,9.0,130,3,,3.73,30.147638,,,,,,TRUE,,,,-RA,SCT,1100,OVC,3300,,,,,MVFR,,,,,,,,,,,,METAR,402.0
LFMD 180730Z AUTO 36004KT 320V030 9999 NSC 08/05 Q1018,LFMD,2014-12-18T07:30:00Z,43.53,6.95,8.0,5.0,360,4,,6.21,30.059055,,,TRUE,,,,,,,,,,,,,,,,,,,,,,,,,,,,METAR,9.0
LFJR 180730Z AUTO 26011KT 9999 SCT006 BKN010 OVC015 11/11 Q1022,LFJR,2014-12-18T07:30:00Z,47.57,-0.3,11.0,11.0,260,11,,6.21,30.177166,,,TRUE,,,,,,,,SCT,600,BKN,1000,OVC,1500,,,MVFR,,,,,,,,,,,,METAR,60.0
LFGJ 180730Z AUTO 19010KT 6000 -RA BKN004 OVC008 09/08 Q1020,LFGJ,2014-12-18T07:30:00Z,47.05,5.43,9.0,8.0,190,10,,3.73,30.11811,,,TRUE,,,,,,,-RA,BKN,400,OVC,800,,,,,LIFR,,,,,,,,,,,,METAR,196.0
LFBE 180730Z AUTO 26009KT 4600 -DZ BR OVC003 13/12 Q1025,LFBE,2014-12-18T07:30:00Z,44.82,0.52,13.0,12.0,260,9,,2.86,30.265747,,,TRUE,,,,,,,-DZ BR,OVC,300,,,,,,,LIFR,,,,,,,,,,,,METAR,52.0
LFBA 180730Z AUTO 26009KT 8000 -DZ OVC007 12/11 Q1026,LFBA,2014-12-18T07:30:00Z,44.17,0.6,12.0,11.0,260,9,,4.97,30.295275,,,TRUE,,,,,,,-DZ,OVC,700,,,,,,,IFR,,,,,,,,,,,,METAR,60.0
LRTM 180730Z VRB02KT 6000 BKN027 05/04 Q1017,LRTM,2014-12-18T07:30:00Z,46.47,24.42,5.0,4.0,0,2,,3.73,30.029528,,,,,,,,,,,BKN,2700,,,,,,,MVFR,,,,,,,,,,,,METAR,309.0
LRSM 180730Z 22006KT 3500 BR BKN006 OVC042 04/04 Q1017 R01/29//95,LRSM,2014-12-18T07:30:00Z,47.7,22.88,4.0,4.0,220,6,,2.17,30.029528,,,,,,,,,,BR,BKN,600,OVC,4200,,,,,IFR,,,,,,,,,,,,METAR,124.0
LROD 180730Z 19006KT 0400 R19/0600N FG VV002 04/03 Q1018 R19/19//95,LROD,2014-12-18T07:30:00Z,47.03,21.92,4.0,3.0,190,6,,0.25,30.059055,,,,,,,,,,FG,OVX,0,,,,,,,LIFR,,,,,,,,,,,200,METAR,140.0
LRCL 180730Z 00000KT 3500 BR FEW009 BKN050 03/03 Q1017 R07/19//95,LRCL,2014-12-18T07:30:00Z,46.78,23.68,3.0,3.0,0,0,,2.17,30.029528,,,,,,,,,,BR,FEW,900,BKN,5000,,,,,IFR,,,,,,,,,,,,METAR,413.0
LRBM 180730Z 11002KT 3800 BR BKN025 04/04 Q1017 R10/19//95,LRBM,2014-12-18T07:30:00Z,47.67,23.47,4.0,4.0,110,2,,2.36,30.029528,,,,,,,,,,BR,BKN,2500,,,,,,,IFR,,,,,,,,,,,,METAR,185.0
LRAR 180730Z 00000KT 0400 R09/0600 R27/1000U FG FEW001 03/03 Q1018,LRAR,2014-12-18T07:30:00Z,46.18,21.27,3.0,3.0,0,0,,0.25,30.059055,,,,,,,,,,FG,FEW,100,,,,,,,LIFR,,,,,,,,,,,,METAR,118.0
LFPV 180730Z AUTO 26011KT 230V290 9999 OVC007 12/11 Q1017,LFPV,2014-12-18T07:30:00Z,48.77,2.2,12.0,11.0,260,11,,6.21,30.029528,,,TRUE,,,,,,,,OVC,700,,,,,,,IFR,,,,,,,,,,,,METAR,179.0
LFPC 180730Z AUTO 25012KT 9999 OVC007 12/11 Q1016,LFPC,2014-12-18T07:30:00Z,49.25,2.52,12.0,11.0,250,12,,6.21,30.0,,,TRUE,,,,,,,,OVC,700,,,,,,,IFR,,,,,,,,,,,,METAR,88.0
LFOA 180730Z AUTO 27011KT 2000 -DZ BR OVC003 12/12 Q1021,LFOA,2014-12-18T07:30:00Z,47.03,2.63,12.0,12.0,270,11,,1.24,30.147638,,,TRUE,,,,,,,-DZ BR,OVC,300,,,,,,,LIFR,,,,,,,,,,,,METAR,179.0
LFSL 180730Z AUTO 30009KT 3600 BR OVC003 12/11 Q1024,LFSL,2014-12-18T07:30:00Z,45.03,1.48,12.0,11.0,300,9,,2.24,30.236221,,,TRUE,,,,,,,BR,OVC,300,,,,,,,LIFR,,,,,,,,,,,,METAR,310.0
LFMV 180730Z AUTO 34007KT 9999 BKN074 OVC094 11/09 Q1020,LFMV,2014-12-18T07:30:00Z,43.9,4.9,11.0,9.0,340,7,,6.21,30.11811,,,TRUE,,,,,,,,BKN,7400,OVC,9400,,,,,VFR,,,,,,,,,,,,METAR,38.0
LFMP 180730Z AUTO 29016G30KT 240V320 9999 FEW037 BKN110 OVC130 15/09 Q1021,LFMP,2014-12-18T07:30:00Z,42.72,2.87,15.0,9.0,290,16,30,6.21,30.147638,,,TRUE,,,,,,,,FEW,3700,BKN,11000,OVC,13000,,,VFR,,,,,,,,,,,,METAR,48.0
LFLC 180730Z 00000KT 9999 BKN028 BKN036 10/09 Q1021 NOSIG,LFLC,2014-12-18T07:30:00Z,45.77,3.17,10.0,9.0,0,0,,6.21,30.147638,,,,,,TRUE,,,,,BKN,2800,BKN,3600,,,,,MVFR,,,,,,,,,,,,METAR,330.0
LFKJ 180730Z 03007KT CAVOK 07/06 Q1017 NOSIG,LFKJ,2014-12-18T07:30:00Z,41.92,8.8,7.0,6.0,30,7,,6.21,30.029528,,,,,,TRUE,,,,,CAVOK,,,,,,,,VFR,,,,,,,,,,,,METAR,9.0
LFKF 180730Z AUTO 05010KT 020V080 9999 NCD 12/08 Q1017,LFKF,2014-12-18T07:30:00Z,41.5,9.08,12.0,8.0,50,10,,6.21,30.029528,,,TRUE,,,,,,,,,,,,,,,,,,,,,,,,,,,,METAR,23.0
LFKB 180730Z 22003KT 190V250 9999 FEW023 SCT066 11/08 Q1017 NOSIG,LFKB,2014-12-18T07:30:00Z,42.53,9.47,11.0,8.0,220,3,,6.21,30.029528,,,,,,TRUE,,,,,FEW,2300,SCT,6600,,,,,VFR,,,,,,,,,,,,METAR,12.0
LJCE 180730Z 25004KT 210V290 0300 FG VV002 02/02 Q1019 RMK RED,LJCE,2014-12-18T07:30:00Z,45.9,15.52,2.0,2.0,250,4,,0.19,30.088583,,,,,,,,,,FG,OVX,0,,,,,,,LIFR,,,,,,,,,,,200,METAR,155.0
LFML 180730Z 33010KT CAVOK 12/08 Q1018 NOSIG,LFML,2014-12-18T07:30:00Z,43.45,5.22,12.0,8.0,330,10,,6.21,30.059055,,,,,,TRUE,,,,,CAVOK,,,,,,,,VFR,,,,,,,,,,,,METAR,36.0
LFLX 180730Z 26010KT 2800 -DZRA BR OVC004 12/11 Q1022 NOSIG,LFLX,2014-12-18T07:30:00Z,46.85,1.72,12.0,11.0,260,10,,1.74,30.177166,,,,,,TRUE,,,,-DZ -RA BR,OVC,400,,,,,,,LIFR,,,,,,,,,,,,METAR,157.0
LFLB 180730Z 00000KT 9999 FEW010 OVC083 05/05 Q1022 BECMG -RA,LFLB,2014-12-18T07:30:00Z,45.63,5.87,5.0,5.0,0,0,,6.21,30.177166,,,,,,,,,,,FEW,1000,OVC,8300,,,,,VFR,,,,,,,,,,,,METAR,239.0
LFCK 180730Z AUTO 27014KT 2100 RA BR OVC004 10/10 Q1027,LFCK,2014-12-18T07:30:00Z,43.55,2.28,10.0,10.0,270,14,,1.3,30.324802,,,TRUE,,,,,,,RA BR,OVC,400,,,,,,,LIFR,,,,,,,,,,,,METAR,240.0
LFBZ 180730Z 26005KT 190V320 4000 DZRA BKN003 SCT010 BKN016 11/11 Q1029 TEMPO 30015G25KT 2000 RADZ BKN005,LFBZ,2014-12-18T07:30:00Z,43.47,-1.52,11.0,11.0,260,5,,2.49,30.383858,,,,,,,,,,DZ RA,BKN,300,SCT,1000,BKN,1600,,,LIFR,,,,,,,,,,,,METAR,71.0
LFBT 180730Z AUTO 26006KT 9999 BKN036 OVC042 10/09 Q1029,LFBT,2014-12-18T07:30:00Z,43.17,0.0,10.0,9.0,260,6,,6.21,30.383858,,,TRUE,,,,,,,,BKN,3600,OVC,4200,,,,,VFR,,,,,,,,,,,,METAR,363.0
LFBP 180730Z 23008KT 3000 -DZ BR BKN006 OVC013 10/10 Q1029 NOSIG,LFBP,2014-12-18T07:30:00Z,43.37,-0.42,10.0,10.0,230,8,,1.86,30.383858,,,,,,TRUE,,,,-DZ BR,BKN,600,OVC,1300,,,,,IFR,,,,,,,,,,,,METAR,185.0
LFBO 180730Z AUTO 26011KT 9999 OVC009 11/10 Q1027,LFBO,2014-12-18T07:30:00Z,43.62,1.37,11.0,10.0,260,11,,6.21,30.324802,,,TRUE,,,,,,,,OVC,900,,,,,,,IFR,,,,,,,,,,,,METAR,153.0
LFBL 180730Z AUTO 27012KT 0200 R21/1300U R03/0750N FG VV/// 11/10 Q1023,LFBL,2014-12-18T07:30:00Z,45.87,1.17,11.0,10.0,270,12,,0.12,30.206694,,,TRUE,,,,,,,FG,OVX,0,,,,,,,LIFR,,,,,,,,,,,,METAR,402.0
LFBI 180730Z AUTO 27008KT 250V310 9999 OVC010 12/10 Q1023,LFBI,2014-12-18T07:30:00Z,46.57,0.32,12.0,10.0,270,8,,6.21,30.206694,,,TRUE,,,,,,,,OVC,1000,,,,,,,MVFR,,,,,,,,,,,,METAR,120.0
LFBH 180730Z AUTO 28009KT 9999 OVC011 12/11 Q1025,LFBH,2014-12-18T07:30:00Z,46.18,-1.2,12.0,11.0,280,9,,6.21,30.265747,,,TRUE,,,,,,,,OVC,1100,,,,,,,MVFR,,,,,,,,,,,,METAR,10.0
LFBD 180730Z AUTO 29010KT 8000 3800 -DZ OVC005 13/12 Q1026,LFBD,2014-12-18T07:30:00Z,44.82,-0.7,13.0,12.0,290,10,,4.97,30.295275,,,TRUE,,,,,,,-DZ,OVC,500,,,,,,,IFR,,,,,,,,,,,,METAR,61.0
LFYR 180730Z AUTO 26006KT 230V300 5000 -DZ BR BKN007 OVC013 12/12 Q1021,LFYR,2014-12-18T07:30:00Z,47.32,1.67,12.0,12.0,260,6,,3.11,30.147638,,,TRUE,,,,,,,-DZ BR,BKN,700,OVC,1300,,,,,IFR,,,,,,,,,,,,METAR,86.0
LFSX 180730Z AUTO 24005KT 210V270 3200 -RA BR OVC007 09/08 Q1018,LFSX,2014-12-18T07:30:00Z,47.77,6.33,9.0,8.0,240,5,,1.99,30.059055,,,TRUE,,,,,,,-RA BR,OVC,700,,,,,,,IFR,,,,,,,,,,,,METAR,273.0
LFSO 180730Z AUTO 21011KT 2700 -RA BR SCT003 OVC010 09/09 Q1016,LFSO,2014-12-18T07:30:00Z,48.57,5.97,9.0,9.0,210,11,,1.68,30.0,,,TRUE,,,,,,,-RA BR,SCT,300,OVC,1000,,,,,IFR,,,,,,,,,,,,METAR,350.0
LFSI 180730Z AUTO /////KT 9999 ////// 11/11 Q1017,LFSI,2014-12-18T07:30:00Z,48.62,4.9,11.0,11.0,,,,6.21,30.029528,,,TRUE,,,,,,,,,,,,,,,,,,,,,,,,,,,,METAR,140.0
LFRS 180730Z 26008KT 230V300 5000 -DZ BKN007 BKN016 12/11 Q1023 TEMPO 3000 -DZRA BKN003 BKN008,LFRS,2014-12-18T07:30:00Z,47.17,-1.6,12.0,11.0,260,8,,3.11,30.206694,,,,,,,,,,-DZ,BKN,700,BKN,1600,,,,,IFR,,,,,,,,,,,,METAR,27.0
LFRB 180730Z 25013KT 8000 -DZ BKN006 11/10 Q1020 TEMPO 4000 DZ BR,LFRB,2014-12-18T07:30:00Z,48.45,-4.42,11.0,10.0,250,13,,4.97,30.11811,,,,,,,,,,-DZ,BKN,600,,,,,,,IFR,,,,,,,,,,,,METAR,103.0
LFPO 180730Z 26010KT 230V290 9999 BKN011 13/11 Q1017 TEMPO BKN005,LFPO,2014-12-18T07:30:00Z,48.72,2.38,13.0,11.0,260,10,,6.21,30.029528,,,,,,,,,,,BKN,1100,,,,,,,MVFR,,,,,,,,,,,,METAR,96.0
LFPG 180730Z 26013KT 9999 BKN006 BKN013 12/12 Q1016 NOSIG,LFPG,2014-12-18T07:30:00Z,49.02,2.52,12.0,12.0,260,13,,6.21,30.0,,,,,,TRUE,,,,,BKN,600,BKN,1300,,,,,IFR,,,,,,,,,,,,METAR,109.0
LFMN 180730Z 33012KT 9999 FEW033 BKN170 10/02 Q1018 NOSIG,LFMN,2014-12-18T07:30:00Z,43.63,7.2,10.0,2.0,330,12,,6.21,30.059055,,,,,,TRUE,,,,,FEW,3300,BKN,17000,,,,,VFR,,,,,,,,,,,,METAR,10.0
LFLL 180730Z 13009KT 4000 -RA BR FEW010 OVC023 07/06 Q1021 NOSIG,LFLL,2014-12-18T07:30:00Z,45.72,5.07,7.0,6.0,130,9,,2.49,30.147638,,,,,,TRUE,,,,-RA BR,FEW,1000,OVC,2300,,,,,IFR,,,,,,,,,,,,METAR,240.0
LFMY 180730Z AUTO VRB04KT 9999 NSC 12/09 Q1019,LFMY,2014-12-18T07:30:00Z,43.6,5.08,12.0,9.0,0,4,,6.21,30.088583,,,TRUE,,,,,,,,,,,,,,,,,,,,,,,,,,,,METAR,60.0
LFMO 180730Z AUTO 31006KT 9999 BKN060 OVC078 11/09 Q1021,LFMO,2014-12-18T07:30:00Z,44.12,4.87,11.0,9.0,310,6,,6.21,30.147638,,,TRUE,,,,,,,,BKN,6000,OVC,7800,,,,,VFR,,,,,,,,,,,,METAR,55.0
LFKS 180730Z AUTO 28006KT 9999 NSC 11/08 Q1018,LFKS,2014-12-18T07:30:00Z,41.92,9.4,11.0,8.0,280,6,,6.21,30.059055,,,TRUE,,,,,,,,,,,,,,,,,,,,,,,,,,,,METAR,22.0
LFBM 180730Z AUTO 27008KT 5000 DZ BR OVC007 12/11 Q1028,LFBM,2014-12-18T07:30:00Z,43.92,-0.5,12.0,11.0,270,8,,3.11,30.35433,,,TRUE,,,,,,,DZ BR,OVC,700,,,,,,,IFR,,,,,,,,,,,,METAR,63.0
LFBG 180730Z AUTO 27008KT 9999 OVC004 12/12 Q1025,LFBG,2014-12-18T07:30:00Z,45.67,-0.32,12.0,12.0,270,8,,6.21,30.265747,,,TRUE,,,,,,,,OVC,400,,,,,,,LIFR,,,,,,,,,,,,METAR,31.0
LFBC 180730Z AUTO 29010KT 260V320 3800 DZ BR FEW007 BKN013 OVC020 13/13 Q1027,LFBC,2014-12-18T07:30:00Z,44.52,-1.12,13.0,13.0,290,10,,2.36,30.324802,,,TRUE,,,,,,,DZ BR,FEW,700,BKN,1300,OVC,2000,,,IFR,,,,,,,,,,,,METAR,33.0
LFRL 180730Z AUTO 26014KT 9999 -RADZ BKN007 OVC011 11/11 Q1021,LFRL,2014-12-18T07:30:00Z,48.27,-4.42,11.0,11.0,260,14,,6.21,30.147638,,,TRUE,,,,,,,-RA -DZ,BKN,700,OVC,1100,,,,,IFR,,,,,,,,,,,,METAR,82.0
LFRJ 180730Z AUTO 25016KT 7000 -DZ BKN006 OVC011 11/11 Q1020,LFRJ,2014-12-18T07:30:00Z,48.52,-4.15,11.0,11.0,250,16,,4.35,30.11811,,,TRUE,,,,,,,-DZ,BKN,600,OVC,1100,,,,,IFR,,,,,,,,,,,,METAR,115.0
LFOJ 180730Z AUTO 24012KT 9999 BKN009 OVC029 12/11 Q1019,LFOJ,2014-12-18T07:30:00Z,47.97,1.75,12.0,11.0,240,12,,6.21,30.088583,,,TRUE,,,,,,,,BKN,900,OVC,2900,,,,,IFR,,,,,,,,,,,,METAR,125.0
LFOE 180730Z AUTO 27011KT 9999 OVC010 12/11 Q1017,LFOE,2014-12-18T07:30:00Z,49.02,1.22,12.0,11.0,270,11,,6.21,30.029528,,,TRUE,,,,,,,,OVC,1000,,,,,,,MVFR,,,,,,,,,,,,METAR,146.0
LFOC 180730Z AUTO 25010KT 9999 SCT007 BKN012 OVC028 12/12 Q1019,LFOC,2014-12-18T07:30:00Z,48.03,1.37,12.0,12.0,250,10,,6.21,30.088583,,,TRUE,,,,,,,,SCT,700,BKN,1200,OVC,2800,,,MVFR,,,,,,,,,,,,METAR,127.0
LJPZ 180730Z 12007KT CAVOK 06/04 Q1019,LJPZ,2014-12-18T07:30:00Z,45.47,13.62,6.0,4.0,120,7,,6.21,30.088583,,,,,,,,,,,CAVOK,,,,,,,,VFR,,,,,,,,,,,,METAR,2.0
LJMB 180730Z 13002KT CAVOK 01/01 Q1018,LJMB,2014-12-18T07:30:00Z,46.47,15.67,1.0,1.0,130,2,,6.21,30.059055,,,,,,,,,,,CAVOK,,,,,,,,VFR,,,,,,,,,,,,METAR,265.0
UGSB 180730Z 14015KT 9999 FEW030 SCT070 15/01 Q1019 R13/CLRD70 NOSIG,UGSB,2014-12-18T07:30:00Z,41.62,41.6,15.0,1.0,140,15,,6.21,30.088583,,,,,,TRUE,,,,,FEW,3000,SCT,7000,,,,,VFR,,,,,,,,,,,,METAR,32.0
UGKO 180730Z 09009KT CAVOK 13/M00 Q1017 R07/09//70 NOSIG,UGKO,2014-12-18T07:30:00Z,42.18,42.48,13.0,0.0,90,9,,6.21,30.029528,,,,,,TRUE,,,,,CAVOK,,,,,,,,VFR,,,,,,,,,,,,METAR,68.0
UGTB 180730Z 30009KT 9000 NSC 05/01 Q1023 R31L/CLRD80 NOSIG,UGTB,2014-12-18T07:30:00Z,41.67,44.95,5.0,1.0,300,9,,5.59,30.206694,,,,,,TRUE,,,,,,,,,,,,,,,,,,,,,,,,,METAR,495.0
FMMI 180730Z 21004KT 170V250 9999 BKN017CB SCT100 25/23 Q1020 NOSIG,FMMI,2014-12-18T07:30:00Z,-18.8,47.47,25.0,23.0,210,4,,6.21,30.11811,,,,,,TRUE,,,,,BKN,1700,SCT,10000,,,,,MVFR,,,,,,,,,,,,METAR,1276.0
LFRG 180730Z AUTO 27013KT 9999 OVC005 12/11 Q1017,LFRG,2014-12-18T07:30:00Z,49.37,0.15,12.0,11.0,270,13,,6.21,30.029528,,,TRUE,,,,,,,,OVC,500,,,,,,,IFR,,,,,,,,,,,,METAR,146.0
GMFF 180730Z 18006KT 0000 0000N R27/M0050V0075N R09/P2000U FG BKN002 05/04 Q1027 NOSIG,GMFF,2014-12-18T07:30:00Z,33.92,-4.97,5.0,4.0,180,6,,0.0,30.324802,,,,,,TRUE,,,,FG,BKN,200,,,,,,,LIFR,,,,,,,,,,,,SPECI,579.0
KECU 180730Z AUTO 07003KT 1/4SM FG OVC001 12/12 A3010 RMK AO2,KECU,2014-12-18T07:30:00Z,29.95,-100.17,12.0,12.0,70,3,,0.25,30.100393,,,TRUE,TRUE,,,,,,FG,OVC,100,,,,,,,LIFR,,,,,,,,,,,,SPECI,725.0
KTVK 180730Z AUTO 07003KT 10SM BKN085 M04/M07 A3028 RMK AO2,KTVK,2014-12-18T07:30:00Z,40.68,-92.9,-4.0,-7.0,70,3,,10.0,30.280512,,,TRUE,TRUE,,,,,,,BKN,8500,,,,,,,VFR,,,,,,,,,,,,METAR,314.0
KTIP 180730Z AUTO 00000KT 10SM OVC019 M03/M07 A3030 RMK AO2 T10301069,KTIP,2014-12-18T07:30:00Z,40.28,-88.15,-3.0,-6.9,0,0,,10.0,30.301182,,,TRUE,TRUE,,,,,,,OVC,1900,,,,,,,MVFR,,,,,,,,,,,,METAR,225.0
KRPH 180730Z AUTO 12005KT 2 1/2SM BR OVC002 06/06 A3007 RMK AO2 T00600060,KRPH,2014-12-18T07:30:00Z,33.12,-98.55,6.0,6.0,120,5,,2.5,30.070866,,,TRUE,TRUE,,,,,,BR,OVC,200,,,,,,,LIFR,,,,,,,,,,,,METAR,342.0
KMWA 180730Z AUTO 06005KT 10SM BKN070 OVC090 00/M02 A3030 RMK AO2,KMWA,2014-12-18T07:30:00Z,37.77,-89.02,0.0,-2.0,60,5,,10.0,30.301182,,,TRUE,TRUE,,,,,,,BKN,7000,OVC,9000,,,,,VFR,,,,,,,,,,,,METAR,144.0
KETB 180730Z AUTO 30004KT 10SM OVC020 M06/M08 A3025 RMK AO2,KETB,2014-12-18T07:30:00Z,43.42,-88.13,-6.0,-8.0,300,4,,10.0,30.250984,,,TRUE,TRUE,,,,,,,OVC,2000,,,,,,,MVFR,,,,,,,,,,,,METAR,270.0
KDLL 180730Z AUTO 00000KT 10SM OVC019 M07/M10 A3026 RMK AO2 T10751097,KDLL,2014-12-18T07:30:00Z,43.52,-89.77,-7.5,-9.7,0,0,,10.0,30.259842,,,TRUE,TRUE,,,,,,,OVC,1900,,,,,,,MVFR,,,,,,,,,,,,METAR,299.0
KC29 180730Z AUTO 00000KT 10SM CLR M08/M10 A3028 RMK AO1 T10771102,KC29,2014-12-18T07:30:00Z,43.12,-89.53,-7.7,-10.2,0,0,,10.0,30.280512,,,TRUE,TRUE,,,,,,,CLR,,,,,,,,VFR,,,,,,,,,,,,METAR,283.0
K3T5 180730Z AUTO 01005KT 7SM -RA OVC006 16/15 A3007 RMK AO2 T01600151,K3T5,2014-12-18T07:30:00Z,29.9,-96.95,16.0,15.1,10,5,,7.0,30.070866,,,TRUE,TRUE,,,,,,-RA,OVC,600,,,,,,,IFR,,,,,,,,,,,,METAR,99.0
RJCM 180730Z 35020KT 5000 -SHSN FEW008 SCT015 BKN030 M00/M05 Q1007 RMK 1ST008 3ST015 5CU030 A2976,RJCM,2014-12-18T07:30:00Z,43.88,144.17,0.0,-5.0,350,20,,3.11,29.734253,,,,,,,,,,-SHSN,FEW,800,SCT,1500,BKN,3000,,,MVFR,,,,,,,,,,,,SPECI,36.0
WARS 180730Z 33010KT 8000 FEW017CB BKN018 30/26 Q1008 NOSIG,WARS,2014-12-18T07:30:00Z,-6.97,110.38,30.0,26.0,330,10,,4.97,29.763779,,,,,,TRUE,,,,,FEW,1700,BKN,1800,,,,,MVFR,,,,,,,,,,,,METAR,3.0
VIDP 180730Z 25006KT 1000 R28/1500 R10/1400 R29/1100 R11/1000 MIFG NSC 12/10 Q1020 NOSIG,VIDP,2014-12-18T07:30:00Z,28.57,77.12,12.0,10.0,250,6,,0.62,30.11811,,,,,,TRUE,,,,MIFG,,,,,,,,,,,,,,,,,,,,,SPECI,233.0
UTFA 180730Z 28003KT 250V310 5000 HZ NSC 06/M06 Q1022 R18/CLRD70,UTFA,2014-12-18T07:30:00Z,40.73,72.3,6.0,-6.0,280,3,,3.11,30.177166,,,,,,,,,,HZ,,,,,,,,,,,,,,,,,,,,,METAR,477.0
UUBW 180730Z 24006MPS 9999 SCT020 BKN200 01/M01 Q1006 NOSIG RMK SC025,UUBW,2014-12-18T07:30:00Z,55.55,38.15,1.0,-1.0,240,12,,6.21,29.704725,,,,,,TRUE,,,,,SCT,2000,BKN,20000,,,,,VFR,,,,,,,,,,,,METAR,115.0
VIJP 180730Z VRB02KT 3000 HZ SCT100 21/03 Q1021 NOSIG,VIJP,2014-12-18T07:30:00Z,26.82,75.78,21.0,3.0,0,2,,1.86,30.147638,,,,,,TRUE,,,,HZ,SCT,10000,,,,,,,IFR,,,,,,,,,,,,METAR,390.0
VIAR 180730Z VRB01KT 0100 R34/0250 FG VV/// 08/08 Q1021,VIAR,2014-12-18T07:30:00Z,31.7,74.8,8.0,8.0,0,1,,0.06,30.147638,,,,,,,,,,FG,OVX,0,,,,,,,LIFR,,,,,,,,,,,,SPECI,234.0
VILK 180730Z VRB02KT 2000 HZ NSC 20/11 Q1020 NOSIG,VILK,2014-12-18T07:30:00Z,26.75,80.87,20.0,11.0,0,2,,1.24,30.11811,,,,,,TRUE,,,,HZ,,,,,,,,,,,,,,,,,,,,,METAR,128.0
VOCI 180730Z 09005KT 6000 FEW020 SCT100 30/23 Q1009 NOSIG,VOCI,2014-12-18T07:30:00Z,10.15,76.4,30.0,23.0,90,5,,3.73,29.793306,,,,,,TRUE,,,,,FEW,2000,SCT,10000,,,,,MVFR,,,,,,,,,,,,METAR,8.0
DABS 180730Z 32014KT 8000 SCT026 BKN040 08/06 Q1022 RERA,DABS,2014-12-18T07:30:00Z,35.43,8.12,8.0,6.0,320,14,,4.97,30.177166,,,,,,,,,,,SCT,2600,BKN,4000,,,,,MVFR,,,,,,,,,,,,METAR,813.0
WADL 180730Z 23008KT 1000 TSRA FEW015CB SCT016 27/25 Q1008 CB ALL RWY TEMPO FM0730 TL0900 3000 TSRA FEW015CB SCT016,WADL,2014-12-18T07:30:00Z,-8.75,116.28,27.0,25.0,230,8,,0.62,29.763779,,,,,,,,,,TSRA,FEW,1500,SCT,1600,,,,,LIFR,,,,,,,,,,,,METAR,97.0
WIBB 180730Z 00000KT 9999 BKN015 FEW017CB 31/24 Q1007 NOSIG,WIBB,2014-12-18T07:30:00Z,0.47,101.45,31.0,24.0,0,0,,6.21,29.734253,,,,,,TRUE,,,,,BKN,1500,FEW,1700,,,,,MVFR,,,,,,,,,,,,METAR,31.0
WALL 180730Z 08006KT 060V120 9999 TS FEW017CB SCT018 30/26Q1007 RMK CB TO W AND NW,WALL,2014-12-18T07:30:00Z,-1.27,116.9,,,80,6,,6.21,29.734253,,,,,,,,,,TS,FEW,1700,SCT,1800,,,,,VFR,,,,,,,,,,,,METAR,3.0
WAOO 180730Z 25005KT 9999 SCT016 32/24 Q1007 NOSIG,WAOO,2014-12-18T07:30:00Z,-3.45,114.77,32.0,24.0,250,5,,6.21,29.734253,,,,,,TRUE,,,,,SCT,1600,,,,,,,VFR,,,,,,,,,,,,METAR,20.0
WIPT 180730Z 20008KT 170V240 9999 FEW020 31/24 Q1007,WIPT,2014-12-18T07:30:00Z,-0.78,100.28,31.0,24.0,200,8,,6.21,29.734253,,,,,,,,,,,FEW,2000,,,,,,,VFR,,,,,,,,,,,,METAR,5.0
WATT 180730Z 24006KT 9999 FEW015CB SCT016 32/26 Q1008 NOSIG RMK CB TO N AND NE,WATT,2014-12-18T07:30:00Z,-10.17,123.67,32.0,26.0,240,6,,6.21,29.763779,,,,,,TRUE,,,,,FEW,1500,SCT,1600,,,,,VFR,,,,,,,,,,,,METAR,102.0
UTTT 180730Z 24003KT 3000 FU NSC 07/M05 Q1024 R88/70D NOSIG,UTTT,2014-12-18T07:30:00Z,41.27,69.27,7.0,-5.0,240,3,,1.86,30.236221,,,,,,TRUE,,,,FU,,,,,,,,,,,,,,,,,,,,,METAR,489.0
UTST 180730Z 00000KT 9999 FEW066CB BKN140 BKN200 06/M02 Q1026 R88/CLRD70 NOSIG,UTST,2014-12-18T07:30:00Z,37.28,67.32,6.0,-2.0,0,0,,6.21,30.295275,,,,,,TRUE,,,,,FEW,6600,BKN,14000,BKN,20000,,,VFR,,,,,,,,,,,,SPECI,302.0
UTSS 180730Z 06004KT 030V100 6000 SCT100 BKN200 04/M01 Q1023 R88/70D NOSIG,UTSS,2014-12-18T07:30:00Z,39.7,66.98,4.0,-1.0,60,4,,3.73,30.206694,,,,,,TRUE,,,,,SCT,10000,BKN,20000,,,,,MVFR,,,,,,,,,,,,METAR,724.0
UTSK 180730Z 21008KT 8000 NSC 05/M01 Q1025 R16/CLRD70,UTSK,2014-12-18T07:30:00Z,38.83,65.77,5.0,-1.0,210,8,,4.97,30.265747,,,,,,,,,,,,,,,,,,,,,,,,,,,,,,,SPECI,1365.0
UTSB 180730Z 20004KT 4500 BR SCT017CB OVC100 03/M02 Q1025 R01/CLRD70 NOSIG,UTSB,2014-12-18T07:30:00Z,39.77,64.48,3.0,-2.0,200,4,,2.8,30.265747,,,,,,TRUE,,,,BR,SCT,1700,OVC,10000,,,,,IFR,,,,,,,,,,,,SPECI,226.0
UTSA 180730Z 17008KT 4100 BR NSC 05/00 Q1024 R07/CLRD70 NOSIG,UTSA,2014-12-18T07:30:00Z,40.12,65.17,5.0,0.0,170,8,,2.55,30.236221,,,,,,TRUE,,,,BR,,,,,,,,,,,,,,,,,,,,,SPECI,346.0
UTNU 180730Z 29005KT 240V330 CAVOK M01/M06 Q1026 R13/CLRD70 NOSIG,UTNU,2014-12-18T07:30:00Z,41.58,60.63,-1.0,-6.0,290,5,,6.21,30.295275,,,,,,TRUE,,,,,CAVOK,,,,,,,,VFR,,,,,,,,,,,,SPECI,98.0
UTNN 180730Z 32005KT CAVOK M04/M07 Q1028 R33/CLRD60 NOSIG,UTNN,2014-12-18T07:30:00Z,42.48,59.63,-4.0,-7.0,320,5,,6.21,30.35433,,,,,,TRUE,,,,,CAVOK,,,,,,,,VFR,,,,,,,,,,,,SPECI,67.0
WAAA 180730Z 27008KT 230V310 8000 FEW018CB SCT019 31/24 Q1007 NOSIG,WAAA,2014-12-18T07:30:00Z,-5.07,119.53,31.0,24.0,270,8,,4.97,29.734253,,,,,,TRUE,,,,,FEW,1800,SCT,1900,,,,,MVFR,,,,,,,,,,,,METAR,14.0
WADD 180730Z 26010KT 9999 FEW015CB SCT015 29/25 Q1007 NOSIG,WADD,2014-12-18T07:30:00Z,-8.73,115.17,29.0,25.0,260,10,,6.21,29.734253,,,,,,TRUE,,,,,FEW,1500,SCT,1500,,,,,VFR,,,,,,,,,,,,METAR,216.0
WIDD 180730Z 05016KT 9999 FEW020 31/25 Q1008 NOSIG,WIDD,2014-12-18T07:30:00Z,1.12,104.12,31.0,25.0,50,16,,6.21,29.763779,,,,,,TRUE,,,,,FEW,2000,,,,,,,VFR,,,,,,,,,,,,METAR,38.0
WARR 180730Z 08006KT 060V120 9999 FEW018 FEW020CB 31/24 Q1006,WARR,2014-12-18T07:30:00Z,-7.37,112.78,31.0,24.0,80,6,,6.21,29.704725,,,,,,,,,,,FEW,1800,FEW,2000,,,,,VFR,,,,,,,,,,,,METAR,2.0
WIMM 180730Z 01008KT 9999 SCT018 31/26 Q1007,WIMM,2014-12-18T07:30:00Z,3.57,98.67,31.0,26.0,10,8,,6.21,29.734253,,,,,,,,,,,SCT,1800,,,,,,,VFR,,,,,,,,,,,,METAR,25.0
LPPT 180730Z 01011KT 9999 FEW018 11/08 Q1029,LPPT,2014-12-18T07:30:00Z,38.77,-9.12,11.0,8.0,10,11,,6.21,30.383858,,,,,,,,,,,FEW,1800,,,,,,,VFR,,,,,,,,,,,,METAR,123.0
LPPS 180730Z 05009KT 020V090 9999 BKN015 16/12 Q1029,LPPS,2014-12-18T07:30:00Z,33.07,-16.35,16.0,12.0,50,9,,6.21,30.383858,,,,,,,,,,,BKN,1500,,,,,,,MVFR,,,,,,,,,,,,METAR,82.0
LPPR 180730Z 10004KT 070V140 CAVOK 04/04 Q1030,LPPR,2014-12-18T07:30:00Z,41.22,-8.67,4.0,4.0,100,4,,6.21,30.413385,,,,,,,,,,,CAVOK,,,,,,,,VFR,,,,,,,,,,,,METAR,73.0
LPMA 180730Z 02011KT 9999 SCT015 16/09 Q1029 RS01011KT 0501010KT 2302010KT,LPMA,2014-12-18T07:30:00Z,32.7,-16.77,16.0,9.0,20,11,,6.21,30.383858,,,,,,,,,,,SCT,1500,,,,,,,VFR,,,,,,,,,,,,SPECI,55.0
LPFR 180730Z 06003KT 360V120 CAVOK 08/07 Q1027,LPFR,2014-12-18T07:30:00Z,37.02,-7.97,8.0,7.0,60,3,,6.21,30.324802,,,,,,,,,,,CAVOK,,,,,,,,VFR,,,,,,,,,,,,METAR,4.0
LPPD 180730Z 17008KT 9999 FEW018 BKN035 16/11 Q1030,LPPD,2014-12-18T07:30:00Z,37.72,-25.68,16.0,11.0,170,8,,6.21,30.413385,,,,,,,,,,,FEW,1800,BKN,3500,,,,,VFR,,,,,,,,,,,,METAR,72.0
LPHR 180730Z 14008KT 9999 SCT012 BKN030 17/15 Q1028,LPHR,2014-12-18T07:30:00Z,38.52,-28.72,17.0,15.0,140,8,,6.21,30.35433,,,,,,,,,,,SCT,1200,BKN,3000,,,,,MVFR,,,,,,,,,,,,METAR,41.0
LPAZ 180730Z 15008KT 9999 FEW010 BKN035 15/12 Q1031,LPAZ,2014-12-18T07:30:00Z,36.97,-25.17,15.0,12.0,150,8,,6.21,30.442913,,,,,,,,,,,FEW,1000,BKN,3500,,,,,VFR,,,,,,,,,,,,METAR,100.0
YBTL 180730Z 01013KT CAVOK 29/20 Q1009,YBTL,2014-12-18T07:30:00Z,-19.25,146.75,29.0,20.0,10,13,,6.21,29.793306,,,,,,,,,,,CAVOK,,,,,,,,VFR,,,,,,,,,,,,METAR,6.0
YPTN 180730Z AUTO 02005KT 9999 // SCT094 38/21 Q1005,YPTN,2014-12-18T07:30:00Z,-14.52,132.38,38.0,21.0,20,5,,6.21,29.675198,,,TRUE,,,,,,,,SCT,9400,,,,,,,VFR,,,,,,,,,,,,METAR,109.0
YSTW 180730Z AUTO 28007KT 9999 // NCD 26/09 Q1008,YSTW,2014-12-18T07:30:00Z,-31.07,150.85,26.0,9.0,280,7,,6.21,29.763779,,,TRUE,,,,,,,,,,,,,,,,,,,,,,,,,,,,SPECI,410.0
YSSY 180730Z 05013KT 9999 FEW015 25/19 Q1004 RMK HZ NOSIG,YSSY,2014-12-18T07:30:00Z,-33.95,151.17,25.0,19.0,50,13,,6.21,29.64567,,,,,,,,,,,FEW,1500,,,,,,,VFR,,,,,,,,,,,,METAR,3.0
YPPH 180730Z 22016KT CAVOK 29/09 Q1013 RMK SMOKE,YPPH,2014-12-18T07:30:00Z,-31.93,115.98,29.0,9.0,220,16,,6.21,29.911417,,,,,,,,,,,CAVOK,,,,,,,,VFR,,,,,,,,,,,,METAR,13.0
YMML 180730Z 25010KT 9999 VCSH FEW020 SCT040 BKN090 16/10 Q1009 INTER 0730/0830 5000 SHRA SCT030,YMML,2014-12-18T07:30:00Z,-37.67,144.82,16.0,10.0,250,10,,6.21,29.793306,,,,,,,,,,VCSH,FEW,2000,SCT,4000,BKN,9000,,,VFR,,,,,,,,,,,,METAR,141.0
YPLM 180730Z AUTO 25016KT 9999 // NCD 38/11 Q1005,YPLM,2014-12-18T07:30:00Z,-22.22,114.07,38.0,11.0,250,16,,6.21,29.675198,,,TRUE,,,,,,,,,,,,,,,,,,,,,,,,,,,,METAR,6.0
YPKU 180730Z AUTO 01012KT 9999 // BKN081 36/23 Q1005,YPKU,2014-12-18T07:30:00Z,-15.77,128.68,36.0,23.0,10,12,,6.21,29.675198,,,TRUE,,,,,,,,BKN,8100,,,,,,,VFR,,,,,,,,,,,,SPECI,45.0
YPJT 180730Z AUTO 23014KT 9999 // NCD 27/10 Q1014,YPJT,2014-12-18T07:30:00Z,-32.1,115.88,27.0,10.0,230,14,,6.21,29.940945,,,TRUE,,,,,,,,,,,,,,,,,,,,,,,,,,,,METAR,30.0
YHID 180730Z AUTO 05007KT 9999 // NCD 31/23 Q1007,YHID,2014-12-18T07:30:00Z,-10.58,142.3,31.0,23.0,50,7,,6.21,29.734253,,,TRUE,,,,,,,,,,,,,,,,,,,,,,,,,,,,METAR,13.0
YBCG 180730Z AUTO 36010KT 9999 // NCD 26/24 Q1006,YBCG,2014-12-18T07:30:00Z,-28.17,153.5,26.0,24.0,360,10,,6.21,29.704725,,,TRUE,,,,,,,,,,,,,,,,,,,,,,,,,,,,METAR,6.0
YPDN 180730Z 30013KT 9999 FEW022 BKN300 32/26 Q1006,YPDN,2014-12-18T07:30:00Z,-12.42,130.9,32.0,26.0,300,13,,6.21,29.704725,,,,,,,,,,,FEW,2200,BKN,30000,,,,,VFR,,,,,,,,,,,,METAR,30.0
YCFS 180730Z AUTO 05008KT 9999 -RA SCT054 SCT120 21/21 Q1007 RERA,YCFS,2014-12-18T07:30:00Z,-30.32,153.12,21.0,21.0,50,8,,6.21,29.734253,,,TRUE,,,,,,,-RA,SCT,5400,SCT,12000,,,,,VFR,,,,,,,,,,,,METAR,5.0
YBCS 180730Z 01007KT 9999 FEW030 29/20 Q1008,YBCS,2014-12-18T07:30:00Z,-16.87,145.75,29.0,20.0,10,7,,6.21,29.763779,,,,,,,,,,,FEW,3000,,,,,,,VFR,,,,,,,,,,,,METAR,7.0
YBAS 180730Z AUTO 12010KT 9999 // BKN075 OVC087 32/17 Q1011,YBAS,2014-12-18T07:30:00Z,-23.8,133.9,32.0,17.0,120,10,,6.21,29.852362,,,TRUE,,,,,,,,BKN,7500,OVC,8700,,,,,VFR,,,,,,,,,,,,METAR,541.0
YPAD 180730Z 23018KT 9999 SCT030 21/10 Q1014 NOSIG,YPAD,2014-12-18T07:30:00Z,-34.95,138.52,21.0,10.0,230,18,,6.21,29.940945,,,,,,TRUE,,,,,SCT,3000,,,,,,,VFR,,,,,,,,,,,,METAR,4.0
YPWR 180730Z AUTO 22015KT 9999 // NCD 30/02 Q1012,YPWR,2014-12-18T07:30:00Z,-31.12,136.82,30.0,2.0,220,15,,6.21,29.88189,,,TRUE,,,,,,,,,,,,,,,,,,,,,,,,,,,,METAR,167.0
YWLM 180730Z AUTO 04009KT 9999 // NCD 26/21 Q1004,YWLM,2014-12-18T07:30:00Z,-32.8,151.83,26.0,21.0,40,9,,6.21,29.64567,,,TRUE,,,,,,,,,,,,,,,,,,,,,,,,,,,,SPECI,9.0
YBRK 180730Z AUTO 01011KT 9999 // NCD 33/17 Q1007,YBRK,2014-12-18T07:30:00Z,-23.37,150.47,33.0,17.0,10,11,,6.21,29.734253,,,TRUE,,,,,,,,,,,,,,,,,,,,,,,,,,,,METAR,14.0
YSRI 180730Z AUTO 33001KT 9999 // NCD 29/18 Q1003,YSRI,2014-12-18T07:30:00Z,-33.6,150.77,29.0,18.0,330,1,,6.21,29.616142,,,TRUE,,,,,,,,,,,,,,,,,,,,,,,,,,,,METAR,21.0
YPPD 180730Z AUTO 35017KT 9999 // NCD 31/23 Q////,YPPD,2014-12-18T07:30:00Z,-20.37,118.62,31.0,23.0,350,17,,6.21,,,,TRUE,,,,,,,,,,,,,,,,,,,,,,,,,,,,METAR,6.0
YSNF 180730Z AUTO 14006KT 9999 // SCT018 22/18 Q1017,YSNF,2014-12-18T07:30:00Z,-29.02,167.92,22.0,18.0,140,6,,6.21,30.029528,,,TRUE,,,,,,,,SCT,1800,,,,,,,VFR,,,,,,,,,,,,METAR,109.0
YBMA 180730Z AUTO 18014KT 9999 // NCD 31/17 Q1010,YBMA,2014-12-18T07:30:00Z,-20.67,139.47,31.0,17.0,180,14,,6.21,29.822834,,,TRUE,,,,,,,,,,,,,,,,,,,,,,,,,,,,METAR,344.0
YMLT 180730Z AUTO 34011KT 9999 // SCT069 14/11 Q1003,YMLT,2014-12-18T07:30:00Z,-41.52,147.18,14.0,11.0,340,11,,6.21,29.616142,,,TRUE,,,,,,,,SCT,6900,,,,,,,VFR,,,,,,,,,,,,SPECI,178.0
YPKG 180730Z AUTO 16007KT 9999 // NCD 31/00 Q1014,YPKG,2014-12-18T07:30:00Z,-30.77,121.45,31.0,0.0,160,7,,6.21,29.940945,,,TRUE,,,,,,,,,,,,,,,,,,,,,,,,,,,,SPECI,360.0
YMHB 180730Z 28012KT 9999 FEW045 BKN160 17/06 Q1001,YMHB,2014-12-18T07:30:00Z,-42.82,147.52,17.0,6.0,280,12,,6.21,29.557087,,,,,,,,,,,FEW,4500,BKN,16000,,,,,VFR,,,,,,,,,,,,METAR,27.0
YBHM 180730Z AUTO 33016KT 9999 // NCD 28/22 Q1010,YBHM,2014-12-18T07:30:00Z,-20.35,148.95,28.0,22.0,330,16,,6.21,29.822834,,,TRUE,,,,,,,,,,,,,,,,,,,,,,,,,,,,SPECI,5.0
YPGV 180730Z 05009KT CAVOK 32/24 Q1007 RMK FU TO E - TCU TOP TO SW,YPGV,2014-12-18T07:30:00Z,-12.27,136.82,32.0,24.0,50,9,,6.21,29.734253,,,,,,,,,,,CAVOK,,,,,,,,VFR,,,,,,,,,,,,SPECI,55.0
YGEL 180730Z 18023KT CAVOK 29/11 Q1009,YGEL,2014-12-18T07:30:00Z,-28.8,114.7,29.0,11.0,180,23,,6.21,29.793306,,,,,,,,,,,CAVOK,,,,,,,,VFR,,,,,,,,,,,,METAR,37.0
YFRT 180730Z AUTO 15013G23KT //// // ////// 28/08 Q1015,YFRT,2014-12-18T07:30:00Z,-30.83,128.12,28.0,8.0,150,13,23,,29.970472,,,TRUE,,,,,,,,,,,,,,,,,,,,,,,,,,,,SPECI,156.0
YSDU 180730Z AUTO 34016KT 9999 // NCD 30/04 Q1006,YSDU,2014-12-18T07:30:00Z,-32.22,148.57,30.0,4.0,340,16,,6.21,29.704725,,,TRUE,,,,,,,,,,,,,,,,,,,,,,,,,,,,METAR,275.0
YCIN 180730Z AUTO 32005KT //// // NCD 37/23 Q1003,YCIN,2014-12-18T07:30:00Z,-17.58,123.83,37.0,23.0,320,5,,,29.616142,,,TRUE,,,,,,,,,,,,,,,,,,,,,,,,,,,,SPECI,91.0
YBRM 180730Z 26012KT 9999 FEW025CB 33/25 Q1006 RMK CB DIST NE,YBRM,2014-12-18T07:30:00Z,-17.93,122.22,33.0,25.0,260,12,,6.21,29.704725,,,,,,,,,,,FEW,2500,,,,,,,VFR,,,,,,,,,,,,METAR,9.0
YMAV 180730Z AUTO 25007KT 9999 // SCT035 SCT056 BKN071 16/12 Q1009,YMAV,2014-12-18T07:30:00Z,-38.03,144.48,16.0,12.0,250,7,,6.21,29.793306,,,TRUE,,,,,,,,SCT,3500,SCT,5600,BKN,7100,,,VFR,,,,,,,,,,,,SPECI,8.0
UMKK 180730Z 22004MPS 6000 BKN026 OVC066 02/M00 Q1005 R24/29//55 NOSIG RMK QFE753/1004,UMKK,2014-12-18T07:30:00Z,54.88,20.6,2.0,0.0,220,8,,3.73,29.675198,,,,,,TRUE,,,,,BKN,2600,OVC,6600,,,,,MVFR,,,,,,,,,,,,SPECI,21.0
ULOO 180730Z 23004MPS P6000 SCT008 OVC036 02/01 Q1001 19190060 NOSIG RMK QFE746,ULOO,2014-12-18T07:30:00Z,57.78,28.4,2.0,1.0,230,8,,3.73,29.557087,,,,,,TRUE,,,,,SCT,800,OVC,3600,,,,,MVFR,,,,,,19.19,,,,,,SPECI,47.0
UUYY 180730Z 18008G11MPS 4000 -SHSN SCT010 BKN016CB OVC066 M02/M04 Q0999 TEMPO 1000 SHSN 1929//41 RMK QFE740/0987,UUYY,2014-12-18T07:30:00Z,61.65,50.82,-2.0,-4.0,180,16,21,2.49,29.498032,,,,,,,,,,-SHSN,SCT,1000,BKN,1600,OVC,6600,,,IFR,,,,,,,,,,,,SPECI,119.0
UUOO 180730Z 32005MPS 9999 OVC018 03/02 Q1012 NOSIG RMK 30290245,UUOO,2014-12-18T07:30:00Z,51.82,39.23,3.0,2.0,320,10,,6.21,29.88189,,,,,,TRUE,,,,,OVC,1800,,,,,,,MVFR,,,,,,,,,,,,SPECI,157.0
ULMM 180730Z VRB02MPS 9999 BKN013CB M02/M03 Q0989 NOSIG RMK QFE735 13590537,ULMM,2014-12-18T07:30:00Z,68.78,32.75,-2.0,-3.0,0,4,,6.21,29.202755,,,,,,TRUE,,,,,BKN,1300,,,,,,,MVFR,,,,,,,,,,,,SPECI,51.0
ULAA 180730Z VRB01MPS 9999 OVC011 00/M00 Q0988 26920550 TEMPO 0500 +SHSN BKN002CB RMK QFE739/0986,ULAA,2014-12-18T07:30:00Z,64.6,40.72,0.0,0.0,0,2,,6.21,29.17323,,,,,,,,,,,OVC,1100,,,,,,,MVFR,,,,,,,,,,,,SPECI,19.0
VTBU 180730Z 02007KT 7000 FEW025 SCT300 30/14 Q1012 A2990,VTBU,2014-12-18T07:30:00Z,12.68,101.0,30.0,14.0,20,7,,4.35,29.88189,,,,,,,,,,,FEW,2500,SCT,30000,,,,,MVFR,,,,,,,,,,,,METAR,5.0
KO86 180730Z AUTO 29003KT 8SM OVC025 04/04 A3008 RMK AO1 P0002,KO86,2014-12-18T07:30:00Z,40.98,-122.7,4.0,4.0,290,3,,8.0,30.079725,,,TRUE,TRUE,,,,,,,OVC,2500,,,,,,,MVFR,,,,,,0.02,,,,,,SPECI,729.0
URFF 180730Z 20005MPS 9999 FEW026CB BKN040 OVC100 11/09 Q1013 19290355 NOSIG,URFF,2014-12-18T07:30:00Z,45.03,33.98,11.0,9.0,200,10,,6.21,29.911417,,,,,,TRUE,,,,,FEW,2600,BKN,4000,OVC,10000,,,VFR,,,,,,,,,,,,METAR,188.0
URWW 180730Z 14006MPS 0350 R11/0350D FZFG VV002 M03/M03 Q1019 NOSIG RMK QBB070 OBST OBSC 11310057,URWW,2014-12-18T07:30:00Z,48.78,44.33,-3.0,-3.0,140,12,,0.22,30.088583,,,,,,TRUE,,,,FZFG,OVX,0,,,,,,,LIFR,,-31.0,,,,,,,,,200,METAR,147.0
URWA 180730Z 10002MPS 0600 R09/0650 FZDZ FZFG VV002 M03/M04 Q1023 NOSIG RMK QBB080 OBST OBSC QFE769/1026 SC035,URWA,2014-12-18T07:30:00Z,46.28,48.02,-3.0,-4.0,100,4,,0.37,30.206694,,,,,,TRUE,,,,FZDZ FZFG,OVX,0,,,,,,,LIFR,,,,,,,,,,,200,METAR,-20.0
URSS 180730Z 07004MPS 9999 FEW130 BKN210 10/00 Q1017 NOSIG RMK R02/04003MPS QFE762 06000070 02//////,URSS,2014-12-18T07:30:00Z,43.45,39.95,10.0,0.0,70,8,,6.21,30.029528,,,,,,TRUE,,,,,FEW,13000,BKN,21000,,,,,VFR,,,,,,,,,,,,METAR,16.0
URRR 180730Z 11003MPS 3000 -SHRA BR SCT010 FEW033CB BKN100 02/01 Q1016 04290045 NOSIG,URRR,2014-12-18T07:30:00Z,47.25,39.82,2.0,1.0,110,6,,1.86,30.0,,,,,,TRUE,,,,-SHRA BR,SCT,1000,FEW,3300,BKN,10000,,,IFR,,,,,,,,,,,,METAR,77.0
URMT 180730Z 00000MPS 9999 SCT026 BKN100 05/02 Q1016 NOSIG RMK QFE723 SC060,URMT,2014-12-18T07:30:00Z,45.12,42.12,5.0,2.0,0,0,,6.21,30.0,,,,,,TRUE,,,,,SCT,2600,BKN,10000,,,,,VFR,,,,,,,,,,,,METAR,453.0
URMO 180730Z 00000MPS 0350 R10/0200VP1500U FZFG OVC002 M02/M02 Q1016 BECMG 2500 BR OVC003 RMK QBB060 MT OBSC QFE718/0958 SC070,URMO,2014-12-18T07:30:00Z,43.2,44.6,-2.0,-2.0,0,0,,0.22,30.0,,,,,,,,,,FZFG,OVC,200,,,,,,,LIFR,,,,,,,,,,,,METAR,510.0
URMN 180730Z 00000MPS 0500 FZFG VV001 M01/M01 Q1016 NOSIG RMK QBB050 MT OBSC OBST OBSC QFE725 SC06,URMN,2014-12-18T07:30:00Z,43.52,43.63,-1.0,-1.0,0,0,,0.31,30.0,,,,,,TRUE,,,,FZFG,OVX,0,,,,,,,LIFR,,,,,,,,,,,100,METAR,445.0
URMM 180730Z 30002MPS 7000 OVC006 00/M01 Q1018 R12/CLRD70 NOSIG RMK MT OBSC QFE735/0980,URMM,2014-12-18T07:30:00Z,44.22,43.1,0.0,-1.0,300,4,,4.35,30.059055,,,,,,TRUE,,,,,OVC,600,,,,,,,IFR,,,,,,,,,,,,METAR,314.0
URML 180730Z 25002MPS 200V270 5000 BR OVC016 08/05 Q1017 NOSIG RMK QFE763/1017,URML,2014-12-18T07:30:00Z,42.82,47.65,8.0,5.0,250,4,,3.11,30.029528,,,,,,TRUE,,,,BR,OVC,1600,,,,,,,MVFR,,,,,,,,,,,,METAR,4.0
URKK 180730Z 09001MPS CAVOK 07/04 Q1016 NOSIG RMK QFE758 SC070,URKK,2014-12-18T07:30:00Z,45.03,39.15,7.0,4.0,90,2,,6.21,30.0,,,,,,TRUE,,,,,CAVOK,,,,,,,,VFR,,,,,,,,,,,,METAR,34.0
URKA 180730Z 17005MPS CAVOK 11/09 Q1015 NOSIG RMK QFE756/1009 SC060,URKA,2014-12-18T07:30:00Z,45.0,37.35,11.0,9.0,170,10,,6.21,29.970472,,,,,,TRUE,,,,,CAVOK,,,,,,,,VFR,,,,,,,,,,,,METAR,53.0
UWGG 180730Z 22004G10MPS 9999 -RA OVC014 02/01 Q1004 TEMPO 22006G13MPS 18290040 RMK QFE746,UWGG,2014-12-18T07:30:00Z,56.23,43.78,2.0,1.0,220,8,19,6.21,29.64567,,,,,,,,,,-RA,OVC,1400,,,,,,,MVFR,,,,,,,,,,,,SPECI,73.0
UUOB 180730Z 33003MPS 9999 OVC014 02/01 Q1013 29290055 NOSIG,UUOB,2014-12-18T07:30:00Z,50.65,36.58,2.0,1.0,330,6,,6.21,29.911417,,,,,,TRUE,,,,,OVC,1400,,,,,,,MVFR,,,,,,,,,,,,METAR,224.0
ULWC 180730Z 25002MPS 9999 BKN008 OVC/// 00/M00 Q0996 NOSIG RMK QBB260 QFE737/0983 SC037,ULWC,2014-12-18T07:30:00Z,59.28,38.02,0.0,0.0,250,4,,6.21,29.409449,,,,,,TRUE,,,,,BKN,800,,,,,,,IFR,,,,,,,,,,,,METAR,115.0
USCM 180730Z VRB02MPS 9999 SCT100 M08/M10 Q1026 NOSIG 19090060 RMK QFE731,USCM,2014-12-18T07:30:00Z,53.4,58.75,-8.0,-10.0,0,4,,6.21,30.295275,,,,,,TRUE,,,,,SCT,10000,,,,,,,VFR,,,,,,,,,,,,METAR,435.0
UUMO 180730Z 23004MPS 9999 BKN011 01/00 Q1007 NOSIG RMK QFE740/0986 26980350,UUMO,2014-12-18T07:30:00Z,55.52,37.5,1.0,0.0,230,8,,6.21,29.734253,,,,,,TRUE,,,,,BKN,1100,,,,,,,MVFR,,,,,,,,,,,,METAR,174.0
UUWW 180730Z 22006MPS 9999 -SN BKN008 OVC100 01/M00 Q1006 19520250 NOSIG,UUWW,2014-12-18T07:30:00Z,55.6,37.27,1.0,0.0,220,12,,6.21,29.704725,,,,,,TRUE,,,,-SN,BKN,800,OVC,10000,,,,,IFR,,,,,,,,,,,,SPECI,203.0
UUEE 180730Z 21006MPS 9999 BKN008 01/M00 Q1005 75710145 NOSIG,UUEE,2014-12-18T07:30:00Z,55.97,37.42,1.0,0.0,210,12,,6.21,29.675198,,,,,,TRUE,,,,,BKN,800,,,,,,,IFR,,,,,,,,,57.1,,,SPECI,190.0
UUDL 180730Z 24006MPS 9999 BKN010 01/M00 Q1000 NOSIG RMK QFE742 23690337,UUDL,2014-12-18T07:30:00Z,57.57,40.17,1.0,0.0,240,12,,6.21,29.52756,,,,,,TRUE,,,,,BKN,1000,,,,,,,MVFR,,,,,,,,,,,,METAR,88.0
UUDD 180730Z 24006MPS 9999 BKN015 01/M00 Q1007 32550193 82290095 NOSIG,UUDD,2014-12-18T07:30:00Z,55.4,37.9,1.0,0.0,240,12,,6.21,29.734253,,,,,,TRUE,,,,,BKN,1500,,,,,,,MVFR,,,,,,,,,,,,SPECI,168.0
ULLI 180730Z 25003MPS 210V300 9999 BKN043 01/M01 Q0997 28510345 78////// NOSIG,ULLI,2014-12-18T07:30:00Z,59.8,30.27,1.0,-1.0,250,6,,6.21,29.438976,,,,,,TRUE,,,,,BKN,4300,,,,,,,VFR,,,,,,,,,,,,SPECI,4.0
UIUU 180730Z 32002MPS 270V030 9999 SCT040 BKN100 M09/M16 Q1025 NOSIG RMK QFE724/0965 26491045,UIUU,2014-12-18T07:30:00Z,51.8,107.45,-9.0,-16.0,320,4,,6.21,30.265747,,,,,,TRUE,,,,,SCT,4000,BKN,10000,,,,,VFR,,,,,,,,,,,,SPECI,515.0
UIII 180730Z 30006MPS 5000 -SN BKN021 BKN100 OVC200 M08/M11 Q1028 NOSIG RMK QFE726/0968 30490245,UIII,2014-12-18T07:30:00Z,52.27,104.4,-8.0,-11.0,300,12,,3.11,30.35433,,,,,,TRUE,,,,-SN,BKN,2100,BKN,10000,OVC,20000,,,MVFR,,,,,,,,,,,,SPECI,513.0
UIBB 180730Z 26006MPS 9999 SCT016CB BKN100 M11/M15 Q1025 NOSIG RMK QFE725/0967 30451035,UIBB,2014-12-18T07:30:00Z,56.37,101.7,-11.0,-15.0,260,12,,6.21,30.265747,,,,,,TRUE,,,,,SCT,1600,BKN,10000,,,,,VFR,,,,,,,,,,,,SPECI,490.0
UIAA 180730Z 26004MPS 9999 FEW050 M08/M16 Q1015 NOSIG RMK QFE702 29490050,UIAA,2014-12-18T07:30:00Z,52.02,113.32,-8.0,-16.0,260,8,,6.21,29.970472,,,,,,TRUE,,,,,FEW,5000,,,,,,,VFR,,,,,,,,,,,,METAR,685.0
USHH 180730Z 19007G10MPS 6000 BKN003 OVC080 M03/M04 Q1018 TEMPO 1000 SN BR BKN003 RMK QBB110 QFE760 24////35,USHH,2014-12-18T07:30:00Z,61.03,69.08,-3.0,-4.0,190,14,19,3.73,30.059055,,,,,,,,,,,BKN,300,OVC,8000,,,,,LIFR,,,,,,,,,,,,METAR,23.0
USTR 180730Z 19004MPS 9999 SCT010 M09/M09 Q1025 NOSIG RMK QFE759/1012 21350063 30450250,USTR,2014-12-18T07:30:00Z,57.17,65.32,-9.0,-9.0,190,8,,6.21,30.265747,,,,,,TRUE,,,,,SCT,1000,,,,,,,VFR,,,-35.0,,,,,,,,,SPECI,115.0
UNTT 180730Z 21006MPS 4700 -SHSN SCT006 BKN020CB OVC066 M08/M10 Q1033 NOSIG RMK QFE760 21490335,UNTT,2014-12-18T07:30:00Z,56.38,85.22,-8.0,-10.0,210,12,,2.92,30.501968,,,,,,TRUE,,,,-SHSN,SCT,600,BKN,2000,OVC,6600,,,IFR,,,-49.0,,,,,,,,,METAR,182.0
UNOO 180730Z 20003MPS 6000 SCT011 OVC066 M11/M12 Q1034 25450545 NOSIG RMK QFE767,UNOO,2014-12-18T07:30:00Z,54.97,73.32,-11.0,-12.0,200,6,,3.73,30.531496,,,,,,TRUE,,,,,SCT,1100,OVC,6600,,,,,MVFR,,,,,,,,,,,,SPECI,95.0
UNNT 180730Z 24003MPS CAVOK M11/M14 Q1037 25810155 16490245 NOSIG RMK QFE767/1023,UNNT,2014-12-18T07:30:00Z,55.02,82.63,-11.0,-14.0,240,6,,6.21,30.620079,,,,,,TRUE,,,,,CAVOK,,,,,,,,VFR,,,,,,,,,,,,SPECI,111.0
UNKL 180730Z 25004G08MPS 210V280 9999 SCT023CB OVC083 M07/M12 Q1033 NOSIG RMK QFE749 29////50,UNKL,2014-12-18T07:30:00Z,56.17,92.48,-7.0,-12.0,250,8,16,6.21,30.501968,,,,,,TRUE,,,,,SCT,2300,OVC,8300,,,,,VFR,,,,,,,,,,,,SPECI,276.0
UNEE 180730Z 23004MPS 9999 FEW020CB SCT200 M09/M11 Q1035 NOSIG RMK QFE753 23492032,UNEE,2014-12-18T07:30:00Z,55.27,86.08,-9.0,-11.0,230,8,,6.21,30.561024,,,,,,TRUE,,,,,FEW,2000,SCT,20000,,,,,VFR,,,,,,,,,,,,SPECI,260.0
UNBB 180730Z 00000MPS CAVOK M10/M12 Q1035 NOSIG RMK QFE754/1005 24450534,UNBB,2014-12-18T07:30:00Z,53.37,83.53,-10.0,-12.0,0,0,,6.21,30.561024,,,,,,TRUE,,,,,CAVOK,,,,,,,,VFR,,,,,,,,,,,,SPECI,255.0
UNAA 180730Z 12003MPS CAVOK M07/M13 Q1036 NOSIG RMK QFE754 52190055,UNAA,2014-12-18T07:30:00Z,53.75,91.4,-7.0,-13.0,120,6,,6.21,30.590551,,,,,,TRUE,,,,,CAVOK,,,,,,,,VFR,0.0,,,,,,,,,,,SPECI,245.0
USSS 180730Z 22004MPS 9999 BKN016 OVC067 M04/M06 Q1022 7629//40 26820342 TEMPO 23012MPS RMK QFE746,USSS,2014-12-18T07:30:00Z,56.75,60.82,-4.0,-6.0,220,8,,6.21,30.177166,,,,,,,,,,,BKN,1600,OVC,6700,,,,,MVFR,,,,,,,,,,,,SPECI,233.0
USRR 180730Z 21006G09MPS 6000 OVC005 M04/M05 Q1020 TEMPO BKN005 RMK QBB170 OBST OBSC QFE760 25////37,USRR,2014-12-18T07:30:00Z,61.33,73.42,-4.0,-5.0,210,12,17,3.73,30.11811,,,,,,,,,,,OVC,500,,,,,,,IFR,,,,,,,,,,,,SPECI,44.0
USNN 180730Z 21006MPS 9000 OVC012 M05/M08 Q1022 NOSIG RMK QFE762 2139//39,USNN,2014-12-18T07:30:00Z,60.95,76.48,-5.0,-8.0,210,12,,5.59,30.177166,,,,,,TRUE,,,,,OVC,1200,,,,,,,MVFR,,,,,,,,,,,,SPECI,54.0
USCC 180730Z 16004MPS 3000 BR FU SCT006 BKN070 M08/M09 Q1025 27390040 TEMPO 1100 BR FU VV005 RMK QFE749,USCC,2014-12-18T07:30:00Z,55.3,61.5,-8.0,-9.0,160,8,,1.86,30.265747,,,,,,,,,,BR FU,SCT,600,BKN,7000,,,,,IFR,,,,,,,,,,,,SPECI,234.0
UWUU 180730Z 16003G06MPS 070V230 4000 BR OVC005 M05/M06 Q1025 WS RWY14 14811046 TEMPO 2000 -SN BR BKN005 RMK QBB150 QFE758/1011,UWUU,2014-12-18T07:30:00Z,54.57,55.87,-5.0,-6.0,160,6,12,2.49,30.265747,,,,,,,,,,BR,OVC,500,,,,,,,IFR,,,,,,,,,,,,SPECI,137.0
UEEE 180730Z 00000MPS 0400 R23L/1000U FG BKN200 M48/M53 Q1027 NOSIG RMK QFE762 23490150,UEEE,2014-12-18T07:30:00Z,62.08,129.77,-48.0,-53.0,0,0,,0.25,30.324802,,,,,,TRUE,,,,FG,BKN,20000,,,,,,,LIFR,,,,,,,,,,,,SPECI,103.0
UWWW 180730Z 16006G10MPS 130V190 9999 SCT026 OVC100 M04/M07 Q1020 23550538 15//99// NOSIG RMK QFE753/1005,UWWW,2014-12-18T07:30:00Z,53.5,50.17,-4.0,-7.0,160,12,19,6.21,30.11811,,,,,,TRUE,,,,,SCT,2600,OVC,10000,,,,,VFR,,,,,,,,,,,,SPECI,146.0
UWSS 180730Z 19005G08MPS 2000 BR OVC004 M07/M07 Q1017 12390145 TEMPO 0500 FZFG RMK QFE751,UWSS,2014-12-18T07:30:00Z,51.57,46.07,-7.0,-7.0,190,10,16,1.24,30.029528,,,,,,,,,,BR,OVC,400,,,,,,,LIFR,,,,,,,,,,,,SPECI,166.0
UWOO 180730Z VRB02MPS 3200 BR BKN006 OVC100 M09/M10 Q1029 08810245 TEMPO 1000 FZDZ BR OVC003 RMK QBB180 QFE761/1015,UWOO,2014-12-18T07:30:00Z,51.8,55.47,-9.0,-10.0,0,4,,1.99,30.383858,,,,,,,,,,BR,BKN,600,OVC,10000,,,,,IFR,,,,,,,,,,,,SPECI,109.0
UWKS 180730Z 19008MPS 2600 -SHSNRA OVC007CB M02/M03 Q1007 TEMPO 1000 SHSNRA OVC003CB RMK QFE741 24590239,UWKS,2014-12-18T07:30:00Z,56.08,47.35,-2.0,-3.0,190,16,,1.62,29.734253,,,,,,,,,,-SHSN -SHRA,OVC,700,,,,,,,IFR,,,,,,,,,,,,METAR,170.0
UWKE 180730Z 18013G16MPS 9999 -BLSN OVC100 M03/M06 Q1016 WS RWY21 NOSIG RMK QFE745/0993 21410560,UWKE,2014-12-18T07:30:00Z,55.57,52.08,-3.0,-6.0,180,25,31,6.21,30.0,,,,,,TRUE,,,,-BLSN,OVC,10000,,,,,,,VFR,,,-41.0,,,,,,,,,SPECI,196.0
UWKD 180730Z 19014G17MPS 9999 DRSN FEW033 BKN070 M03/M06 Q1011 R11/7/0060 TEMPO 2000 FZRA RMK QFE748/0998,UWKD,2014-12-18T07:30:00Z,55.62,49.28,-3.0,-6.0,190,27,33,6.21,29.852362,,,,,,,,,,DRSN,FEW,3300,BKN,7000,,,,,VFR,,,,,,,,,,,,SPECI,126.0
USPP 180730Z 18006G09MPS 9999 -SN OVC013 M03/M05 Q1016 21290150 NOSIG RMK QFE751/1002 MOD ICE INC 500-700,USPP,2014-12-18T07:30:00Z,57.92,56.02,-3.0,-5.0,180,12,17,6.21,30.0,,,,,,TRUE,,,,-SN,OVC,1300,,,,,,,MVFR,,,-29.0,,,,,,,,,SPECI,123.0
UHWW 180730Z 03004MPS 9999 SKC M16/M26 Q1032 NOSIG RMK 530005 QFE773/1031 57CLRD60,UHWW,2014-12-18T07:30:00Z,43.4,132.15,-16.0,-26.0,30,8,,6.21,30.47244,,,,,,TRUE,,,,,SKC,,,,,,,,VFR,0.0,,,,,,,,,,,SPECI,184.0
UHSS 180730Z 01007MPS 9999 -SHSN BKN019CB M03/M07 Q1013 NOSIG RMK MT OBSC QFE759/1012 01820335,UHSS,2014-12-18T07:30:00Z,46.88,142.72,-3.0,-7.0,10,14,,6.21,29.911417,,,,,,TRUE,,,,-SHSN,BKN,1900,,,,,,,MVFR,,,,,,,,,,,,SPECI,31.0
UHPP 180730Z 01003MPS 9999 NSC M12/M16 Q0999 NOSIG RMK QFE746/0994 SC070,UHPP,2014-12-18T07:30:00Z,53.17,158.45,-12.0,-16.0,10,6,,6.21,29.498032,,,,,,TRUE,,,,,,,,,,,,,,,,,,,,,,,,,SPECI,40.0
UHMM 180730Z 11002MPS 9999 FEW200 M28/M31 Q1012 NOSIG RMK QFE744 88920550,UHMM,2014-12-18T07:30:00Z,59.92,150.72,-28.0,-31.0,110,4,,6.21,29.88189,,,,,,TRUE,,,,,FEW,20000,,,,,,,VFR,,,,,,,,,,,,SPECI,118.0
UHHH 180730Z 23006MPS CAVOK M20/M24 Q1027 NOSIG RMK QFE764/1019 23490540,UHHH,2014-12-18T07:30:00Z,48.52,135.18,-20.0,-24.0,230,12,,6.21,30.324802,,,,,,TRUE,,,,,CAVOK,,,,,,,,VFR,,,,,,,,,,,,SPECI,72.0
UHBB 180730Z 10001MPS CAVOK M23/M26 Q1025 NOSIG RMK QFE753/1005 18090060,UHBB,2014-12-18T07:30:00Z,50.43,127.42,-23.0,-26.0,100,2,,6.21,30.265747,,,,,,TRUE,,,,,CAVOK,,,,,,,,VFR,,,,,,,,,,,,METAR,195.0
GABS 180730Z 05009KT CAVOK 21/M04 Q1016 NOSIG,GABS,2014-12-18T07:30:00Z,12.52,-7.95,21.0,-4.0,50,9,,6.21,30.0,,,,,,TRUE,,,,,CAVOK,,,,,,,,VFR,,,,,,,,,,,,METAR,381.0
UKLN 180730Z VRB01MPS 0050 FZFG VV001 M01/M01 Q1015 1519//65 NOSIG,UKLN,2014-12-18T07:30:00Z,48.27,25.98,-1.0,-1.0,0,2,,0.03,29.970472,,,,,,TRUE,,,,FZFG,OVX,0,,,,,,,LIFR,,,,,,,,,,,100,SPECI,252.0
UKKM 180730Z 23004MPS 2300 BR OVC002 M01/M01 Q1014 REFZFG 15210150 TEMPO 1500 BR OVC001,UKKM,2014-12-18T07:30:00Z,50.6,30.2,-1.0,-1.0,230,8,,1.43,29.940945,,,,,,,,,,BR,OVC,200,,,,,,,LIFR,,,,,,,,,,,,SPECI,157.0
UKLU 180730Z 13003MPS 6000 OVC015 03/03 Q1016 10190065 NOSIG,UKLU,2014-12-18T07:30:00Z,48.63,22.27,3.0,3.0,130,6,,3.73,30.0,,,,,,TRUE,,,,,OVC,1500,,,,,,,MVFR,,19.0,,,,,,,,,,SPECI,117.0
UKLR 180730Z 19002MPS 150V230 3300 BR SCT006 BKN100 M00/M00 Q1012 NOSIG,UKLR,2014-12-18T07:30:00Z,50.6,26.13,0.0,0.0,190,4,,2.05,29.88189,,,,,,TRUE,,,,BR,SCT,600,BKN,10000,,,,,IFR,,,,,,,,,,,,METAR,230.0
ROAH 180730Z 03013KT 9999 FEW025 SCT035 BKN060 17/07 Q1026 RMK 1CU025 3SC035 5SC060 A3031,ROAH,2014-12-18T07:30:00Z,26.17,127.65,17.0,7.0,30,13,,6.21,30.295275,,,,,,,,,,,FEW,2500,SCT,3500,BKN,6000,,,VFR,,,,,,,,,,,,METAR,8.0
RJTT 180730Z 31015KT 9999 FEW030 07/M12 Q1015 TEMPO 31020G30KT RMK 1CU030 A3000,RJTT,2014-12-18T07:30:00Z,35.53,139.77,7.0,-12.0,310,15,,6.21,29.970472,,,,,,,,,,,FEW,3000,,,,,,,VFR,,,,,,,,,,,,SPECI,8.0
RJGG 180730Z 32016KT 9999 VCSH FEW005 SCT020 BKN050 04/M00 Q1023 NOSIG,RJGG,2014-12-18T07:30:00Z,34.87,136.8,4.0,0.0,320,16,,6.21,30.206694,,,,,,TRUE,,,,VCSH,FEW,500,SCT,2000,BKN,5000,,,VFR,,,,,,,,,,,,METAR,5.0
RJFF 180730Z 01012KT 9999 FEW035 SCT045 04/M08 Q1030 RMK 1CU035 3SC045 A3044,RJFF,2014-12-18T07:30:00Z,33.57,130.43,4.0,-8.0,10,12,,6.21,30.413385,,,,,,,,,,,FEW,3500,SCT,4500,,,,,VFR,,,,,,,,,,,,METAR,12.0
RJCC 180730Z 36012KT 9999 FEW030 BKN/// M01/M07 Q1010 RMK 1CU030 A2985,RJCC,2014-12-18T07:30:00Z,42.77,141.67,-1.0,-7.0,360,12,,6.21,29.822834,,,,,,,,,,,FEW,3000,,,,,,,VFR,,,,,,,,,,,,SPECI,30.0
RJBB 180730Z 32013G23KT 290V020 9999 FEW020 05/M05 Q1026 BECMG 34014KT,RJBB,2014-12-18T07:30:00Z,34.42,135.25,5.0,-5.0,320,13,23,6.21,30.295275,,,,,,,,,,,FEW,2000,,,,,,,VFR,,,,,,,,,,,,SPECI,8.0
RJAA 180730Z 30010KT 9999 FEW030 05/M09 Q1015 NOSIG RMK 1CU030 A2999 P/RR,RJAA,2014-12-18T07:30:00Z,35.77,140.37,5.0,-9.0,300,10,,6.21,29.970472,,,,,,TRUE,,,,,FEW,3000,,,,,,,VFR,,,,,,,,,,,,SPECI,44.0
WMKP 180730Z 02004KT 280V070 9000 FEW020 SCT140 BKN270 29/24 Q1008 NOSIG,WMKP,2014-12-18T07:30:00Z,5.28,100.27,29.0,24.0,20,4,,5.59,29.763779,,,,,,TRUE,,,,,FEW,2000,SCT,14000,BKN,27000,,,VFR,,,,,,,,,,,,METAR,4.0
WMKK 180730Z 05010KT 010V080 9999 SCT018 BKN280 32/24 Q1007 NOSIG,WMKK,2014-12-18T07:30:00Z,2.75,101.72,32.0,24.0,50,10,,6.21,29.734253,,,,,,TRUE,,,,,SCT,1800,BKN,28000,,,,,VFR,,,,,,,,,,,,METAR,22.0
WBSB 180730Z 27008KT 9999 SCT016 FEW017CB BKN280 30/25 Q1008 NOSIG,WBSB,2014-12-18T07:30:00Z,4.92,114.92,30.0,25.0,270,8,,6.21,29.763779,,,,,,TRUE,,,,,SCT,1600,FEW,1700,BKN,28000,,,VFR,,,,,,,,,,,,METAR,15.0
WBKK 180730Z 05006KT 010V080 9999 -RA FEW013 FEW016CB SCT035 BKN130 29/26 Q1008 NOSIG,WBKK,2014-12-18T07:30:00Z,5.92,116.03,29.0,26.0,50,6,,6.21,29.763779,,,,,,TRUE,,,,-RA,FEW,1300,FEW,1600,SCT,3500,BKN,13000,VFR,,,,,,,,,,,,METAR,3.0
WBGG 180730Z 27005KT 230V330 7000 -RA BKN020 BKN140 26/24 Q1009 RETSRA NOSIG,WBGG,2014-12-18T07:30:00Z,1.47,110.35,26.0,24.0,270,5,,4.35,29.793306,,,,,,TRUE,,,,-RA,BKN,2000,BKN,14000,,,,,MVFR,,,,,,,,,,,,METAR,27.0
LFKC 180730Z 19004KT 170V270 CAVOK 08/06 Q1016 NOSIG,LFKC,2014-12-18T07:30:00Z,42.52,8.8,8.0,6.0,190,4,,6.21,30.0,,,,,,TRUE,,,,,CAVOK,,,,,,,,VFR,,,,,,,,,,,,METAR,58.0
NZCH 180730Z AUTO 22011KT 9999 NCD 16/10 Q1010 NOSIG,NZCH,2014-12-18T07:30:00Z,-43.47,172.55,16.0,10.0,220,11,,6.21,29.822834,,,TRUE,,,TRUE,,,,,,,,,,,,,,,,,,,,,,,,,SPECI,34.0
NZWN 180730Z AUTO 35005KT 9999 OVC026/// 17/15 Q1011 TEMPO BKN008,NZWN,2014-12-18T07:30:00Z,-41.32,174.8,17.0,15.0,350,5,,6.21,29.852362,,,TRUE,,,,,,,,,,,,,,,,,,,,,,,,,,,,SPECI,7.0
NZAA 180730Z AUTO 28008KT 250V320 9999 OVC027/// 19/15 Q1017 NOSIG,NZAA,2014-12-18T07:30:00Z,-37.02,174.8,19.0,15.0,280,8,,6.21,30.029528,,,TRUE,,,TRUE,,,,,,,,,,,,,,,,,,,,,,,,,SPECI,6.0
FMEP 180730Z AUTO 28018KT 9999 NCD 31/25 Q1011,FMEP,2014-12-18T07:30:00Z,-21.32,55.42,31.0,25.0,280,18,,6.21,29.852362,,,TRUE,,,,,,,,,,,,,,,,,,,,,,,,,,,,SPECI,53.0
FMEE 180730Z 30018KT 9999 FEW026TCU BKN260 31/24 Q1011 NOSIG,FMEE,2014-12-18T07:30:00Z,-20.87,55.52,31.0,24.0,300,18,,6.21,29.852362,,,,,,TRUE,,,,,FEW,2600,BKN,26000,,,,,VFR,,,,,,,,,,,,METAR,25.0
VYYY 180730Z 05008KT 9000 NSC 30/19 Q1013 NOSIG,VYYY,2014-12-18T07:30:00Z,16.9,96.13,30.0,19.0,50,8,,5.59,29.911417,,,,,,TRUE,,,,,,,,,,,,,,,,,,,,,,,,,SPECI,33.0
ZYTX 180730Z 05003MPS 5000 FU NSC M07/M13 Q1028 NOSIG,ZYTX,2014-12-18T07:30:00Z,41.63,123.48,-7.0,-13.0,50,6,,3.11,30.35433,,,,,,TRUE,,,,FU,,,,,,,,,,,,,,,,,,,,,SPECI,35.0
ZYTL 180730Z 16004MPS 120V190 CAVOK 04/M05 Q1029 NOSIG,ZYTL,2014-12-18T07:30:00Z,38.97,121.53,4.0,-5.0,160,8,,6.21,30.383858,,,,,,TRUE,,,,,CAVOK,,,,,,,,VFR,,,,,,,,,,,,METAR,97.0
ZWWW 180730Z 36002MPS 330V040 1100 R25/0900N BR NSC M14/M18 Q1032 BECMG TL0850 1600 BR,ZWWW,2014-12-18T07:30:00Z,43.88,87.47,-14.0,-18.0,360,4,,0.68,30.47244,,,,,,,,,,BR,,,,,,,,,,,,,,,,,,,,,SPECI,654.0
ZSSS 180730Z 13003MPS 100V160 CAVOK 09/M03 Q1032 NOSIG,ZSSS,2014-12-18T07:30:00Z,31.2,121.33,9.0,-3.0,130,6,,6.21,30.47244,,,,,,TRUE,,,,,CAVOK,,,,,,,,VFR,,,,,,,,,,,,METAR,7.0
ZSPD 180730Z 06002MPS 010V090 CAVOK 08/M02 Q1033 NOSIG,ZSPD,2014-12-18T07:30:00Z,31.15,121.8,8.0,-2.0,60,4,,6.21,30.501968,,,,,,TRUE,,,,,CAVOK,,,,,,,,VFR,,,,,,,,,,,,METAR,4.0
ZSHC 180730Z 07003MPS 040V100 CAVOK 08/M10 Q1032 NOSIG,ZSHC,2014-12-18T07:30:00Z,30.22,120.43,8.0,-10.0,70,6,,6.21,30.47244,,,,,,TRUE,,,,,CAVOK,,,,,,,,VFR,,,,,,,,,,,,METAR,43.0
ZGGG 180730Z VRB01MPS CAVOK 16/M05 Q1024 NOSIG,ZGGG,2014-12-18T07:30:00Z,23.4,113.3,16.0,-5.0,0,2,,6.21,30.236221,,,,,,TRUE,,,,,CAVOK,,,,,,,,VFR,,,,,,,,,,,,METAR,15.0
ZBYN 180730Z 18001MPS 6000 NSC 03/M20 Q1022 NOSIG,ZBYN,2014-12-18T07:30:00Z,37.77,112.63,3.0,-20.0,180,2,,3.73,30.177166,,,,,,TRUE,,,,,,,,,,,,,,,,,,,,,,,,,SPECI,779.0
ZBTJ 180730Z 22002MPS 4000 HZ NSC 05/M10 Q1026 NOSIG,ZBTJ,2014-12-18T07:30:00Z,39.12,117.35,5.0,-10.0,220,4,,2.49,30.295275,,,,,,TRUE,,,,HZ,,,,,,,,,,,,,,,,,,,,,SPECI,3.0
ZBAA 180730Z 15002MPS 110V190 6000 NSC 02/M08 Q1026 NOSIG,ZBAA,2014-12-18T07:30:00Z,40.07,116.58,2.0,-8.0,150,4,,3.73,30.295275,,,,,,TRUE,,,,,,,,,,,,,,,,,,,,,,,,,SPECI,30.0
OIZH 180730Z 35004KT CAVOK 14/M07 Q1023 A3023,OIZH,2014-12-18T07:30:00Z,29.47,60.92,14.0,-7.0,350,4,,6.21,30.206694,,,,,,,,,,,CAVOK,,,,,,,,VFR,,,,,,,,,,,,METAR,1370.0
OITT 180730Z 26004KT 8000 SCT035 OVC090 04/M01 Q1026 A3031,OITT,2014-12-18T07:30:00Z,38.13,46.23,4.0,-1.0,260,4,,4.97,30.295275,,,,,,,,,,,SCT,3500,OVC,9000,,,,,MVFR,,,,,,,,,,,,METAR,1361.0
OISS 180730Z 00000KT 8000 SKC 11/ CHECK TEXT NEW ENDING ADDED VABBYFYX,OISS,2014-12-18T07:30:00Z,29.52,52.57,11.0,,0,0,,4.97,,,,,,,,,,,VA,SKC,,,,,,,,MVFR,,,,,,,,,,,,SPECI,1491.0
OIMM 180730Z 10006KT 5000 DZ OVC006 04/03 Q1024 A3025,OIMM,2014-12-18T07:30:00Z,36.23,59.62,4.0,3.0,100,6,,3.11,30.236221,,,,,,,,,,DZ,OVC,600,,,,,,,IFR,,,,,,,,,,,,METAR,980.0
OIKB 180730Z 06004KT 8000 FEW030 24/15 Q1019 A3011,OIKB,2014-12-18T07:30:00Z,27.22,56.37,24.0,15.0,60,4,,4.97,30.088583,,,,,,,,,,,FEW,3000,,,,,,,MVFR,,,,,,,,,,,,METAR,10.0
OIII 180730Z 25008KT 4000 HZ FEW040 08/M01 Q1024 A3025 NOSIG,OIII,2014-12-18T07:30:00Z,35.68,51.3,8.0,-1.0,250,8,,2.49,30.236221,,,,,,TRUE,,,,HZ,FEW,4000,,,,,,,IFR,,,,,,,,,,,,METAR,1191.0
OIFM 180730Z 00000KT 3000 HZ NSC 05/M01 Q1026 A3030,OIFM,2014-12-18T07:30:00Z,32.75,51.87,5.0,-1.0,0,0,,1.86,30.295275,,,,,,,,,,HZ,,,,,,,,,,,,,,,,,,,,,METAR,1542.0
OIAW 180730Z 00000KT 0900 FG VV/// 10/10 Q1024,OIAW,2014-12-18T07:30:00Z,31.32,48.77,10.0,10.0,0,0,,0.56,30.236221,,,,,,,,,,FG,OVX,0,,,,,,,LIFR,,,,,,,,,,,,METAR,22.0
OIBP 180730Z 30014KT 7000 SKC 22/14 Q1020 A3014,OIBP,2014-12-18T07:30:00Z,27.38,52.73,22.0,14.0,300,14,,4.35,30.11811,,,,,,,,,,,SKC,,,,,,,,MVFR,,,,,,,,,,,,METAR,9.0
OIYY 180730Z 12006KT 2800 BR FEW020 08/07 Q1027,OIYY,2014-12-18T07:30:00Z,31.9,54.28,8.0,7.0,120,6,,1.74,30.324802,,,,,,,,,,BR,FEW,2000,,,,,,,IFR,,,,,,,,,,,,METAR,1236.0
OITR 180730Z 14004KT 6000 FEW035CB SCT040 OVC100 04/M00 Q1024,OITR,2014-12-18T07:30:00Z,37.67,45.07,4.0,0.0,140,4,,3.73,30.236221,,,,,,,,,,,FEW,3500,SCT,4000,OVC,10000,,,MVFR,,,,,,,,,,,,METAR,1312.0
OIGG 180730Z 00000KT 2000 BR FEW010 10/09 Q1023,OIGG,2014-12-18T07:30:00Z,37.33,49.6,10.0,9.0,0,0,,1.24,30.206694,,,,,,,,,,BR,FEW,1000,,,,,,,IFR,,,,,,,,,,,,METAR,-13.0
OICC 180730Z 10008KT 6000 NSC 06/M01 Q1027 A3035 NOSIG,OICC,2014-12-18T07:30:00Z,34.33,47.17,6.0,-1.0,100,8,,3.73,30.324802,,,,,,TRUE,,,,,,,,,,,,,,,,,,,,,,,,,SPECI,1322.0
OIAA 180730Z 31010KT 5000 BR SKC 15/11 Q1025,OIAA,2014-12-18T07:30:00Z,30.37,48.25,15.0,11.0,310,10,,3.11,30.265747,,,,,,,,,,BR,SKC,,,,,,,,MVFR,,,,,,,,,,,,METAR,11.0
EIWF 180730Z 26016KT 190V340 7000 OVC003 11/11 Q1006 R21/1/////,EIWF,2014-12-18T07:30:00Z,52.18,-7.08,11.0,11.0,260,16,,4.35,29.704725,,,,,,,,,,,OVC,300,,,,,,,LIFR,,,,,,,,,,,,METAR,36.0
EIKY 180730Z 24026G36KT 9000 -RA BKN011 OVC014 13/12 Q1005,EIKY,2014-12-18T07:30:00Z,52.18,-9.52,13.0,12.0,240,26,36,5.59,29.675198,,,,,,,,,,-RA,BKN,1100,OVC,1400,,,,,MVFR,,,,,,,,,,,,METAR,34.0
VMMC 180730Z 36013KT 9999 FEW035 14/01 Q1023 NOSIG,VMMC,2014-12-18T07:30:00Z,22.15,113.58,14.0,1.0,360,13,,6.21,30.206694,,,,,,TRUE,,,,,FEW,3500,,,,,,,VFR,,,,,,,,,,,,METAR,6.0
RCMQ 180730Z 36013KT 9999 FEW012 SCT080 BKN120 18/08 Q1022 RMK A3018,RCMQ,2014-12-18T07:30:00Z,24.27,120.62,18.0,8.0,360,13,,6.21,30.177166,,,,,,,,,,,FEW,1200,SCT,8000,BKN,12000,,,VFR,,,,,,,,,,,,SPECI,5.0
RCSS 180730Z 09014KT 9999 FEW025 BKN050 17/07 Q1026 NOSIG RMK A3031,RCSS,2014-12-18T07:30:00Z,25.07,121.53,17.0,7.0,90,14,,6.21,30.295275,,,,,,TRUE,,,,,FEW,2500,BKN,5000,,,,,VFR,,,,,,,,,,,,SPECI,6.0
RCKH 180730Z 29009KT 250V360 9999 FEW016 BKN100 21/12 Q1022 NOSIG RMK A3020,RCKH,2014-12-18T07:30:00Z,22.57,120.33,21.0,12.0,290,9,,6.21,30.177166,,,,,,TRUE,,,,,FEW,1600,BKN,10000,,,,,VFR,,,,,,,,,,,,METAR,9.0
RCTP 180730Z 06022KT 9999 FEW015 BKN040 BKN120 17/08 Q1025 NOSIG RMK A3029,RCTP,2014-12-18T07:30:00Z,25.07,121.22,17.0,8.0,60,22,,6.21,30.265747,,,,,,TRUE,,,,,FEW,1500,BKN,4000,BKN,12000,,,VFR,,,,,,,,,,,,METAR,33.0
LJLJ 180730Z 30004KT 0400 R30/0450U FG BKN002 01/01 Q1019 NOSIG,LJLJ,2014-12-18T07:30:00Z,46.22,14.47,1.0,1.0,300,4,,0.25,30.088583,,,,,,TRUE,,,,FG,BKN,200,,,,,,,LIFR,,,,,,,,,,,,SPECI,385.0
UMOO 180730Z 22004MPS 9000 BKN013 BKN/// M00/M02 Q1010 R31/990338 NOSIG,UMOO,2014-12-18T07:30:00Z,53.95,30.1,0.0,-2.0,220,8,,5.59,29.822834,,,,,,TRUE,,,,,BKN,1300,,,,,,,MVFR,,,,,,,,,,,,SPECI,194.0
UMMM 180730Z 21003MPS 9999 OVC008 00/M01 Q1008 R30/190060 NOSIG RMK QFE737,UMMM,2014-12-18T07:30:00Z,53.87,27.52,0.0,-1.0,210,6,,6.21,29.763779,,,,,,TRUE,,,,,OVC,800,,,,,,,IFR,,,,,,,,,,,,METAR,234.0
UMMG 180730Z 20004MPS 7000 BKN040 BKN066 00/M01 Q1007 R17/CLRD// NOSIG,UMMG,2014-12-18T07:30:00Z,53.6,24.05,0.0,-1.0,200,8,,4.35,29.734253,,,,,,TRUE,,,,,BKN,4000,BKN,6600,,,,,MVFR,,,,,,,,,,,,SPECI,135.0
UMII 180730Z 21005G08MPS 4900 BR BKN008 OVC013 00/M00 Q1006 R23/595026 TEMPO BKN005,UMII,2014-12-18T07:30:00Z,55.13,30.35,0.0,0.0,210,10,16,3.04,29.704725,,,,,,,,,,BR,BKN,800,OVC,1300,,,,,IFR,,,,,,,,,,,,METAR,208.0
UMGG 180730Z 22004MPS 7000 NSC 00/M01 Q1013 R28/720145 NOSIG,UMGG,2014-12-18T07:30:00Z,52.53,31.02,0.0,-1.0,220,8,,4.35,29.911417,,,,,,TRUE,,,,,,,,,,,,,,,,,,,,,,,,,METAR,144.0
UMBB 180730Z 20004MPS 7000 BKN040 SCT100 01/M01 Q1009 R29/CLRD// NOSIG,UMBB,2014-12-18T07:30:00Z,52.12,23.9,1.0,-1.0,200,8,,4.35,29.793306,,,,,,TRUE,,,,,BKN,4000,SCT,10000,,,,,MVFR,,,,,,,,,,,,SPECI,143.0
UKDR 180730Z 01005MPS 4500 BR OVC007 03/02 Q1013 3619//60 TEMPO 1200 BR OVC004,UKDR,2014-12-18T07:30:00Z,48.05,33.22,3.0,2.0,10,10,,2.8,29.911417,,,,,,,,,,BR,OVC,700,,,,,,,IFR,,,,,,,,,,,,SPECI,124.0
UKLL 180730Z 16001MPS 6000 BKN036 00/00 Q1013 13750240 NOSIG,UKLL,2014-12-18T07:30:00Z,49.82,23.93,0.0,0.0,160,2,,3.73,29.911417,,,,,,TRUE,,,,,BKN,3600,,,,,,,MVFR,,,,,,,,,,,,METAR,325.0
UKDD 180730Z 01005MPS 340V060 0400 R08/0650N FG VV002 06/06 Q1012 08220356 NOSIG,UKDD,2014-12-18T07:30:00Z,48.37,35.1,6.0,6.0,10,10,,0.25,29.88189,,,,,,TRUE,,,,FG,OVX,0,,,,,,,LIFR,,,,,,,,,,,200,SPECI,149.0
UKOO 180730Z 02005MPS 5000 BR OVC005 04/03 Q1014 34090060 NOSIG,UKOO,2014-12-18T07:30:00Z,46.42,30.68,4.0,3.0,20,10,,3.11,29.940945,,,,,,TRUE,,,,BR,OVC,500,,,,,,,IFR,,,,,,,,,,,,METAR,35.0
UKHH 180730Z 36004MPS 330V030 9999 BKN009 OVC020 04/02 Q1013 25290063 NOSIG,UKHH,2014-12-18T07:30:00Z,49.92,36.28,4.0,2.0,360,8,,6.21,29.911417,,,,,,TRUE,,,,,BKN,900,OVC,2000,,,,,IFR,,,,,,,,,,,,SPECI,155.0
UKBB 180730Z 23003MPS 2500 BR OVC003 M01/M01 Q1015 86290050 36350130 TEMPO 0400 FZFG VV002,UKBB,2014-12-18T07:30:00Z,50.33,30.9,-1.0,-1.0,230,6,,1.55,29.970472,,,,,,,,,,BR,OVC,300,,,,,,,LIFR,,,,,,,,,,,,METAR,119.0
UCFO 180730Z 01002MPS 8000 NSC 05/M05 Q1021 R12/CLRD70 NOSIG,UCFO,2014-12-18T07:30:00Z,40.6,72.8,5.0,-5.0,10,4,,4.97,30.147638,,,,,,TRUE,,,,,,,,,,,,,,,,,,,,,,,,,METAR,884.0
UCFM 180730Z VRB01MPS 6000 NSC 04/M05 Q1022 R08/CLRD70 NOSIG,UCFM,2014-12-18T07:30:00Z,43.07,74.48,4.0,-5.0,0,2,,3.73,30.177166,,,,,,TRUE,,,,,,,,,,,,,,,,,,,,,,,,,METAR,633.0
UTDL 180730Z 28002MPS 2800 BR FEW160 OVC200 05/M04 Q1024 NOSIG RMK QFE730/0973 88CLRD70,UTDL,2014-12-18T07:30:00Z,40.22,69.7,5.0,-4.0,280,4,,1.74,30.236221,,,,,,TRUE,,,,BR,FEW,16000,OVC,20000,,,,,IFR,,,,,,,,,,,,SPECI,442.0
UTDD 180730Z 07002MPS 040V100 3400 BR FU SCT066 OVC150 04/M02 Q1022 09CLRD70 NOSIG RMK QFE699/0932,UTDD,2014-12-18T07:30:00Z,38.53,68.82,4.0,-2.0,70,4,,2.11,30.177166,,,,,,TRUE,,,,BR FU,SCT,6600,OVC,15000,,,,,IFR,,,,,,,,,,,,METAR,803.0
UAUU 180730Z 18002MPS 9999 BKN002 M13/M15 Q1030 R33/320160 TEMPO 0500 FZFG VV002 RMK QBB070 QFE757/1009,UAUU,2014-12-18T07:30:00Z,53.2,63.55,-13.0,-15.0,180,4,,6.21,30.413385,,,,,,,,,,,BKN,200,,,,,,,LIFR,,,,,,,,,,,,SPECI,182.0
UATT 180730Z 16002MPS 6000 NSC M12/M13 Q1030 R13/0///60 TEMPO 3000 BR FU RMK QFE752/1003,UATT,2014-12-18T07:30:00Z,50.25,57.2,-12.0,-13.0,160,4,,3.73,30.413385,,,,,,,,,,,,,,,,,,,,,,,,,,,,,,,METAR,227.0
UATG 180730Z 13003MPS 4200 BR OVC004 M02/M02 Q1027 R14/32//52 NOSIG RMK QBB120 QFE772/1030,UATG,2014-12-18T07:30:00Z,47.12,51.83,-2.0,-2.0,130,6,,2.61,30.324802,,,,,,TRUE,,,,BR,OVC,400,,,,,,,LIFR,,,,,,,,,,,,SPECI,-22.0
UATE 180730Z 12008MPS 9999 BKN015 BKN130 03/01 Q1023 R12/0///70 NOSIG RMK QFE765/1021,UATE,2014-12-18T07:30:00Z,43.87,51.1,3.0,1.0,120,16,,6.21,30.206694,,,,,,TRUE,,,,,BKN,1500,BKN,13000,,,,,MVFR,,,,,,,,,,,,METAR,22.0
UARR 180730Z 16007MPS 9000 -SN BKN005 OVC013 M09/M10 Q1027 R22/690335 TEMPO 3000 -SG BR OVC002 RMK QBB170 QFE766/1022,UARR,2014-12-18T07:30:00Z,51.15,51.53,-9.0,-10.0,160,14,,5.59,30.324802,,,,,,,,,,-SN,BKN,500,OVC,1300,,,,,IFR,,,,,,,,,,,,METAR,38.0
UASS 180730Z 11004MPS CAVOK M14/M16 Q1035 R08/42//55 NOSIG RMK QFE755/1006,UASS,2014-12-18T07:30:00Z,50.35,80.23,-14.0,-16.0,110,8,,6.21,30.561024,,,,,,TRUE,,,,,CAVOK,,,,,,,,VFR,,,,,,,,,,,,SPECI,232.0
UASP 180730Z 09004MPS CAVOK M10/M12 Q1035 R21/390250 NOSIG RMK QFE765/1020,UASP,2014-12-18T07:30:00Z,52.2,77.07,-10.0,-12.0,90,8,,6.21,30.561024,,,,,,TRUE,,,,,CAVOK,,,,,,,,VFR,,,,,,,,,,,,METAR,125.0
UASK 180730Z 05002MPS 5000 BR VCFZFG FEW005 BKN230 M16/M18 Q1035 R12/820248 TEMPO 1000 BR BKN002 RMK QBB150 QFE750/1000,UASK,2014-12-18T07:30:00Z,50.03,82.5,-16.0,-18.0,50,4,,3.11,30.561024,,,,,,,,,,BR VCFZFG,FEW,500,BKN,23000,,,,,MVFR,,,,,,,,,,,,METAR,286.0
UAOO 180730Z 03004MPS 020V080 CAVOK M04/M09 Q1027 R06/CLRD70 NOSIG RMK QFE759/1012,UAOO,2014-12-18T07:30:00Z,44.7,65.6,-4.0,-9.0,30,8,,6.21,30.324802,,,,,,TRUE,,,,,CAVOK,,,,,,,,VFR,,,,,,,,,,,,METAR,129.0
UAKK 180730Z 12002MPS CAVOK M05/M09 Q1028 R05/810560 NOSIG RMK QFE723/0965,UAKK,2014-12-18T07:30:00Z,49.67,73.33,-5.0,-9.0,120,4,,6.21,30.35433,,,,,,TRUE,,,,,CAVOK,,,,,,,,VFR,,,,,,,,,,,,SPECI,538.0
UAII 180730Z VRB01MPS 8000 BKN100 05/M03 Q1024 R28/0///70 NOSIG RMK QFE731/0974,UAII,2014-12-18T07:30:00Z,42.37,69.48,5.0,-3.0,0,2,,4.97,30.236221,,,,,,TRUE,,,,,BKN,10000,,,,,,,MVFR,,,,,,,,,,,,METAR,422.0
UACP 180730Z 19001MPS 9999 FEW005 BKN083 M14/M15 Q1032 R05/4/0541 NOSIG RMK QBB160 QFE762/1016,UACP,2014-12-18T07:30:00Z,54.78,69.18,-14.0,-15.0,190,2,,6.21,30.47244,,,,,,TRUE,,,,,FEW,500,BKN,8300,,,,,VFR,,,,,,,,,,,,METAR,142.0
UACK 180730Z 00000MPS 9999 SCT001 M15/M17 Q1032 R02/490337 NOSIG RMK QFE749/0999,UACK,2014-12-18T07:30:00Z,53.32,69.58,-15.0,-17.0,0,0,,6.21,30.47244,,,,,,TRUE,,,,,SCT,100,,,,,,,VFR,,,,,,,,,,,,METAR,2547.0
UACC 180730Z 09002MPS 8000 SKC M15/M17 Q1031 R04/8/0065 NOSIG RMK QFE741/0988,UACC,2014-12-18T07:30:00Z,51.02,71.47,-15.0,-17.0,90,4,,4.97,30.442913,,,,,,TRUE,,,,,SKC,,,,,,,,MVFR,,,,,,,,,,,,METAR,355.0
UADD 180730Z 36002MPS 9999 NSC 07/M08 Q1022 R13/0///65 NOSIG RMK QFE709/0946,UADD,2014-12-18T07:30:00Z,42.85,71.3,7.0,-8.0,360,4,,6.21,30.177166,,,,,,TRUE,,,,,,,,,,,,,,,,,,,,,,,,,METAR,665.0
UAAH 180730Z 07006MPS CAVOK M04/M12 Q1028 R05/410055 NOSIG RMK QFE734/0978,UAAH,2014-12-18T07:30:00Z,46.9,75.0,-4.0,-12.0,70,12,,6.21,30.35433,,,,,,TRUE,,,,,CAVOK,,,,,,,,VFR,,,,,,,,,,,,SPECI,441.0
UAAA 180730Z 35002MPS 1500 R05L/P2000N R05R/1500U FU SCT100 BKN200 M02/M08 Q1024 R88/9///50 NOSIG,UAAA,2014-12-18T07:30:00Z,43.35,77.03,-2.0,-8.0,350,4,,0.93,30.236221,,,,,,TRUE,,,,FU,SCT,10000,BKN,20000,,,,,LIFR,,,,,,,,,,,,METAR,847.0
UDSG 180730Z 00000MPS 7000 OVC016 M00/M03 Q1024 R02/CLRD70 NOSIG,UDSG,2014-12-18T07:30:00Z,40.75,43.87,0.0,-3.0,0,0,,4.35,30.236221,,,,,,TRUE,,,,,OVC,1600,,,,,,,MVFR,,,,,,,,,,,,METAR,1524.0
UDYZ 180730Z 00000MPS 6000 BKN100 04/01 Q1025 R09/000070 NOSIG,UDYZ,2014-12-18T07:30:00Z,40.15,44.4,4.0,1.0,0,0,,3.73,30.265747,,,,,,TRUE,,,,,BKN,10000,,,,,,,MVFR,,,,,,,,,,,,SPECI,865.0
DAUH 180730Z 34010KT CAVOK 05/02 Q1023,DAUH,2014-12-18T07:30:00Z,31.67,6.15,5.0,2.0,340,10,,6.21,30.206694,,,,,,,,,,,CAVOK,,,,,,,,VFR,,,,,,,,,,,,METAR,142.0
DAOO 180730Z 19006KT CAVOK 05/05 Q1026,DAOO,2014-12-18T07:30:00Z,35.62,-0.6,5.0,5.0,190,6,,6.21,30.295275,,,,,,,,,,,CAVOK,,,,,,,,VFR,,,,,,,,,,,,METAR,90.0
DAON 180730Z 00000KT CAVOK 06/05 Q1027,DAON,2014-12-18T07:30:00Z,35.02,-1.47,6.0,5.0,0,0,,6.21,30.324802,,,,,,,,,,,CAVOK,,,,,,,,VFR,,,,,,,,,,,,METAR,247.0
DABC 180730Z 24006KT 9999 FEW020 SCT026 BKN100 07/05 Q1023,DABC,2014-12-18T07:30:00Z,36.27,6.62,7.0,5.0,240,6,,6.21,30.206694,,,,,,,,,,,FEW,2000,SCT,2600,BKN,10000,,,VFR,,,,,,,,,,,,METAR,694.0
DABB 180730Z 29012KT 8000 -RA FEW020 FEW026CB SCT033 12/11 Q1020,DABB,2014-12-18T07:30:00Z,36.82,7.82,12.0,11.0,290,12,,4.97,30.11811,,,,,,,,,,-RA,FEW,2000,FEW,2600,SCT,3300,,,MVFR,,,,,,,,,,,,METAR,4.0
DAAT 180730Z VRB02KT CAVOK 06/M22 Q1020,DAAT,2014-12-18T07:30:00Z,22.82,5.47,6.0,-22.0,0,2,,6.21,30.11811,,,,,,,,,,,CAVOK,,,,,,,,VFR,,,,,,,,,,,,METAR,1377.0
DAAG 180730Z 20003KT 9999 FEW026 BKN100 11/09 Q1026,DAAG,2014-12-18T07:30:00Z,36.72,3.22,11.0,9.0,200,3,,6.21,30.295275,,,,,,,,,,,FEW,2600,BKN,10000,,,,,VFR,,,,,,,,,,,,METAR,25.0
VVPQ 180730Z 06012KT 9999 FEW017 SCT040 26/16 Q1011 NOSIG,VVPQ,2014-12-18T07:30:00Z,10.23,103.97,26.0,16.0,60,12,,6.21,29.852362,,,,,,TRUE,,,,,FEW,1700,SCT,4000,,,,,VFR,,,,,,,,,,,,METAR,4.0
VVCT 180730Z 03009KT 360V080 9999 FEW015 BKN040 26/19 Q1011 NOSIG,VVCT,2014-12-18T07:30:00Z,10.08,105.72,26.0,19.0,30,9,,6.21,29.852362,,,,,,TRUE,,,,,FEW,1500,BKN,4000,,,,,VFR,,,,,,,,,,,,METAR,3.0
VVCR 180730Z 04018KT 9999 FEW013 BKN050 25/19 Q1014 NOSIG,VVCR,2014-12-18T07:30:00Z,12.0,109.22,25.0,19.0,40,18,,6.21,29.940945,,,,,,TRUE,,,,,FEW,1300,BKN,5000,,,,,VFR,,,,,,,,,,,,METAR,12.0
VVPB 180730Z 25007KT 5000 BR BKN010 BKN035 17/16 Q1020 NOSIG,VVPB,2014-12-18T07:30:00Z,16.38,107.7,17.0,16.0,250,7,,3.11,30.11811,,,,,,TRUE,,,,BR,BKN,1000,BKN,3500,,,,,MVFR,,,,,,,,,,,,METAR,17.0
VVDN 180730Z 31003KT 5000 BR FEW015 BKN050 19/16 Q1019 NOSIG,VVDN,2014-12-18T07:30:00Z,16.02,108.2,19.0,16.0,310,3,,3.11,30.088583,,,,,,TRUE,,,,BR,FEW,1500,BKN,5000,,,,,MVFR,,,,,,,,,,,,METAR,7.0
VVNB 180730Z 04007KT 340V080 CAVOK 19/M03 Q1023 NOSIG,VVNB,2014-12-18T07:30:00Z,21.22,105.8,19.0,-3.0,40,7,,6.21,30.206694,,,,,,TRUE,,,,,CAVOK,,,,,,,,VFR,,,,,,,,,,,,METAR,12.0
VVTS 180730Z 03005KT 350V050 9999 FEW020 BKN050 29/19 Q1011 NOSIG,VVTS,2014-12-18T07:30:00Z,10.82,106.67,29.0,19.0,30,5,,6.21,29.852362,,,,,,TRUE,,,,,FEW,2000,BKN,5000,,,,,VFR,,,,,,,,,,,,METAR,19.0
VDSR 180730Z VRB02KT 9000 SCT017 SCT120 26/14 Q1013,VDSR,2014-12-18T07:30:00Z,13.42,103.83,26.0,14.0,0,2,,5.59,29.911417,,,,,,,,,,,SCT,1700,SCT,12000,,,,,VFR,,,,,,,,,,,,METAR,15.0
VDPP 180730Z 01010KT 340V040 9999 FEW017 SCT040 25/17 Q1011,VDPP,2014-12-18T07:30:00Z,11.55,104.83,25.0,17.0,10,10,,6.21,29.852362,,,,,,,,,,,FEW,1700,SCT,4000,,,,,VFR,,,,,,,,,,,,METAR,10.0
VYMD 180730Z 00000KT 7000 SCT020 FEW025TCU 29/20 Q1014,VYMD,2014-12-18T07:30:00Z,21.7,95.98,29.0,20.0,0,0,,4.35,29.940945,,,,,,,,,,,SCT,2000,FEW,2500,,,,,MVFR,,,,,,,,,,,,METAR,91.0
VLVT 180730Z 02002KT NSC 25/08 Q1017 NOSIG,VLVT,2014-12-18T07:30:00Z,17.98,102.57,25.0,8.0,20,2,,,30.029528,,,,,,TRUE,,,,,,,,,,,,,,,,,,,,,,,,,METAR,171.0
VTSP 180730Z 07013KT 8000 FEW018 BKN100 BKN300 28/22 Q1010 A2982,VTSP,2014-12-18T07:30:00Z,8.12,98.32,28.0,22.0,70,13,,4.97,29.822834,,,,,,,,,,,FEW,1800,BKN,10000,BKN,30000,,,MVFR,,,,,,,,,,,,METAR,10.0
VTSS 180730Z 02007KT 9999 SCT016 SCT025 BKN120 26/24 Q1010 A2982 NOSIG,VTSS,2014-12-18T07:30:00Z,6.92,100.38,26.0,24.0,20,7,,6.21,29.822834,,,,,,TRUE,,,,,SCT,1600,SCT,2500,BKN,12000,,,VFR,,,,,,,,,,,,METAR,35.0
VTCC 180730Z 22005KT 9999 BKN035 SCT110 23/12 Q1018 A3008 NOSIG,VTCC,2014-12-18T07:30:00Z,18.77,98.97,23.0,12.0,220,5,,6.21,30.059055,,,,,,TRUE,,,,,BKN,3500,SCT,11000,,,,,VFR,,,,,,,,,,,,METAR,314.0
VTBD 180730Z 32007KT 270V020 9999 FEW030 SCT300 28/14 Q1013 NOSIG,VTBD,2014-12-18T07:30:00Z,13.92,100.6,28.0,14.0,320,7,,6.21,29.911417,,,,,,TRUE,,,,,FEW,3000,SCT,30000,,,,,VFR,,,,,,,,,,,,METAR,3.0
VTBS 180730Z 03011KT CAVOK 27/13 Q1014 NOSIG,VTBS,2014-12-18T07:30:00Z,13.68,100.75,27.0,13.0,30,11,,6.21,29.940945,,,,,,TRUE,,,,,CAVOK,,,,,,,,VFR,,,,,,,,,,,,METAR,2.0
GEML 180730Z 00000KT 9999 FEW020 10/08 Q1026,GEML,2014-12-18T07:30:00Z,35.27,-2.95,10.0,8.0,0,0,,6.21,30.295275,,,,,,,,,,,FEW,2000,,,,,,,VFR,,,,,,,,,,,,METAR,55.0
DTTJ 180730Z 28009KT 8000 FEW026 15/09 Q1021 NOSIG,DTTJ,2014-12-18T07:30:00Z,33.87,10.77,15.0,9.0,280,9,,4.97,30.147638,,,,,,TRUE,,,,,FEW,2600,,,,,,,MVFR,,,,,,,,,,,,METAR,4.0
DTTA 180730Z 24007KT 200V260 8000 -RA SCT023TCU 13/11 Q1018 NOSIG,DTTA,2014-12-18T07:30:00Z,36.85,10.22,13.0,11.0,240,7,,4.97,30.059055,,,,,,TRUE,,,,-RA,SCT,2300,,,,,,,MVFR,,,,,,,,,,,,METAR,4.0
DTNH 180730Z AUTO 26009KT 8000NDV FEW035 13/09 Q1019,DTNH,2014-12-18T07:30:00Z,36.07,10.43,13.0,9.0,260,9,,,30.088583,,,TRUE,,,,,,,,FEW,3500,,,,,,,,,,,,,,,,,,,METAR,2.0
DTMB 180730Z 23009KT 8000 FEW020 12/08 Q1019,DTMB,2014-12-18T07:30:00Z,35.77,10.75,12.0,8.0,230,9,,4.97,30.088583,,,,,,,,,,,FEW,2000,,,,,,,MVFR,,,,,,,,,,,,METAR,2.0
RKSI 180730Z 31005KT CAVOK M04/M18 Q1034 NOSIG,RKSI,2014-12-18T07:30:00Z,37.47,126.45,-4.0,-18.0,310,5,,6.21,30.531496,,,,,,TRUE,,,,,CAVOK,,,,,,,,VFR,,,,,,,,,,,,METAR,7.0
GCLA 180730Z 34011KT 8000 -RA BKN030 17/15 Q1026,GCLA,2014-12-18T07:30:00Z,28.62,-17.75,17.0,15.0,340,11,,4.97,30.295275,,,,,,,,,,-RA,BKN,3000,,,,,,,MVFR,,,,,,,,,,,,METAR,31.0
GCFV 180730Z 04013KT 9999 FEW025 BKN046 19/15 Q1024,GCFV,2014-12-18T07:30:00Z,28.43,-13.87,19.0,15.0,40,13,,6.21,30.236221,,,,,,,,,,,FEW,2500,BKN,4600,,,,,VFR,,,,,,,,,,,,METAR,23.0
GCRR 180730Z 35005KT 9999 FEW025 SCT042 17/14 Q1024,GCRR,2014-12-18T07:30:00Z,28.93,-13.58,17.0,14.0,350,5,,6.21,30.236221,,,,,,,,,,,FEW,2500,SCT,4200,,,,,VFR,,,,,,,,,,,,METAR,40.0
GCTS 180730Z 06014KT 9999 FEW020 SCT045 18/13 Q1024 NOSIG,GCTS,2014-12-18T07:30:00Z,28.05,-16.57,18.0,13.0,60,14,,6.21,30.236221,,,,,,TRUE,,,,,FEW,2000,SCT,4500,,,,,VFR,,,,,,,,,,,,METAR,72.0
GCXO 180730Z VRB01KT 7000 -DZ FEW008 SCT012 BKN022 13/12 Q1026 NOSIG,GCXO,2014-12-18T07:30:00Z,28.48,-16.35,13.0,12.0,0,1,,4.35,30.295275,,,,,,TRUE,,,,-DZ,FEW,800,SCT,1200,BKN,2200,,,MVFR,,,,,,,,,,,,METAR,632.0
GCLP 180730Z 35009KT 320V020 9999 FEW020 SCT040 BKN050 18/14 Q1024 NOSIG,GCLP,2014-12-18T07:30:00Z,27.92,-15.37,18.0,14.0,350,9,,6.21,30.236221,,,,,,TRUE,,,,,FEW,2000,SCT,4000,BKN,5000,,,VFR,,,,,,,,,,,,METAR,25.0
LETL 180730Z AUTO 28006KT 9999 FEW023/// 02/01 Q1028,LETL,2014-12-18T07:30:00Z,40.42,-1.22,2.0,1.0,280,6,,6.21,30.35433,,,TRUE,,,,,,,,,,,,,,,,,,,,,,,,,,,,METAR,1013.0
LEAG 180730Z AUTO VRB02KT CAVOK 11/07 Q1026,LEAG,2014-12-18T07:30:00Z,,,11.0,7.0,0,2,,6.21,30.295275,,,TRUE,,,,,,,,CAVOK,,,,,,,,VFR,,,,,,,,,,,,METAR,
LEVX 180730Z 00000KT 9999 BKN027 09/08 Q1031 NOSIG,LEVX,2014-12-18T07:30:00Z,42.22,-8.62,9.0,8.0,0,0,,6.21,30.442913,,,,,,TRUE,,,,,BKN,2700,,,,,,,MVFR,,,,,,,,,,,,METAR,256.0
LEIB 180730Z 00000KT CAVOK 11/10 Q1023 NOSIG,LEIB,2014-12-18T07:30:00Z,38.87,1.37,11.0,10.0,0,0,,6.21,30.206694,,,,,,TRUE,,,,,CAVOK,,,,,,,,VFR,,,,,,,,,,,,METAR,12.0
LEAL 180730Z 29006KT CAVOK 12/06 Q1024 NOSIG,LEAL,2014-12-18T07:30:00Z,38.27,-0.55,12.0,6.0,290,6,,6.21,30.236221,,,,,,TRUE,,,,,CAVOK,,,,,,,,VFR,,,,,,,,,,,,METAR,31.0
LEVC 180730Z 28004KT CAVOK 08/05 Q1024 NOSIG,LEVC,2014-12-18T07:30:00Z,39.5,-0.47,8.0,5.0,280,4,,6.21,30.236221,,,,,,TRUE,,,,,CAVOK,,,,,,,,VFR,,,,,,,,,,,,METAR,62.0
LEMG 180730Z 29011KT 260V320 CAVOK 14/06 Q1025 NOSIG,LEMG,2014-12-18T07:30:00Z,36.67,-4.5,14.0,6.0,290,11,,6.21,30.265747,,,,,,TRUE,,,,,CAVOK,,,,,,,,VFR,,,,,,,,,,,,METAR,7.0
LEZL 180730Z 02005KT 0200 R27/0600D R09/0350N FG VV002 07/07 Q1028 NOSIG,LEZL,2014-12-18T07:30:00Z,37.42,-5.9,7.0,7.0,20,5,,0.12,30.35433,,,,,,TRUE,,,,FG,OVX,0,,,,,,,LIFR,,,,,,,,,,,200,METAR,31.0
LEPA 180730Z 01001KT 9999 FEW022 12/09 Q1022 NOSIG,LEPA,2014-12-18T07:30:00Z,39.53,2.72,12.0,9.0,10,1,,6.21,30.177166,,,,,,TRUE,,,,,FEW,2200,,,,,,,VFR,,,,,,,,,,,,METAR,8.0
LEBL 180730Z 32008KT 280V360 9999 FEW030 12/06 Q1022 NOSIG,LEBL,2014-12-18T07:30:00Z,41.27,2.07,12.0,6.0,320,8,,6.21,30.177166,,,,,,TRUE,,,,,FEW,3000,,,,,,,VFR,,,,,,,,,,,,METAR,6.0
LEMD 180730Z 34003KT 7000 NSC M00/M00 Q1028 NOSIG,LEMD,2014-12-18T07:30:00Z,40.48,-3.57,0.0,0.0,340,3,,4.35,30.35433,,,,,,TRUE,,,,,,,,,,,,,,,,,,,,,,,,,METAR,582.0
LESA 180730Z 00000KT 0300 R21/1100N FG VV003 02/02 Q1029,LESA,2014-12-18T07:30:00Z,40.95,-5.5,2.0,2.0,0,0,,0.19,30.383858,,,,,,,,,,FG,OVX,0,,,,,,,LIFR,,,,,,,,,,,300,METAR,795.0
LEVS 180730Z 00000KT 8000 MIFG NSC 02/02 Q1028,LEVS,2014-12-18T07:30:00Z,40.37,-3.77,2.0,2.0,0,0,,4.97,30.35433,,,,,,,,,,MIFG,,,,,,,,,,,,,,,,,,,,,METAR,687.0
LEVD 180730Z 00000KT 8000 OVC009 05/05 Q1029,LEVD,2014-12-18T07:30:00Z,41.72,-4.83,5.0,5.0,0,0,,4.97,30.383858,,,,,,,,,,,OVC,900,,,,,,,IFR,,,,,,,,,,,,METAR,854.0
LEGR 180730Z 00000KT 9999 FEW002 00/00 Q1027,LEGR,2014-12-18T07:30:00Z,37.17,-3.77,0.0,0.0,0,0,,6.21,30.324802,,,,,,,,,,,FEW,200,,,,,,,VFR,,,,,,,,,,,,METAR,559.0
LEAM 180730Z 32006KT 9999 FEW015 11/05 Q1024,LEAM,2014-12-18T07:30:00Z,36.85,-2.37,11.0,5.0,320,6,,6.21,30.236221,,,,,,,,,,,FEW,1500,,,,,,,VFR,,,,,,,,,,,,METAR,21.0
LEMH 180730Z 30005KT 260V340 9999 FEW020 13/10 Q1021,LEMH,2014-12-18T07:30:00Z,39.87,4.22,13.0,10.0,300,5,,6.21,30.147638,,,,,,,,,,,FEW,2000,,,,,,,VFR,,,,,,,,,,,,METAR,82.0
LERS 180730Z 00000KT 9999 FEW030 10/07 Q1022,LERS,2014-12-18T07:30:00Z,41.13,1.17,10.0,7.0,0,0,,6.21,30.177166,,,,,,,,,,,FEW,3000,,,,,,,VFR,,,,,,,,,,,,METAR,76.0
LEVT 180730Z 22001KT 9999 BKN019 08/06 Q1029,LEVT,2014-12-18T07:30:00Z,42.87,-2.72,8.0,6.0,220,1,,6.21,30.383858,,,,,,,,,,,BKN,1900,,,,,,,MVFR,,,,,,,,,,,,METAR,509.0
LEZG 180730Z 30017G27KT 270V330 9999 FEW030 10/05 Q1026,LEZG,2014-12-18T07:30:00Z,41.67,-1.02,10.0,5.0,300,17,27,6.21,30.295275,,,,,,,,,,,FEW,3000,,,,,,,VFR,,,,,,,,,,,,METAR,258.0
LEST 180730Z 00000KT 5000 0700NE BCFG FEW009 OVC023 08/08 Q1031 TEMPO 0800 BCFG BKN004,LEST,2014-12-18T07:30:00Z,42.88,-8.42,8.0,8.0,0,0,,3.11,30.442913,,,,,,,,,,BCFG,FEW,900,OVC,2300,,,,,MVFR,,,,,,,,,,,,METAR,367.0
LEGE 180730Z VRB02KT 9999 FEW025 07/07 Q1021,LEGE,2014-12-18T07:30:00Z,41.88,2.77,7.0,7.0,0,2,,6.21,30.147638,,,,,,,,,,,FEW,2500,,,,,,,VFR,,,,,,,,,,,,METAR,129.0
LECO 180730Z VRB02KT 9999 FEW020 BKN036 10/10 Q1031 NOSIG,LECO,2014-12-18T07:30:00Z,43.28,-8.37,10.0,10.0,0,2,,6.21,30.442913,,,,,,TRUE,,,,,FEW,2000,BKN,3600,,,,,VFR,,,,,,,,,,,,METAR,103.0
LEBB 180730Z 00000KT 9999 SCT040 BKN068 11/09 Q1030 NOSIG,LEBB,2014-12-18T07:30:00Z,43.28,-2.92,11.0,9.0,0,0,,6.21,30.413385,,,,,,TRUE,,,,,SCT,4000,BKN,6800,,,,,VFR,,,,,,,,,,,,METAR,34.0
LEAS 180730Z 23013KT 9999 BKN034 08/04 Q1030 NOSIG,LEAS,2014-12-18T07:30:00Z,43.53,-6.02,8.0,4.0,230,13,,6.21,30.413385,,,,,,TRUE,,,,,BKN,3400,,,,,,,VFR,,,,,,,,,,,,METAR,134.0
LEXJ 180730Z 21008KT 9999 BKN038 10/06 Q1030,LEXJ,2014-12-18T07:30:00Z,43.42,-3.82,10.0,6.0,210,8,,6.21,30.413385,,,,,,,,,,,BKN,3800,,,,,,,VFR,,,,,,,,,,,,METAR,6.0
LEPP 180730Z 31003KT 9999 BKN018 09/09 Q1028,LEPP,2014-12-18T07:30:00Z,42.77,-1.65,9.0,9.0,310,3,,6.21,30.35433,,,,,,,,,,,BKN,1800,,,,,,,MVFR,,,,,,,,,,,,METAR,459.0
LELL 180730Z 00000KT 9999 FEW080 09/07 Q1022,LELL,2014-12-18T07:30:00Z,41.52,2.1,9.0,7.0,0,0,,6.21,30.177166,,,,,,,,,,,FEW,8000,,,,,,,VFR,,,,,,,,,,,,METAR,250.0
LEJR 180730Z 34008KT 0700 R20/P2000 FG NSC 05/05 Q1027,LEJR,2014-12-18T07:30:00Z,36.75,-6.07,5.0,5.0,340,8,,0.43,30.324802,,,,,,,,,,FG,,,,,,,,,,,,,,,,,,,,,METAR,30.0
LFTW 180730Z AUTO VRB03KT 9999 NSC 09/07 Q1021,LFTW,2014-12-18T07:30:00Z,43.75,4.42,9.0,7.0,0,3,,6.21,30.147638,,,TRUE,,,,,,,,,,,,,,,,,,,,,,,,,,,,METAR,96.0
LFSD 180730Z AUTO 20008KT 5000 -RA BR OVC002 08/08 Q1019,LFSD,2014-12-18T07:30:00Z,47.27,5.07,8.0,8.0,200,8,,3.11,30.088583,,,TRUE,,,,,,,-RA BR,OVC,200,,,,,,,LIFR,,,,,,,,,,,,METAR,227.0
LFRT 180730Z AUTO 26015KT 230V290 9999 OVC011 12/10 Q1019,LFRT,2014-12-18T07:30:00Z,48.52,-2.85,12.0,10.0,260,15,,6.21,30.088583,,,TRUE,,,,,,,,OVC,1100,,,,,,,MVFR,,,,,,,,,,,,METAR,136.0
LFRQ 180730Z AUTO 27013KT 9999 SCT006 BKN010 OVC014 12/11 Q1021,LFRQ,2014-12-18T07:30:00Z,47.97,-4.17,12.0,11.0,270,13,,6.21,30.147638,,,TRUE,,,,,,,,SCT,600,BKN,1000,OVC,1400,,,MVFR,,,,,,,,,,,,METAR,94.0
LFRH 180730Z AUTO 27015KT 7000 BKN005 OVC013 12/11 Q1022,LFRH,2014-12-18T07:30:00Z,47.77,-3.45,12.0,11.0,270,15,,4.35,30.177166,,,TRUE,,,,,,,,BKN,500,OVC,1300,,,,,IFR,,,,,,,,,,,,METAR,44.0
LFPT 180730Z AUTO 25010KT 9999 BKN008 OVC012 12/11 Q1016,LFPT,2014-12-18T07:30:00Z,49.1,2.03,12.0,11.0,250,10,,6.21,30.0,,,TRUE,,,,,,,,BKN,800,OVC,1200,,,,,IFR,,,,,,,,,,,,METAR,99.0
LFPM 180730Z AUTO 25012KT 9999 BKN009 OVC013 12/12 Q1017,LFPM,2014-12-18T07:30:00Z,48.62,2.67,12.0,12.0,250,12,,6.21,30.029528,,,TRUE,,,,,,,,BKN,900,OVC,1300,,,,,IFR,,,,,,,,,,,,METAR,92.0
LFLN 180730Z AUTO VRB02KT 4800 -RA BR FEW005 SCT021 OVC028 11/11 Q1021,LFLN,2014-12-18T07:30:00Z,46.42,4.02,11.0,11.0,0,2,,2.98,30.147638,,,TRUE,,,,,,,-RA BR,FEW,500,SCT,2100,OVC,2800,,,IFR,,,,,,,,,,,,METAR,244.0
LFGA 180730Z AUTO 18007KT 9999 FEW042 SCT084 OVC100 10/08 Q1017,LFGA,2014-12-18T07:30:00Z,48.1,7.35,10.0,8.0,180,7,,6.21,30.029528,,,TRUE,,,,,,,,FEW,4200,SCT,8400,OVC,10000,,,VFR,,,,,,,,,,,,METAR,191.0
LFBU 180730Z AUTO 27009KT 3300 BR ////// 12/11 Q1025,LFBU,2014-12-18T07:30:00Z,45.72,0.22,12.0,11.0,270,9,,2.05,30.265747,,,TRUE,,,,,,,BR,,,,,,,,,,,,,,,,,,,,,METAR,133.0
LFAT 180730Z AUTO 24012KT 200V280 9999 BKN010 OVC017 12/11 Q1013,LFAT,2014-12-18T07:30:00Z,50.52,1.62,12.0,11.0,240,12,,6.21,29.911417,,,TRUE,,,,,,,,BKN,1000,OVC,1700,,,,,MVFR,,,,,,,,,,,,METAR,14.0
LFAQ 180730Z AUTO 26016KT 1800 -DZ BR OVC004 12/11 Q1013,LFAQ,2014-12-18T07:30:00Z,49.97,2.7,12.0,11.0,260,16,,1.12,29.911417,,,TRUE,,,,,,,-DZ BR,OVC,400,,,,,,,LIFR,,,,,,,,,,,,METAR,111.0
LRTC 180730Z 34006KT 0400 R34/0800D FG OVC002 04/04 Q1015,LRTC,2014-12-18T07:30:00Z,45.07,28.72,4.0,4.0,340,6,,0.25,29.970472,,,,,,,,,,FG,OVC,200,,,,,,,LIFR,,,,,,,,,,,,METAR,6.0
LRSV 180730Z 25006KT 0100 R34/0125N FZFG NSC M01/M01 Q1014,LRSV,2014-12-18T07:30:00Z,47.68,26.35,-1.0,-1.0,250,6,,0.06,29.940945,,,,,,,,,,FZFG,,,,,,,,,,,,,,,,,,,,,METAR,351.0
LRIA 180730Z 00000KT 7000 OVC007 03/02 Q1016 R14/19//95,LRIA,2014-12-18T07:30:00Z,47.17,27.62,3.0,2.0,0,0,,4.35,30.0,,,,,,,,,,,OVC,700,,,,,,,IFR,,,,,,,,,,,,METAR,104.0
LRCV 180730Z 06006KT 1200 R09/1100VP2000U BR BKN002 OVC004 00/M00 Q1015 R09/19//95,LRCV,2014-12-18T07:30:00Z,44.32,23.88,0.0,0.0,60,6,,0.75,29.970472,,,,,,,,,,BR,BKN,200,OVC,400,,,,,LIFR,,,,,,,,,,,,METAR,191.0
LRBC 180730Z VRB02KT 4700 BR SCT004 BKN006 03/03 Q1015 R16/19//95,LRBC,2014-12-18T07:30:00Z,46.52,26.92,3.0,3.0,0,2,,2.92,29.970472,,,,,,,,,,BR,SCT,400,BKN,600,,,,,IFR,,,,,,,,,,,,METAR,185.0
LFSN 180730Z AUTO 21006KT 180V250 4100 -RA BR OVC011 09/08 Q1016,LFSN,2014-12-18T07:30:00Z,48.67,6.22,9.0,8.0,210,6,,2.55,30.0,,,TRUE,,,,,,,-RA BR,OVC,1100,,,,,,,IFR,,,,,,,,,,,,METAR,217.0
LFQB 180730Z AUTO 26011KT 9999 OVC010 12/11 Q1017,LFQB,2014-12-18T07:30:00Z,48.32,4.02,12.0,11.0,260,11,,6.21,30.029528,,,TRUE,,,,,,,,OVC,1000,,,,,,,MVFR,,,,,,,,,,,,METAR,118.0
LFQA 180730Z AUTO 26008KT 9999 OVC012 12/11 Q1015,LFQA,2014-12-18T07:30:00Z,49.2,4.15,12.0,11.0,260,8,,6.21,29.970472,,,TRUE,,,,,,,,OVC,1200,,,,,,,MVFR,,,,,,,,,,,,METAR,95.0
LFPB 180730Z AUTO 27010KT 9999 OVC009 13/12 Q1016,LFPB,2014-12-18T07:30:00Z,48.97,2.45,13.0,12.0,270,10,,6.21,30.0,,,TRUE,,,,,,,,OVC,900,,,,,,,IFR,,,,,,,,,,,,METAR,65.0
LFOP 180730Z AUTO 27012KT 230V300 9999 OVC005 12/11 Q1016,LFOP,2014-12-18T07:30:00Z,49.37,1.17,12.0,11.0,270,12,,6.21,30.0,,,TRUE,,,,,,,,OVC,500,,,,,,,IFR,,,,,,,,,,,,METAR,157.0
LFOK 180730Z AUTO 23010KT 9999 BKN005 OVC010 11/11 Q1016,LFOK,2014-12-18T07:30:00Z,48.78,4.18,11.0,11.0,230,10,,6.21,30.0,,,TRUE,,,,,,,,BKN,500,OVC,1000,,,,,IFR,,,,,,,,,,,,METAR,162.0
LFOH 180730Z AUTO 24020KT 9999 OVC002 11/11 Q1016,LFOH,2014-12-18T07:30:00Z,49.52,0.07,11.0,11.0,240,20,,6.21,30.0,,,TRUE,,,,,,,,OVC,200,,,,,,,LIFR,,,,,,,,,,,,METAR,103.0
LFOB 180730Z AUTO 26014KT 9999 OVC008 12/11 Q1015,LFOB,2014-12-18T07:30:00Z,49.47,2.12,12.0,11.0,260,14,,6.21,29.970472,,,TRUE,,,,,,,,OVC,800,,,,,,,IFR,,,,,,,,,,,,METAR,111.0
LFMU 180730Z AUTO 23011KT 9999 NSC 12/09 Q1022,LFMU,2014-12-18T07:30:00Z,43.32,3.35,12.0,9.0,230,11,,6.21,30.177166,,,TRUE,,,,,,,,,,,,,,,,,,,,,,,,,,,,METAR,17.0
LFMT 180730Z 29010KT CAVOK 15/09 Q1021 NOSIG,LFMT,2014-12-18T07:30:00Z,43.57,3.97,15.0,9.0,290,10,,6.21,30.147638,,,,,,TRUE,,,,,CAVOK,,,,,,,,VFR,,,,,,,,,,,,METAR,6.0
LFLY 180730Z AUTO 00000KT 2200 -RA BR SCT006 BKN026 OVC038 07/07 Q1022,LFLY,2014-12-18T07:30:00Z,45.72,4.95,7.0,7.0,0,0,,1.37,30.177166,,,TRUE,,,,,,,-RA BR,SCT,600,BKN,2600,OVC,3800,,,IFR,,,,,,,,,,,,METAR,201.0
LFLU 180730Z AUTO 03004KT 2300 -RA BR BKN025 OVC033 08/07 Q1021,LFLU,2014-12-18T07:30:00Z,44.92,4.98,8.0,7.0,30,4,,1.43,30.147638,,,TRUE,,,,,,,-RA BR,BKN,2500,OVC,3300,,,,,IFR,,,,,,,,,,,,METAR,160.0
LFLS 180730Z AUTO 09005KT 8000 -RA BKN030 OVC036 06/05 Q1022,LFLS,2014-12-18T07:30:00Z,45.37,5.32,6.0,5.0,90,5,,4.97,30.177166,,,TRUE,,,,,,,-RA,BKN,3000,OVC,3600,,,,,MVFR,,,,,,,,,,,,METAR,386.0
LFLP 180730Z AUTO 00000KT 5000 -RA BR BKN050 OVC062 05/04 Q1022,LFLP,2014-12-18T07:30:00Z,45.92,6.08,5.0,4.0,0,0,,3.11,30.177166,,,TRUE,,,,,,,-RA BR,BKN,5000,OVC,6200,,,,,MVFR,,,,,,,,,,,,METAR,463.0
ETIH 180729Z AUTO VRB04KT 9999 OVC007 06/06 A3000 RMK AO2,ETIH,2014-12-18T07:29:00Z,49.22,11.82,6.0,6.0,0,4,,6.21,30.0,,,TRUE,TRUE,,,,,,,OVC,700,,,,,,,IFR,,,,,,,,,,,,SPECI,442.0
CYYD 180729Z AUTO 13004KT 9SM OVC024 M03/M04 A2982 RMK SLP123,CYYD,2014-12-18T07:29:00Z,54.82,-127.18,-3.0,-4.0,130,4,,9.0,29.819881,1012.3,,TRUE,,,,,,,,OVC,2400,,,,,,,MVFR,,,,,,,,,,,,SPECI,523.0
CYXR 180729Z AUTO 32015KT 6SM -SN BKN015 OVC025 M09/M10 A3005 RMK SLP195,CYXR,2014-12-18T07:29:00Z,47.7,-79.83,-9.0,-10.0,320,15,,6.0,30.050198,1019.5,,TRUE,,,,,,,-SN,BKN,1500,OVC,2500,,,,,MVFR,,,,,,,,,,,,SPECI,243.0
KVWU 180729Z AUTO 00000KT 10SM CLR M17/M19 A3030 RMK AO2,KVWU,2014-12-18T07:29:00Z,48.15,-94.52,-17.0,-19.0,0,0,,10.0,30.301182,,,TRUE,TRUE,,,,,,,CLR,,,,,,,,VFR,,,,,,,,,,,,SPECI,360.0
LTAW 180729Z 00000KT 5000 BR SCT040 BKN100 04/02 Q1020 RMK RWY22 VRB02KT,LTAW,2014-12-18T07:29:00Z,40.28,36.37,4.0,2.0,0,0,,3.11,30.11811,,,,,,,,,,BR,SCT,4000,BKN,10000,,,,,MVFR,,,,,,,,,,,,SPECI,608.0
RJTC 180728Z 34010G20KT 9999 FEW030 06/M14 Q1016 RMK 1CU030 A3001,RJTC,2014-12-18T07:28:00Z,35.7,139.4,6.0,-14.0,340,10,20,6.21,30.0,,,,,,,,,,,FEW,3000,,,,,,,VFR,,,,,,,,,,,,SPECI,98.0
MHSC 180728Z AUTO 06003KT 9999 BKN028 BKN033 16/15 A3010 RMK AO2 CIG 028V033 BKN028 V SCT $,MHSC,2014-12-18T07:28:00Z,14.37,-87.62,16.0,15.0,60,3,,6.21,30.100393,,,TRUE,TRUE,TRUE,,,,,,BKN,2800,BKN,3300,,,,,MVFR,,,,,,,,,,,,SPECI,626.0
KFTK 180728Z AUTO 01002KT 10SM OVC015 M02/M05 A3027 RMK AO2,KFTK,2014-12-18T07:28:00Z,37.88,-85.97,-2.0,-5.0,10,2,,10.0,30.268702,,,TRUE,TRUE,,,,,,,OVC,1500,,,,,,,MVFR,,,,,,,,,,,,SPECI,230.0
YGTH 180728Z AUTO 24022KT 9999 // NCD 30/M01 Q1006,YGTH,2014-12-18T07:28:00Z,-34.25,146.07,30.0,-1.0,240,22,,6.21,29.704725,,,TRUE,,,,,,,,,,,,,,,,,,,,,,,,,,,,SPECI,134.0
CYLL 180727Z AUTO 14006KT 1SM BR OVC002 M08/M09 A2985 RMK VIS VRB 3/4-1 3/4 ICG SLP152,CYLL,2014-12-18T07:27:00Z,53.32,-110.07,-8.0,-9.0,140,6,,1.0,29.84941,1015.2,,TRUE,,,,,,,BR,OVC,200,,,,,,,LIFR,,,,,,,,,,,,SPECI,669.0
PPIZ 180726Z AUTO 18021KT 3/4SM -SN BR M21/M23 A2976 RMK AO2 TSNO P0000 PK WND 19028/0714 $,PPIZ,2014-12-18T07:26:00Z,69.73,-163.0,-21.0,-23.0,180,21,,0.75,29.760826,,,TRUE,TRUE,TRUE,,TRUE,,,-SN BR,,,,,,,,,,,,,,,0.0050,,,,,,SPECI,8.0
CYPX 180726Z AUTO 21017KT 6SM -SN OVC011 M12/M12 A2994 RMK SLP141,CYPX,2014-12-18T07:26:00Z,60.03,-77.27,-12.0,-12.0,210,17,,6.0,29.940945,1014.1,,TRUE,,,,,,,-SN,OVC,1100,,,,,,,MVFR,,,,,,,,,,,,SPECI,23.0
EHFS 180725Z AUTO 25022KT 8000 FEW007/// OVC015/// 10/09 Q1009,EHFS,2014-12-18T07:25:00Z,51.45,3.6,10.0,9.0,250,22,,4.97,29.793306,,,TRUE,,,,,,,,,,,,,,,,,,,,,,,,,,,,METAR,32.0
EHWO 180725Z AUTO 23010KT 2500 R25/2200 DZ SCT003 OVC004 11/11 Q1009 YLO 23010KT 4000 BR BKN005 OVC007 TEMPO 2000 DZ BKN003 OVC005,EHWO,2014-12-18T07:25:00Z,51.45,4.32,11.0,11.0,230,10,,1.55,29.793306,,,TRUE,,,,,,,DZ BR,SCT,300,OVC,400,BKN,500,OVC,700,LIFR,,,,,,,,,,,,METAR,17.0
EHVL 180725Z AUTO 23014KT 5000 BR SCT004 OVC005 09/09 Q1005 YLO,EHVL,2014-12-18T07:25:00Z,53.23,4.92,9.0,9.0,230,14,,3.11,29.675198,,,TRUE,,,,,,,BR,SCT,400,OVC,500,,,,,IFR,,,,,,,,,,,,METAR,5.0
EHVK 180725Z AUTO 23011KT 2000 R24R/2000 -DZRA SCT004 OVC005 11/11 Q1008 REDZ YLO,EHVK,2014-12-18T07:25:00Z,51.63,5.7,11.0,11.0,230,11,,1.24,29.763779,,,TRUE,,,,,,,RA -DZ,SCT,400,OVC,500,,,,,IFR,,,,,,,,,,,,METAR,21.0
EHLW 180725Z AUTO 21007KT 1400 R23/1500 +DZRA OVC001 09/09 Q1005 RED 22010KT 1000 DZRA OVC002 TEMPO 22010KT 0500 FG BKN000 OVC001,EHLW,2014-12-18T07:25:00Z,53.22,5.75,9.0,9.0,210,7,,0.87,29.675198,,,TRUE,,,,,,,RA RA +DZ,OVC,100,OVC,200,,,,,LIFR,,,,,,,,,,,,SPECI,2.0
EHKD 180725Z AUTO 23014KT 8000 BR FEW004 SCT012 BKN025 10/10 Q1006 GRN 23012KT 8000 SCT005 BKN010 BKN025 TEMPO 4500 BR -DZ SCT004 BKN007,EHKD,2014-12-18T07:25:00Z,52.92,4.77,10.0,10.0,230,14,,4.97,29.704725,,,TRUE,,,,,,,BR,FEW,400,SCT,1200,BKN,2500,SCT,500,MVFR,,,,,,,,,,,,METAR,14.0
EHGR 180725Z AUTO 24007KT 4700 -RA FEW004 BKN006 OVC007 11/11 Q1009 YLO,EHGR,2014-12-18T07:25:00Z,51.57,4.92,11.0,11.0,240,7,,2.92,29.793306,,,TRUE,,,,,,,-RA,FEW,400,BKN,600,OVC,700,,,IFR,,,,,,,,,,,,METAR,13.0
EHEH 180725Z AUTO 23010KT 4400 R21/2500 BR SCT004 BKN005 OVC006 11/11 Q1009 REDZ YLO 23010KT 4000 BR DZ BKN006 OVC007 TEMPO 2000 +DZ SCT003 BKN004 OVC005,EHEH,2014-12-18T07:25:00Z,51.45,5.38,11.0,11.0,230,10,,2.73,29.793306,,,TRUE,,,,,,,DZ BR BR,SCT,400,BKN,500,OVC,600,BKN,600,IFR,,,,,,,,,,,,METAR,22.0
EHDL 180725Z AUTO 24009KT 3300 DZ BKN003 OVC005 10/10 Q1008 YLO,EHDL,2014-12-18T07:25:00Z,52.07,5.87,10.0,10.0,240,9,,2.05,29.763779,,,TRUE,,,,,,,DZ,BKN,300,OVC,500,,,,,LIFR,,,,,,,,,,,,METAR,52.0
OPLA 180725Z 12003KT 0800 FG NSC 10/09 Q1021/A30.15 BECMG 1000 BR,OPLA,2014-12-18T07:25:00Z,31.52,74.4,10.0,9.0,120,3,,0.5,,,,,,,,,,,FG,,,,,,,,,,,,,,,,,,,,,SPECI,217.0
OPKC 180725Z 14005KT 5000 HZ SCT200 25/M01 Q1020 NOSIG,OPKC,2014-12-18T07:25:00Z,24.88,67.17,25.0,-1.0,140,5,,3.11,30.11811,,,,,,TRUE,,,,HZ,SCT,20000,,,,,,,MVFR,,,,,,,,,,,,METAR,22.0
CYQA 180725Z AUTO 31010KT 9SM OVC013 M04/M06 A2995 RMK SLP155,CYQA,2014-12-18T07:25:00Z,44.97,-79.28,-4.0,-6.0,310,10,,9.0,29.949802,1015.5,,TRUE,,,,,,,,OVC,1300,,,,,,,MVFR,,,,,,,,,,,,SPECI,282.0
EGSD 180725Z 24013KT 9999 BKN012 12/11 Q1006,EGSD,2014-12-18T07:25:00Z,52.63,1.72,12.0,11.0,240,13,,6.21,29.704725,,,,,,,,,,,BKN,1200,,,,,,,MVFR,,,,,,,,,,,,METAR,2.0
EHSA 180725Z AUTO 24022G25KT 9999 ///////// 12/10 Q1008 W09/H12,EHSA,2014-12-18T07:25:00Z,52.0,3.28,12.0,10.0,240,22,25,6.21,29.763779,,,TRUE,,,,,,,,,,,,,,,,,,,,,,,,,,,,METAR,50.0
EHQE 180725Z AUTO 24022KT 9999 FEW011/// BKN025/// OVC028/// 11/10 Q////,EHQE,2014-12-18T07:25:00Z,52.92,4.15,11.0,10.0,240,22,,6.21,,,,TRUE,,,,,,,,,,,,,,,,,,,,,,,,,,,,METAR,50.0
EHPG 180725Z AUTO 22024KT 9999 FEW013/// BKN017/// BKN020/// 11/11 Q1006,EHPG,2014-12-18T07:25:00Z,52.37,3.35,11.0,11.0,220,24,,6.21,29.704725,,,TRUE,,,,,,,,,,,,,,,,,,,,,,,,,,,,METAR,50.0
EHMG 180725Z AUTO 24025KT 9999 FEW004/// SCT005/// 11/10 Q1003,EHMG,2014-12-18T07:25:00Z,53.62,4.97,11.0,10.0,240,25,,6.21,29.616142,,,TRUE,,,,,,,,,,,,,,,,,,,,,,,,,,,,METAR,50.0
EHMA 180725Z AUTO 22018KT 1100 BR OVC000/// 09/09 Q1005,EHMA,2014-12-18T07:25:00Z,53.5,5.95,9.0,9.0,220,18,,0.68,29.675198,,,TRUE,,,,,,,BR,,,,,,,,,,,,,,,,,,,,,METAR,50.0
EHKV 180725Z AUTO 25027KT 9999 SCT031/// OVC037/// 11/10 Q1005,EHKV,2014-12-18T07:25:00Z,53.27,3.63,11.0,10.0,250,27,,6.21,29.675198,,,TRUE,,,,,,,,,,,,,,,,,,,,,,,,,,,,METAR,50.0
EHJA 180725Z AUTO 22028KT 9999 FEW008/// 10/10 Q1002,EHJA,2014-12-18T07:25:00Z,53.82,2.95,10.0,10.0,220,28,,6.21,29.586615,,,TRUE,,,,,,,,,,,,,,,,,,,,,,,,,,,,METAR,50.0
EHFZ 180725Z AUTO 23024KT 9999 FEW014/// SCT017/// BKN038/// 10/09 Q1003,EHFZ,2014-12-18T07:25:00Z,54.12,4.02,10.0,9.0,230,24,,6.21,29.616142,,,TRUE,,,,,,,,,,,,,,,,,,,,,,,,,,,,METAR,50.0
EHDV 180725Z AUTO 23022KT 9999 FEW008/// 10/09 Q1001,EHDV,2014-12-18T07:25:00Z,54.32,2.93,10.0,9.0,230,22,,6.21,29.557087,,,TRUE,,,,,,,,,,,,,,,,,,,,,,,,,,,,METAR,50.0
EHAK 180725Z AUTO 22025KT 9999 FEW003/// SCT028/// 09/09 Q0998,EHAK,2014-12-18T07:25:00Z,55.42,3.82,9.0,9.0,220,25,,6.21,29.468504,,,TRUE,,,,,,,,,,,,,,,,,,,,,,,,,,,,METAR,50.0
EHJR 180725Z AUTO 22026G28KT //// ///////// 11/10 Q1004 W10/H12,EHJR,2014-12-18T07:25:00Z,53.22,3.22,11.0,10.0,220,26,28,,29.64567,,,TRUE,,,,,,,,,,,,,,,,,,,,,,,,,,,,METAR,50.0
EHSC 180725Z AUTO 24020G22KT 6000 ///////// 10/10 Q1008 W09/H10,EHSC,2014-12-18T07:25:00Z,51.93,3.67,10.0,10.0,240,20,22,3.73,29.763779,,,TRUE,,,,,,,,,,,,,,,,,,,,,,,,,,,,METAR,50.0
PARY 180724Z AUTO 00000KT 1/2SM FZFG OVC001 M10/ A2968 RMK AO2 TSNO $,PARY,2014-12-18T07:24:00Z,64.73,-155.47,-10.0,,0,0,,0.5,29.681103,,,TRUE,TRUE,TRUE,,TRUE,,,FZFG,OVC,100,,,,,,,LIFR,,,,,,,,,,,,SPECI,199.0
PAOO 180724Z AUTO 09010KT 10SM BKN022 M04/M07 A2945 RMK AO2 TSNO $,PAOO,2014-12-18T07:24:00Z,60.53,-165.12,-4.0,-7.0,90,10,,10.0,29.450787,,,TRUE,TRUE,TRUE,,TRUE,,,,BKN,2200,,,,,,,MVFR,,,,,,,,,,,,SPECI,18.0
KDYS 180723Z AUTO 17007KT 10SM SCT007 09/06 A3004 RMK AO2,KDYS,2014-12-18T07:23:00Z,32.42,-99.83,9.0,6.0,170,7,,10.0,30.041338,,,TRUE,TRUE,,,,,,,SCT,700,,,,,,,VFR,,,,,,,,,,,,SPECI,545.0
RJCN 180722Z 01011KT 4900 -SHSN FEW003 SCT010 BKN025 M01/M02 Q1004 RMK 1ST003 4ST010 7CU025 A2965,RJCN,2014-12-18T07:22:00Z,43.57,144.97,-1.0,-2.0,10,11,,3.04,29.64567,,,,,,,,,,-SHSN,FEW,300,SCT,1000,BKN,2500,,,MVFR,,,,,,,,,,,,SPECI,70.0
CYZF 180722Z 09005KT 15SM OVC005 M15/M17 A2969 RMK SC8 SLP079,CYZF,2014-12-18T07:22:00Z,62.47,-114.45,-15.0,-17.0,90,5,,15.0,29.68996,1007.9,,,,,,,,,,OVC,500,,,,,,,IFR,,,,,,,,,,,,SPECI,206.0
CYUA 180722Z AUTO 30015KT 9SM -UP OVC025 OVC048 M18/ A2979,CYUA,2014-12-18T07:22:00Z,68.95,-137.28,-18.0,,300,15,,9.0,29.790354,,,TRUE,,,,,,,UP,OVC,2500,OVC,4800,,,,,MVFR,,,,,,,,,,,,SPECI,38.0
KDLF 180722Z AUTO 33003KT 10SM OVC006 12/09 A3007 RMK AO2 $,KDLF,2014-12-18T07:22:00Z,29.37,-100.77,12.0,9.0,330,3,,10.0,30.070866,,,TRUE,TRUE,TRUE,,,,,,OVC,600,,,,,,,IFR,,,,,,,,,,,,SPECI,330.0
KQLP 180721Z AUTO VRB02KT 22/10 Q1025 RMK AO2 SLP162 PWINO TSNO $,KQLP,2014-12-18T07:21:00Z,100.65,-1000.65,22.0,10.0,0,2,,,30.265747,1016.2,,TRUE,TRUE,TRUE,,TRUE,,TRUE,,,,,,,,,,,,,,,,,,,,,,SPECI,999.0
ETOU 180721Z AUTO 17004KT 6000 BR SCT002 OVC011 08/08 A2993 RMK AO2 CIG 002V011,ETOU,2014-12-18T07:21:00Z,50.03,8.32,8.0,8.0,170,4,,3.73,29.929134,,,TRUE,TRUE,,,,,,BR,SCT,200,OVC,1100,,,,,MVFR,,,,,,,,,,,,SPECI,141.0
KDIK 180721Z AUTO 16008KT 10SM OVC009 M07/M09 A3000 RMK AO2 CIG 006V011 T10671089,KDIK,2014-12-18T07:21:00Z,46.8,-102.8,-6.7,-8.9,160,8,,10.0,30.0,,,TRUE,TRUE,,,,,,,OVC,900,,,,,,,IFR,,,,,,,,,,,,METAR,788.0
KTWM 180721Z AUTO 00001KT 10SM OVC015 M06/M08 A3029 RMK AO2,KTWM,2014-12-18T07:21:00Z,47.03,-91.75,-6.0,-8.0,0,1,,10.0,30.28937,,,TRUE,TRUE,,,,,,,OVC,1500,,,,,,,MVFR,,,,,,,,,,,,SPECI,328.0
EGPU 180720Z AUTO 27021KT 340V040 //// // ///////// 07/06 Q////,EGPU,2014-12-18T07:20:00Z,56.5,-6.87,7.0,6.0,270,21,,,,,,TRUE,,,,,,,,,,,,,,,,,,,,,,,,,,,,SPECI,12.0
EGPI 180720Z AUTO 27009KT 3300 RA BKN002/// BKN010/// 09/09 Q0994,EGPI,2014-12-18T07:20:00Z,55.68,-6.25,9.0,9.0,270,9,,2.05,29.350393,,,TRUE,,,,,,,RA,,,,,,,,,,,,,,,,,,,,,SPECI,18.0
KRSP 180720Z AUTO 10SM OVC028 M02/M08 A2998 RMK AO2 $,KRSP,2014-12-18T07:20:00Z,39.65,-77.47,-2.0,-8.0,,,,10.0,29.97933,,,TRUE,TRUE,TRUE,,,,,,OVC,2800,,,,,,,MVFR,,,,,,,,,,,,SPECI,561.0
LTCJ 180720Z VRB02KT 2300 BCFG SCT003 BKN100 06/06 Q1024,LTCJ,2014-12-18T07:20:00Z,37.93,41.12,6.0,6.0,0,2,,1.43,30.236221,,,,,,,,,,BCFG,SCT,300,BKN,10000,,,,,IFR,,,,,,,,,,,,METAR,540.0
LTCE 180720Z 00000KT 6000 SCT030 BKN080 M02/M04 Q1023 NOSIG,LTCE,2014-12-18T07:20:00Z,39.95,41.17,-2.0,-4.0,0,0,,3.73,30.206694,,,,,,TRUE,,,,,SCT,3000,BKN,8000,,,,,MVFR,,,,,,,,,,,,METAR,1758.0
LTCC 180720Z VRB02KT 0200 R34/0250U R16/0250N FG VV002 05/05 Q1025 NOSIG,LTCC,2014-12-18T07:20:00Z,37.87,40.2,5.0,5.0,0,2,,0.12,30.265747,,,,,,TRUE,,,,FG,OVX,0,,,,,,,LIFR,,,,,,,,,,,200,SPECI,677.0
LTAU 180720Z 36006KT 9999 FEW040 06/01 Q1020 NOSIG,LTAU,2014-12-18T07:20:00Z,38.77,35.47,6.0,1.0,360,6,,6.21,30.11811,,,,,,TRUE,,,,,FEW,4000,,,,,,,VFR,,,,,,,,,,,,METAR,1054.0
LTAT 180720Z 36004KT 9999 FEW012 BKN035 BKN090 05/04 Q1024 NOSIG,LTAT,2014-12-18T07:20:00Z,38.42,38.07,5.0,4.0,360,4,,6.21,30.236221,,,,,,TRUE,,,,,FEW,1200,BKN,3500,BKN,9000,,,VFR,,,,,,,,,,,,METAR,849.0
LTAP 180720Z 00000KT 8000 SCT038 BKN120 04/01 Q1018 NOSIG,LTAP,2014-12-18T07:20:00Z,40.83,35.52,4.0,1.0,0,0,,4.97,30.059055,,,,,,TRUE,,,,,SCT,3800,BKN,12000,,,,,MVFR,,,,,,,,,,,,METAR,535.0
LTAG 180720Z 32004KT CAVOK 14/06 Q1021 NOSIG,LTAG,2014-12-18T07:20:00Z,37.0,35.42,14.0,6.0,320,4,,6.21,30.147638,,,,,,TRUE,,,,,CAVOK,,,,,,,,VFR,,,,,,,,,,,,METAR,66.0
LCEN 180720Z 28004KT 8000 FEW030 BKN100 BKN200 13/11 Q1019 NOSIG,LCEN,2014-12-18T07:20:00Z,35.13,33.5,13.0,11.0,280,4,,4.97,30.088583,,,,,,TRUE,,,,,FEW,3000,BKN,10000,BKN,20000,,,MVFR,,,,,,,,,,,,METAR,91.0
LTAI 180720Z 04006KT 010V070 7000 -SHRA BKN030 BKN100 13/11 Q1019 BECMG TL0900 -TSRA FEW015CB,LTAI,2014-12-18T07:20:00Z,36.9,30.8,13.0,11.0,40,6,,4.35,30.088583,,,,,,,,,,-SHRA,BKN,3000,BKN,10000,,,,,MVFR,,,,,,,,,,,,SPECI,54.0
LTFJ 180720Z 22006KT 190V260 9999 SCT035 BKN090 12/10 Q1015 NOSIG,LTFJ,2014-12-18T07:20:00Z,40.9,29.3,12.0,10.0,220,6,,6.21,29.970472,,,,,,TRUE,,,,,SCT,3500,BKN,9000,,,,,VFR,,,,,,,,,,,,METAR,98.0
LTFE 180720Z 07004KT 9999 FEW006 FEW012CB BKN030 13/12 Q1017 RETSRA NOSIG,LTFE,2014-12-18T07:20:00Z,37.25,27.67,13.0,12.0,70,4,,6.21,30.029528,,,,,,TRUE,,,,,FEW,600,FEW,1200,BKN,3000,,,MVFR,,,,,,,,,,,,METAR,6.0
LTFC 180720Z 00000KT 3400 BR FEW013 SCT035 BKN090 08/07 Q1019,LTFC,2014-12-18T07:20:00Z,37.87,30.38,8.0,7.0,0,0,,2.11,30.088583,,,,,,,,,,BR,FEW,1300,SCT,3500,BKN,9000,,,IFR,,,,,,,,,,,,METAR,864.0
LTCS 180720Z 14005KT CAVOK 07/04 Q1025,LTCS,2014-12-18T07:20:00Z,37.45,38.9,7.0,4.0,140,5,,6.21,30.265747,,,,,,,,,,,CAVOK,,,,,,,,VFR,,,,,,,,,,,,METAR,825.0
LTCG 180720Z 11004KT 080V140 9999 BKN100 14/04 Q1017 NOSIG,LTCG,2014-12-18T07:20:00Z,41.0,39.8,14.0,4.0,110,4,,6.21,30.029528,,,,,,TRUE,,,,,BKN,10000,,,,,,,VFR,,,,,,,,,,,,METAR,30.0
LTBS 180720Z 04006KT 360V080 8000 -TSRA FEW020CB SCT025 BKN080 13/11 Q1017 RETSRA BECMG TL0740 NSW,LTBS,2014-12-18T07:20:00Z,36.7,28.77,13.0,11.0,40,6,,4.97,30.029528,,,,,,,,,,-TSRA,FEW,2000,SCT,2500,BKN,8000,,,MVFR,,,,,,,,,,,,SPECI,2.0
LTBR 180720Z VRB03KT 9999 SCT040 BKN110 10/08 Q1016 NOSIG,LTBR,2014-12-18T07:20:00Z,40.25,29.57,10.0,8.0,0,3,,6.21,30.0,,,,,,TRUE,,,,,SCT,4000,BKN,11000,,,,,VFR,,,,,,,,,,,,METAR,232.0
LTBJ 180720Z 18004KT 110V200 6000 SCT030 BKN100 12/12 Q1017 NOSIG,LTBJ,2014-12-18T07:20:00Z,38.28,27.15,12.0,12.0,180,4,,3.73,30.029528,,,,,,TRUE,,,,,SCT,3000,BKN,10000,,,,,MVFR,,,,,,,,,,,,METAR,120.0
LTBA 180720Z 25007KT 9999 SCT034 BKN100 13/11 Q1016 NOSIG,LTBA,2014-12-18T07:20:00Z,40.97,28.82,13.0,11.0,250,7,,6.21,30.0,,,,,,TRUE,,,,,SCT,3400,BKN,10000,,,,,VFR,,,,,,,,,,,,METAR,37.0
LTAZ 180720Z 12011KT 9999 SCT040 07/01 Q1019,LTAZ,2014-12-18T07:20:00Z,38.77,34.55,7.0,1.0,120,11,,6.21,30.088583,,,,,,,,,,,SCT,4000,,,,,,,VFR,,,,,,,,,,,,METAR,945.0
LTAJ 180720Z VRB01KT 9999 SCT040 BKN100 09/05 Q1024 NOSIG,LTAJ,2014-12-18T07:20:00Z,36.95,37.48,9.0,5.0,0,1,,6.21,30.236221,,,,,,TRUE,,,,,SCT,4000,BKN,10000,,,,,VFR,,,,,,,,,,,,METAR,855.0
LTAF 180720Z 04003KT 9999 SCT036 BKN100 14/06 Q1021 NOSIG,LTAF,2014-12-18T07:20:00Z,36.97,35.28,14.0,6.0,40,3,,6.21,30.147638,,,,,,TRUE,,,,,SCT,3600,BKN,10000,,,,,VFR,,,,,,,,,,,,METAR,20.0
LTAC 180720Z VRB02KT 3400 -RA BR SCT003 BKN030 OVC080 00/00 Q1019 NOSIG,LTAC,2014-12-18T07:20:00Z,40.12,32.97,0.0,0.0,0,2,,2.11,30.088583,,,,,,TRUE,,,,-RA BR,SCT,300,BKN,3000,OVC,8000,,,IFR,,,,,,,,,,,,METAR,949.0
ETNT 180720Z 22009KT 2000 -DZ BR BKN003 09/09 Q1005 YLO,ETNT,2014-12-18T07:20:00Z,53.53,7.67,9.0,9.0,220,9,,1.24,29.675198,,,,,,,,,,-DZ BR,BKN,300,,,,,,,LIFR,,,,,,,,,,,,SPECI,12.0
ETGG 180720Z 21012KT 1100 -DZRA BR BKN003 08/08 Q1002 AMB,ETGG,2014-12-18T07:20:00Z,54.83,9.5,8.0,8.0,210,12,,0.68,29.586615,,,,,,,,,,-DZ -RA BR,BKN,300,,,,,,,LIFR,,,,,,,,,,,,METAR,33.0
ETSA 180720Z 22010KT 9999 -RA SCT025 BKN050 07/04 Q1017 BLU BLU,ETSA,2014-12-18T07:20:00Z,48.07,10.9,7.0,4.0,220,10,,6.21,30.029528,,,,,,,,,,-RA,SCT,2500,BKN,5000,,,,,VFR,,,,,,,,,,,,METAR,628.0
ETSN 180720Z 22004KT 9999 BKN012 BKN026 07/05 Q1017 BLACKGRN,ETSN,2014-12-18T07:20:00Z,48.72,11.22,7.0,5.0,220,4,,6.21,30.029528,,,,,,,,,,,BKN,1200,BKN,2600,,,,,MVFR,,,,,,,,,,,,METAR,387.0
ETSL 180720Z 22009KT 9999 BKN035 BKN050 07/04 Q1017 BLU,ETSL,2014-12-18T07:20:00Z,48.17,10.87,7.0,4.0,220,9,,6.21,30.029528,,,,,,,,,,,BKN,3500,BKN,5000,,,,,VFR,,,,,,,,,,,,METAR,562.0
ETSI 180720Z 26007KT 9999 FEW018 BKN030 BKN060 07/05 Q1016 BLU WHT TEMPO GRN,ETSI,2014-12-18T07:20:00Z,48.72,11.52,7.0,5.0,260,7,,6.21,30.0,,,,,,,,,,,FEW,1800,BKN,3000,BKN,6000,,,MVFR,,,,,,,,,,,,METAR,370.0
ETSE 180720Z 22003KT 9999 FEW015 SCT027 BKN040 07/06 Q1017 BLU,ETSE,2014-12-18T07:20:00Z,48.32,11.93,7.0,6.0,220,3,,6.21,30.029528,,,,,,,,,,,FEW,1500,SCT,2700,BKN,4000,,,VFR,,,,,,,,,,,,METAR,467.0
ETSB 180720Z 24010KT 1400 -DZ BR SCT000 OVC001 08/08 Q1012 RED,ETSB,2014-12-18T07:20:00Z,50.17,7.07,8.0,8.0,240,10,,0.87,29.88189,,,,,,,,,,-DZ BR,SCT,0,OVC,100,,,,,LIFR,,,,,,,,,,,,METAR,486.0
ETHL 180720Z 22008KT 9999 BKN010 06/05 Q1017 GRN GRN,ETHL,2014-12-18T07:20:00Z,48.22,9.92,6.0,5.0,220,8,,6.21,30.029528,,,,,,,,,,,BKN,1000,,,,,,,MVFR,,,,,,,,,,,,METAR,549.0
ETHA 180720Z 24008KT 9999 BKN030 SCT050 07/04 Q1017 BLACKBLU BLU TEMPO GRN,ETHA,2014-12-18T07:20:00Z,47.82,10.87,7.0,4.0,240,8,,6.21,30.029528,,,,,,,,,,,BKN,3000,SCT,5000,,,,,MVFR,,,,,,,,,,,,METAR,760.0
ETWM 180720Z 22009KT 4500 BR BKN004 11/09 Q1007 YLO,ETWM,2014-12-18T07:20:00Z,52.72,7.33,11.0,9.0,220,9,,2.8,29.734253,,,,,,,,,,BR,BKN,400,,,,,,,LIFR,,,,,,,,,,,,METAR,21.0
ETSH 180720Z 22005KT 9999 BKN045 08/06 Q1010 BLU BLU,ETSH,2014-12-18T07:20:00Z,51.77,13.17,8.0,6.0,220,5,,6.21,29.822834,,,,,,,,,,,BKN,4500,,,,,,,VFR,,,,,,,,,,,,METAR,79.0
ETNW 180720Z 22012KT 9000 BKN009 BKN024 11/09 Q1008 GRN YLO TEMPO GRN,ETNW,2014-12-18T07:20:00Z,52.45,9.42,11.0,9.0,220,12,,5.59,29.763779,,,,,,,,,,,BKN,900,BKN,2400,,,,,IFR,,,,,,,,,,,,METAR,70.0
ETNS 180720Z 22010KT 1500 -DZRA BR OVC002 08/08 Q1003 AMB YLO TEMPO RED,ETNS,2014-12-18T07:20:00Z,54.47,9.52,8.0,8.0,220,10,,0.93,29.616142,,,,,,,,,,-DZ -RA BR,OVC,200,,,,,,,LIFR,,,,,,,,,,,,METAR,25.0
ETNL 180720Z 23007KT 8000 BKN005 BKN048 07/06 Q1006 YLO GRN TEMPO YLO,ETNL,2014-12-18T07:20:00Z,53.92,12.27,7.0,6.0,230,7,,4.97,29.704725,,,,,,,,,,,BKN,500,BKN,4800,,,,,IFR,,,,,,,,,,,,METAR,40.0
ETNH 180720Z 20007KT 1500 R26/3700U -RADZ BR BKN003 09/08 Q1004 AMB YLO TEMPO AMB,ETNH,2014-12-18T07:20:00Z,54.32,9.55,9.0,8.0,200,7,,0.93,29.64567,,,,,,,,,,-RA DZ BR,BKN,300,,,,,,,LIFR,,,,,,,,,,,,METAR,17.0
ETND 180720Z 21009KT 3500 BR BKN006 10/10 Q1007 YLO,ETND,2014-12-18T07:20:00Z,52.58,8.35,10.0,10.0,210,9,,2.17,29.734253,,,,,,,,,,BR,BKN,600,,,,,,,IFR,,,,,,,,,,,,METAR,43.0
ETMN 180720Z 23012KT 1800 -DZ BR OVC002 09/09 Q1005 AMB YLO TEMPO AMB,ETMN,2014-12-18T07:20:00Z,53.77,8.67,9.0,9.0,230,12,,1.12,29.675198,,,,,,,,,,-DZ BR,OVC,200,,,,,,,LIFR,,,,,,,,,,,,METAR,31.0
ETML 180720Z AUTO 20009KT //// // ////// 08/06 Q1004 ///,ETML,2014-12-18T07:20:00Z,,,8.0,6.0,200,9,,,29.64567,,,TRUE,,,,,,,,,,,,,,,,,,,,,,,,,,,,METAR,
ETHS 180720Z 24009KT 2000 -DZ BR BKN004 BKN006 09/09 Q1007 YLO,ETHS,2014-12-18T07:20:00Z,52.92,10.18,9.0,9.0,240,9,,1.24,29.734253,,,,,,,,,,-DZ BR,BKN,400,BKN,600,,,,,LIFR,,,,,,,,,,,,METAR,88.0
ETHF 180720Z 19006KT 4000 -DZ BR SCT005 OVC008 08/07 Q1011 GRN YLO TEMPO WHT,ETHF,2014-12-18T07:20:00Z,51.12,9.27,8.0,7.0,190,6,,2.49,29.852362,,,,,,,,,,-DZ BR,SCT,500,OVC,800,,,,,IFR,,,,,,,,,,,,METAR,181.0
ETHE 180720Z 21006KT 5000 BR OVC005 10/10 Q1007 YLO,ETHE,2014-12-18T07:20:00Z,52.28,7.37,10.0,10.0,210,6,,3.11,29.734253,,,,,,,,,,BR,OVC,500,,,,,,,IFR,,,,,,,,,,,,METAR,49.0
ETHC 180720Z 22006KT 4500 -DZRA BR SCT005 BKN007 10/09 Q1008 GRN GRN TEMPO YLO,ETHC,2014-12-18T07:20:00Z,52.6,10.02,10.0,9.0,220,6,,2.8,29.763779,,,,,,,,,,-DZ -RA BR,SCT,500,BKN,700,,,,,IFR,,,,,,,,,,,,METAR,52.0
ETHB 180720Z 22011KT 5000 -DZ BR FEW005 BKN007 BKN015 10/09 Q1008 GRN GRN TEMPO YLO,ETHB,2014-12-18T07:20:00Z,52.27,9.07,10.0,9.0,220,11,,3.11,29.763779,,,,,,,,,,-DZ BR,FEW,500,BKN,700,BKN,1500,,,IFR,,,,,,,,,,,,METAR,78.0
EDNY 180720Z VRB01KT 9999 BKN034 OVC040 06/03 Q1018,EDNY,2014-12-18T07:20:00Z,47.67,9.52,6.0,3.0,0,1,,6.21,30.059055,,,,,,,,,,,BKN,3400,OVC,4000,,,,,VFR,,,,,,,,,,,,METAR,424.0
ENHV 180720Z 33008KT 270V020 9999 SCT039 00/M04 Q0993,ENHV,2014-12-18T07:20:00Z,71.02,25.97,0.0,-4.0,330,8,,6.21,29.320866,,,,,,,,,,,SCT,3900,,,,,,,VFR,,,,,,,,,,,,METAR,14.0
ENSO 180720Z 21008KT 9999 -RA SCT023 BKN065 06/04 Q0990,ENSO,2014-12-18T07:20:00Z,59.78,5.33,6.0,4.0,210,8,,6.21,29.232283,,,,,,,,,,-RA,SCT,2300,BKN,6500,,,,,VFR,,,,,,,,,,,,METAR,49.0
EGPN 180720Z 26010KT 9999 FEW018 SCT028 08/07 Q0992,EGPN,2014-12-18T07:20:00Z,56.45,-3.02,8.0,7.0,260,10,,6.21,29.291338,,,,,,,,,,,FEW,1800,SCT,2800,,,,,VFR,,,,,,,,,,,,METAR,4.0
EGNH 180720Z 23020KT 8000 FEW025 11/10 Q1002,EGNH,2014-12-18T07:20:00Z,53.77,-3.02,11.0,10.0,230,20,,4.97,29.586615,,,,,,,,,,,FEW,2500,,,,,,,MVFR,,,,,,,,,,,,METAR,10.0
EKSN 180720Z 23011KT 9999 BKN049 06/06 Q0997,EKSN,2014-12-18T07:20:00Z,57.5,10.22,6.0,6.0,230,11,,6.21,29.438976,,,,,,,,,,,BKN,4900,,,,,,,VFR,,,,,,,,,,,,METAR,28.0
CYPQ 180719Z AUTO 28010G15KT 9SM BKN020 M01/M03 A2993 RMK SLP143,CYPQ,2014-12-18T07:19:00Z,44.22,-78.37,-1.0,-3.0,280,10,15,9.0,29.929134,1014.3,,TRUE,,,,,,,,BKN,2000,,,,,,,MVFR,,,,,,,,,,,,SPECI,191.0
KSSC 180718Z AUTO 00000KT 10SM CLR 03/02 A3008 RMK AO2,KSSC,2014-12-18T07:18:00Z,33.97,-80.47,3.0,2.0,0,0,,10.0,30.079725,,,TRUE,TRUE,,,,,,,CLR,,,,,,,,VFR,,,,,,,,,,,,SPECI,74.0
CYNE 180718Z AUTO 19008KT 9SM CLR M16/M17 A3019 RMK SLP245,CYNE,2014-12-18T07:18:00Z,53.97,-97.82,-16.0,-17.0,190,8,,9.0,30.188976,1024.5,,TRUE,,,,,,,,CLR,,,,,,,,VFR,,,,,,,,,,,,SPECI,223.0
CYQV 180718Z AUTO 16007KT 9SM OVC013 M11/M12 A3007 RMK SLP223,CYQV,2014-12-18T07:18:00Z,51.27,-102.47,-11.0,-12.0,160,7,,9.0,30.070866,1022.3,,TRUE,,,,,,,,OVC,1300,,,,,,,MVFR,,,,,,,,,,,,SPECI,498.0
CYVR 180718Z 10006KT 12SM -RA OVC021 07/06 A2992 RMK SC8 SLP132,CYVR,2014-12-18T07:18:00Z,49.17,-123.17,7.0,6.0,100,6,,12.0,29.920275,1013.2,,,,,,,,,-RA,OVC,2100,,,,,,,MVFR,,,,,,,,,,,,SPECI,2.0
CYQI 180716Z 25007KT 3/4SM -SHRA BR OVC002 07/07 A2939 RMK FG6SF2 SLP953,CYQI,2014-12-18T07:16:00Z,43.83,-66.08,7.0,7.0,250,7,,0.75,29.388779,995.3,,,,,,,,,-SHRA BR,OVC,200,,,,,,,LIFR,,,,,,,,,,,,SPECI,43.0
ETAR 180716Z AUTO 23005KT 9999 BKN009 OVC013 09/08 A2995 RMK AO2,ETAR,2014-12-18T07:16:00Z,49.42,7.58,9.0,8.0,230,5,,6.21,29.949802,,,TRUE,TRUE,,,,,,,BKN,900,OVC,1300,,,,,IFR,,,,,,,,,,,,METAR,238.0
LHUD 180715Z 18002KT 1800 BR SCT083 SCT200 01/00 Q1018,LHUD,2014-12-18T07:15:00Z,46.25,20.1,1.0,0.0,180,2,,1.12,30.059055,,,,,,,,,,BR,SCT,8300,SCT,20000,,,,,IFR,,,,,,,,,,,,METAR,84.0
LHSN 180715Z 21004KT 6000 -SHRA SCT040 BKN060 03/02 Q1017 BECMG NSW RMK WHT,LHSN,2014-12-18T07:15:00Z,47.12,20.23,3.0,2.0,210,4,,3.73,30.029528,,,,,,,,,,-SHRA,SCT,4000,BKN,6000,,,,,MVFR,,,,,,,,,,,,SPECI,98.0
LHSM 180715Z 00000KT 1000 -RA BKN025 02/01 Q1018 NOSIG,LHSM,2014-12-18T07:15:00Z,46.68,17.17,2.0,1.0,0,0,,0.62,30.059055,,,,,,TRUE,,,,-RA,BKN,2500,,,,,,,LIFR,,,,,,,,,,,,METAR,125.0
LHPR 180715Z 00000KT 9999 BKN040 BKN083 05/04 Q1017,LHPR,2014-12-18T07:15:00Z,47.63,17.82,5.0,4.0,0,0,,6.21,30.029528,,,,,,,,,,,BKN,4000,BKN,8300,,,,,VFR,,,,,,,,,,,,METAR,129.0
LHPP 180715Z 24005KT CAVOK 04/02 Q1018,LHPP,2014-12-18T07:15:00Z,45.98,18.23,4.0,2.0,240,5,,6.21,30.059055,,,,,,,,,,,CAVOK,,,,,,,,VFR,,,,,,,,,,,,METAR,305.0
LHPA 180715Z 21004MPS 9999 BKN037 OVC083 06/04 Q1017 TEMPO -RA RMK BLU,LHPA,2014-12-18T07:15:00Z,47.35,17.5,6.0,4.0,210,8,,6.21,30.029528,,,,,,,,,,,BKN,3700,OVC,8300,,,,,VFR,,,,,,,,,,,,METAR,148.0
LHKE 180715Z 24004KT 5000 BR BKN042 BKN060 BKN083 04/03 Q1017 BECMG 8000 NSW RMK WHT,LHKE,2014-12-18T07:15:00Z,46.92,19.75,4.0,3.0,240,4,,3.11,30.029528,,,,,,,,,,BR,BKN,4200,BKN,6000,BKN,8300,,,MVFR,,,,,,,,,,,,SPECI,115.0
LHDC 180715Z 18006KT 1500 BR SCT010 BKN026 02/02 Q1017,LHDC,2014-12-18T07:15:00Z,47.47,21.62,2.0,2.0,180,6,,0.93,30.029528,,,,,,,,,,BR,SCT,1000,BKN,2600,,,,,LIFR,,,,,,,,,,,,METAR,112.0
LIPR 180715Z 28004KT 1400 R31/P1500 BR OVC005 09/08 Q1019,LIPR,2014-12-18T07:15:00Z,44.02,12.62,9.0,8.0,280,4,,0.87,30.088583,,,,,,,,,,BR,OVC,500,,,,,,,LIFR,,,,,,,,,,,,SPECI,13.0
SBIZ 180715Z 00000KT 6000 FEW007 SCT017 24/24 Q1010,SBIZ,2014-12-18T07:15:00Z,-5.52,-47.45,24.0,24.0,0,0,,3.73,29.822834,,,,,,,,,,,FEW,700,SCT,1700,,,,,MVFR,,,,,,,,,,,,METAR,123.0
EGUL 180715Z AUTO 23014KT 9999 SCT015 OVC026 12/12 A2971 RMK AO2 CIG 015V026,EGUL,2014-12-18T07:15:00Z,52.42,0.57,12.0,12.0,230,14,,6.21,29.71063,,,TRUE,TRUE,,,,,,,SCT,1500,OVC,2600,,,,,MVFR,,,,,,,,,,,,METAR,10.0
SBRJ 180715Z 01004KT CAVOK 23/20 Q1009,SBRJ,2014-12-18T07:15:00Z,-22.88,-43.17,23.0,20.0,10,4,,6.21,29.793306,,,,,,,,,,,CAVOK,,,,,,,,VFR,,,,,,,,,,,,SPECI,3.0
LEMO 180715Z 36005KT 2500 BR NSC 04/03 Q1027,LEMO,2014-12-18T07:15:00Z,37.17,-5.62,4.0,3.0,360,5,,1.55,30.324802,,,,,,,,,,BR,,,,,,,,,,,,,,,,,,,,,SPECI,88.0
RJCA 180715Z 35006KT 6000 -SHSN FEW010 BKN025 BKN040 M02/M06 Q1010 RMK 1ST010 5CU025 7CU040 A2984,RJCA,2014-12-18T07:15:00Z,43.78,142.37,-2.0,-6.0,350,6,,3.73,29.822834,,,,,,,,,,-SHSN,FEW,1000,BKN,2500,BKN,4000,,,MVFR,,,,,,,,,,,,SPECI,118.0
KEMM 180715Z AUTO 00000KT 10SM CLR M07/M09 A3002 RMK AO2,KEMM,2014-12-18T07:15:00Z,41.82,-110.55,-7.0,-9.0,0,0,,10.0,30.02067,,,TRUE,TRUE,,,,,,,CLR,,,,,,,,VFR,,,,,,,,,,,,SPECI,2220.0
KGZL 180715Z AUTO 10007KT 9SM OVC016 02/00 A3017 RMK AO2,KGZL,2014-12-18T07:15:00Z,35.28,-95.1,2.0,0.0,100,7,,9.0,30.171259,,,TRUE,TRUE,,,,,,,OVC,1600,,,,,,,MVFR,,,,,,,,,,,,METAR,183.0
CYKY 180714Z 18004KT 4SM BR FEW260 M10/M11 A2986 RMK CI2 SLP157,CYKY,2014-12-18T07:14:00Z,51.52,-109.17,-10.0,-11.0,180,4,,4.0,29.861221,1015.7,,,,,,,,,BR,FEW,26000,,,,,,,MVFR,,,,,,,,,,,,SPECI,694.0
RJBT 180714Z 34009KT 300V020 9999 -SHGSSN FEW005 BKN020 01/M03 Q1024 RMK 1ST005 5CU020 A3026 SNOW PELLETS,RJBT,2014-12-18T07:14:00Z,35.5,134.8,1.0,-3.0,340,9,,6.21,30.236221,,,,,,,,,,-SHGS -SHSN,FEW,500,BKN,2000,,,,,MVFR,,,,,,,,,,,,SPECI,210.0
KINS 180713Z AUTO 00000KT 10SM BKN020 OVC038 06/06 A3009 RMK AO2 CIG 020V037 BKN V FEW,KINS,2014-12-18T07:13:00Z,36.58,-115.67,6.0,6.0,0,0,,10.0,30.088583,,,TRUE,TRUE,,,,,,,BKN,2000,OVC,3800,,,,,MVFR,,,,,,,,,,,,SPECI,955.0
LIRV 180713Z 05008KT 4000 BR NSC 06/04 Q1016 RMK SKC MON E SE INVIS NC VIS MIN 4000 GRN,LIRV,2014-12-18T07:13:00Z,42.42,12.07,6.0,4.0,50,8,,2.49,30.0,,,,,,,,,,BR,,,,,,,,,,,,,,,,,,,,,SPECI,300.0
KGTB 180713Z AUTO 27009KT 6SM -SN BR OVC006 00/M01 A2985 RMK AO2 CIG 006V008,KGTB,2014-12-18T07:13:00Z,44.07,-75.72,0.0,-1.0,270,9,,6.0,29.84941,,,TRUE,TRUE,,,,,,-SN BR,OVC,600,,,,,,,IFR,,,,,,,,,,,,SPECI,207.0
KMEH 180713Z AUTO 00000KT 3SM UP BR OVC019 01/00 A2995 RMK AO2 UPB0659SNE0659 P0000 T00110000,KMEH,2014-12-18T07:13:00Z,45.52,-118.42,1.1,0.0,0,0,,3.0,29.949802,,,TRUE,TRUE,,,,,,BR UP,OVC,1900,,,,,,,MVFR,,,,,,0.0050,,,,,,SPECI,1136.0
KTPH 180711Z AUTO 00000KT 10SM FEW007 OVC021 01/M01 A3008 RMK AO2 T00061011,KTPH,2014-12-18T07:11:00Z,38.05,-117.08,0.6,-1.1,0,0,,10.0,30.079725,,,TRUE,TRUE,,,,,,,FEW,700,OVC,2100,,,,,MVFR,,,,,,,,,,,,SPECI,1652.0
ETEB 180711Z AUTO 21005KT 9999 SCT005 OVC012 07/07 A2997 RMK AO2 CIG 005V012,ETEB,2014-12-18T07:11:00Z,49.32,10.62,7.0,7.0,210,5,,6.21,29.970472,,,TRUE,TRUE,,,,,,,SCT,500,OVC,1200,,,,,MVFR,,,,,,,,,,,,SPECI,467.0
LKLN 180711Z AUTO 24006KT 9999 OVC010 07/06 Q1015,LKLN,2014-12-18T07:11:00Z,49.68,13.27,7.0,6.0,240,6,,6.21,29.970472,,,TRUE,,,,,,,,OVC,1000,,,,,,,MVFR,,,,,,,,,,,,SPECI,362.0
LIED 180710Z 29001KT 3000 -RA BR SCT004 BKN008 12/10 Q1015 RMK OVC VIS MIN 3000 WIND THR35 29004KT WIND THR17 29003KT YLO,LIED,2014-12-18T07:10:00Z,39.35,8.97,12.0,10.0,290,1,,1.86,29.970472,,,,,,,,,,-RA BR,SCT,400,BKN,800,,,,,IFR,,,,,,,,,,,,SPECI,28.0
VCRI 180710Z 08007KT 050V120 9999 SCT016 BKN080 30/24 Q1009 NOSIG,VCRI,2014-12-18T07:10:00Z,6.28,81.13,30.0,24.0,80,7,,6.21,29.793306,,,,,,TRUE,,,,,SCT,1600,BKN,8000,,,,,VFR,,,,,,,,,,,,METAR,7.0
VCBI 180710Z 05007KT 360V100 9999 FEW012 BKN016 30/23 Q1009 NOSIG,VCBI,2014-12-18T07:10:00Z,7.17,79.87,30.0,23.0,50,7,,6.21,29.793306,,,,,,TRUE,,,,,FEW,1200,BKN,1600,,,,,MVFR,,,,,,,,,,,,METAR,8.0
CYRT 180709Z 03009KT 5SM -SN BR OVC004 M18/M21 A2985 RMK ST8 SLP113,CYRT,2014-12-18T07:09:00Z,62.82,-92.12,-18.0,-21.0,30,9,,5.0,29.84941,1011.3,,,,,,,,,-SN BR,OVC,400,,,,,,,LIFR,,,,,,,,,,,,SPECI,32.0
CYYN 180709Z AUTO 22013G19KT 9SM OVC003 M05/M05 A2986 RMK SLP155,CYYN,2014-12-18T07:09:00Z,50.27,-107.67,-5.0,-5.0,220,13,19,9.0,29.861221,1015.5,,TRUE,,,,,,,,OVC,300,,,,,,,LIFR,,,,,,,,,,,,SPECI,818.0
YMIA 180708Z AUTO 24015G25KT 9999 // SCT089 27/04 Q1009,YMIA,2014-12-18T07:08:00Z,-34.23,142.08,27.0,4.0,240,15,25,6.21,29.793306,,,TRUE,,,,,,,,SCT,8900,,,,,,,VFR,,,,,,,,,,,,SPECI,51.0
FALA 180707Z VRB02KT 9999 BKN015 22/16 Q1021 NOSIG,FALA,2014-12-18T07:07:00Z,-25.92,27.92,22.0,16.0,0,2,,6.21,30.147638,,,,,,TRUE,,,,,BKN,1500,,,,,,,MVFR,,,,,,,,,,,,SPECI,1377.0
KMLT 180707Z AUTO 36007KT 1 1/4SM -SN BR OVC011 00/M01 A2961 RMK AO2 P0001 T00001011 $,KMLT,2014-12-18T07:07:00Z,45.65,-68.7,0.0,-1.1,360,7,,1.25,29.610237,,,TRUE,TRUE,TRUE,,,,,-SN BR,OVC,1100,,,,,,,IFR,,,,,,0.01,,,,,,SPECI,123.0
RJTK 180706Z 32022G32KT 9999 FEW025 08/M12 Q1015 RMK 1CU025 A2998,RJTK,2014-12-18T07:06:00Z,35.38,139.92,8.0,-12.0,320,22,32,6.21,29.970472,,,,,,,,,,,FEW,2500,,,,,,,VFR,,,,,,,,,,,,SPECI,6.0
YLRE 180706Z AUTO 21027G37KT 9999 // NCD 29/15 Q1010,YLRE,2014-12-18T07:06:00Z,-23.43,144.28,29.0,15.0,210,27,37,6.21,29.822834,,,TRUE,,,,,,,,,,,,,,,,,,,,,,,,,,,,SPECI,193.0
YPMQ 180706Z AUTO 04007KT 9999 // SCT009 BKN100 BKN125 24/23 Q1005,YPMQ,2014-12-18T07:06:00Z,-31.43,152.87,24.0,23.0,40,7,,6.21,29.675198,,,TRUE,,,,,,,,SCT,900,BKN,10000,BKN,12500,,,VFR,,,,,,,,,,,,SPECI,4.0
KTIK 180706Z AUTO 18007KT 5SM BR OVC002 03/02 A3011 RMK AO2,KTIK,2014-12-18T07:06:00Z,35.42,-97.37,3.0,2.0,180,7,,5.0,30.109253,,,TRUE,TRUE,,,,,,BR,OVC,200,,,,,,,LIFR,,,,,,,,,,,,SPECI,394.0
RJOC 180705Z 34014KT 7000 -SHSN FEW010 SCT025 FEW025CB BKN040 02/M01 Q1028 RMK 1CU010 3CU025 1CB025 5CU040 A3037 CB 10KM N MOV S,RJOC,2014-12-18T07:05:00Z,35.42,132.87,2.0,-1.0,340,14,,4.35,30.35433,,,,,,,,,,-SHSN,FEW,1000,SCT,2500,FEW,2500,BKN,4000,MVFR,,,,,,,,,,,,SPECI,5.0
MUCL 180705Z AUTO 03007KT 23/19 Q1018,MUCL,2014-12-18T07:05:00Z,21.63,-81.55,23.0,19.0,30,7,,,30.059055,,,TRUE,,,,,,,,,,,,,,,,,,,,,,,,,,,,METAR,5.0
YBHI 180705Z AUTO 23017G31KT 9999 // SCT115 31/03 Q1009,YBHI,2014-12-18T07:05:00Z,-32.0,141.47,31.0,3.0,230,17,31,6.21,29.793306,,,TRUE,,,,,,,,SCT,11500,,,,,,,VFR,,,,,,,,,,,,METAR,292.0
YARG 180705Z AUTO 22011KT 9999 // SCT023 BKN066 OVC099 26/25 Q1009,YARG,2014-12-18T07:05:00Z,-16.63,128.45,26.0,25.0,220,11,,6.21,29.793306,,,TRUE,,,,,,,,SCT,2300,BKN,6600,OVC,9900,,,VFR,,,,,,,,,,,,SPECI,165.0
YCAS 180705Z AUTO 23016KT //// // ////// 21/19 Q1009,YCAS,2014-12-18T07:05:00Z,-28.88,153.07,21.0,19.0,230,16,,,29.793306,,,TRUE,,,,,,,,,,,,,,,,,,,,,,,,,,,,SPECI,26.0
KNMT 1218 DH0700/PPH M,KNMT,2014-12-18T07:04:03Z,28.25,-98.73,,,,,,,,,,,,,,,,,,,,,,,,,,,,,,,,,,,,,,METAR,79.0
RJOE 180704Z 33013KT 9999 -SHSN FEW020 SCT035 04/M03 Q1023 RMK 2CU020 3CU035 A3021,RJOE,2014-12-18T07:04:00Z,34.52,136.67,4.0,-3.0,330,13,,6.21,30.206694,,,,,,,,,,-SHSN,FEW,2000,SCT,3500,,,,,VFR,,,,,,,,,,,,SPECI,9.0
YHUG 180704Z AUTO 24020G30KT //// // ////// 29/20 Q1009,YHUG,2014-12-18T07:04:00Z,-20.82,144.23,29.0,20.0,240,20,30,,29.793306,,,TRUE,,,,,,,,,,,,,,,,,,,,,,,,,,,,METAR,318.0
LIBG 180704Z 16002KT 9999 FEW032 06/06 Q1015,LIBG,2014-12-18T07:04:00Z,40.52,17.38,6.0,6.0,160,2,,6.21,29.970472,,,,,,,,,,,FEW,3200,,,,,,,VFR,,,,,,,,,,,,SPECI,69.0
RJSN 180703Z 31023G33KT 9999 VCSH FEW006 SCT015 BKN025 04/00 Q1018 RMK 1ST006 3CU015 5CU025 A3008,RJSN,2014-12-18T07:03:00Z,37.95,139.12,4.0,0.0,310,23,33,6.21,30.059055,,,,,,,,,,VCSH,FEW,600,SCT,1500,BKN,2500,,,MVFR,,,,,,,,,,,,METAR,4.0
KAFF 180702Z AUTO 00000KT 6SM BR OVC003 M02/M02 A2998 RMK AO2 SNE02,KAFF,2014-12-18T07:02:00Z,38.97,-104.82,-2.0,-2.0,0,0,,6.0,29.97933,,,TRUE,TRUE,,,,,,BR,OVC,300,,,,,,,LIFR,,,,,,,,,,,,METAR,2003.0
PAKF 180701Z AUTO 30010KT 9SM -RA SCT055 SCT090 OVC110 04/M01 A2931 RMK AO2 RAB01 SLP018 P0000 T00441011 $,PAKF,2014-12-18T07:01:00Z,54.85,-163.42,4.4,-1.1,300,10,,9.0,29.309055,1001.8,,TRUE,TRUE,TRUE,,,,,-RA,SCT,5500,SCT,9000,OVC,11000,,,VFR,,,,,,0.0050,,,,,,METAR,6.0
PAIK 180701Z AUTO 08005KT 4SM -SN BR SCT017 OVC025 M09/M10 A2970 RMK AO2 SLP100 P0000 T10891100 FZRANO,PAIK,2014-12-18T07:01:00Z,66.98,-160.43,-8.9,-10.0,80,5,,4.0,29.698818,1010.0,,TRUE,TRUE,,,,TRUE,,-SN BR,SCT,1700,OVC,2500,,,,,MVFR,,,,,,0.0050,,,,,,METAR,51.0
PABA 180701Z AUTO 03003KT 9SM -SN CLR M19/M21 A2988 RMK AO2 SLP118 P0000 T11891211 FZRANO,PABA,2014-12-18T07:01:00Z,70.13,-143.58,-18.9,-21.1,30,3,,9.0,29.878937,1011.8,,TRUE,TRUE,,,,TRUE,,-SN,CLR,,,,,,,,VFR,,,,,,0.0050,,,,,,METAR,2.0
WARQ 180700Z 31010KT 8000 FEW015 SCT015 32/25 1007 CB AND RA TO S + SW,WARQ,2014-12-18T07:00:00Z,-7.52,110.75,32.0,25.0,310,10,,4.97,,,,,,,,,,,RA,FEW,1500,SCT,1500,,,,,MVFR,,,,,,,,,,,,METAR,128.0
WIHH 180700Z 36006KT 6000 FEW017 29/25 Q1008 NOSIG,WIHH,2014-12-18T07:00:00Z,-6.25,106.88,29.0,25.0,360,6,,3.73,29.763779,,,,,,TRUE,,,,,FEW,1700,,,,,,,MVFR,,,,,,,,,,,,METAR,25.0
SBUR 180700Z 03005KT CAVOK 22/19 Q1013,SBUR,2014-12-18T07:00:00Z,-19.77,-47.97,22.0,19.0,30,5,,6.21,29.911417,,,,,,,,,,,CAVOK,,,,,,,,VFR,,,,,,,,,,,,METAR,807.0
SBUL 180700Z 02005KT 9999 FEW015 BKN070 21/19 Q1014,SBUL,2014-12-18T07:00:00Z,-18.87,-48.22,21.0,19.0,20,5,,6.21,29.940945,,,,,,,,,,,FEW,1500,BKN,7000,,,,,VFR,,,,,,,,,,,,METAR,922.0
SBSR 180700Z 00000KT CAVOK 24/19 Q1010,SBSR,2014-12-18T07:00:00Z,-20.8,-49.4,24.0,19.0,0,0,,6.21,29.822834,,,,,,,,,,,CAVOK,,,,,,,,VFR,,,,,,,,,,,,METAR,543.0
SBSC 180700Z 35002KT CAVOK 20/18 Q1009,SBSC,2014-12-18T07:00:00Z,-22.92,-43.72,20.0,18.0,350,2,,6.21,29.793306,,,,,,,,,,,CAVOK,,,,,,,,VFR,,,,,,,,,,,,METAR,3.0
SBML 180700Z 15008KT CAVOK 23/17 Q1011,SBML,2014-12-18T07:00:00Z,-22.18,-49.92,23.0,17.0,150,8,,6.21,29.852362,,,,,,,,,,,CAVOK,,,,,,,,VFR,,,,,,,,,,,,METAR,647.0
SBMK 180700Z 00000KT CAVOK 20/18 Q1014,SBMK,2014-12-18T07:00:00Z,-16.7,-43.82,20.0,18.0,0,0,,6.21,29.940945,,,,,,,,,,,CAVOK,,,,,,,,VFR,,,,,,,,,,,,METAR,646.0
SBME 180700Z 04008KT CAVOK 20/18 Q1010,SBME,2014-12-18T07:00:00Z,-22.35,-41.77,20.0,18.0,40,8,,6.21,29.822834,,,,,,,,,,,CAVOK,,,,,,,,VFR,,,,,,,,,,,,METAR,2.0
SBDN 180700Z 29002KT CAVOK 22/20 Q1009,SBDN,2014-12-18T07:00:00Z,-22.18,-51.43,22.0,20.0,290,2,,6.21,29.793306,,,,,,,,,,,CAVOK,,,,,,,,VFR,,,,,,,,,,,,METAR,435.0
SBBU 180700Z 00000KT CAVOK 22/20 Q1010,SBBU,2014-12-18T07:00:00Z,-22.32,-49.07,22.0,20.0,0,0,,6.21,29.822834,,,,,,,,,,,CAVOK,,,,,,,,VFR,,,,,,,,,,,,METAR,590.0
SBBH 180700Z 11006KT CAVOK 20/17 Q1014,SBBH,2014-12-18T07:00:00Z,-19.85,-43.95,20.0,17.0,110,6,,6.21,29.940945,,,,,,,,,,,CAVOK,,,,,,,,VFR,,,,,,,,,,,,METAR,785.0
SBAF 180700Z 29003KT 7000 FEW020 SCT080 20/18 Q1009,SBAF,2014-12-18T07:00:00Z,-22.87,-43.37,20.0,18.0,290,3,,4.35,29.793306,,,,,,,,,,,FEW,2000,SCT,8000,,,,,MVFR,,,,,,,,,,,,METAR,34.0
SBPJ 180700Z VRB03KT 9999 FEW010 FEW045TCU BKN090 23/20 Q1011,SBPJ,2014-12-18T07:00:00Z,-10.28,-48.37,23.0,20.0,0,3,,6.21,29.852362,,,,,,,,,,,FEW,1000,FEW,4500,BKN,9000,,,VFR,,,,,,,,,,,,METAR,236.0
SBAN 180700Z 02003KT 9999 FEW010 18/17 Q1015,SBAN,2014-12-18T07:00:00Z,-16.22,-48.97,18.0,17.0,20,3,,6.21,29.970472,,,,,,,,,,,FEW,1000,,,,,,,VFR,,,,,,,,,,,,METAR,1137.0
SBCF 180700Z 07006KT 9999 SCT025 BKN100 21/15 Q1014,SBCF,2014-12-18T07:00:00Z,-19.63,-43.97,21.0,15.0,70,6,,6.21,29.940945,,,,,,,,,,,SCT,2500,BKN,10000,,,,,VFR,,,,,,,,,,,,METAR,828.0
LPLA 180700Z /////KT 9999 FEW015 SCT026 BKN037 15/13 Q1028,LPLA,2014-12-18T07:00:00Z,38.77,-27.1,15.0,13.0,,,,6.21,30.35433,,,,,,,,,,,FEW,1500,SCT,2600,BKN,3700,,,VFR,,,,,,,,,,,,SPECI,55.0
FQQL 180700Z 29006KT 250V320 9999 SCT020 BKN100 30/26 Q1012,FQQL,2014-12-18T07:00:00Z,-17.87,36.87,30.0,26.0,290,6,,6.21,29.88189,,,,,,,,,,,SCT,2000,BKN,10000,,,,,VFR,,,,,,,,,,,,METAR,16.0
SAZN 180700Z 25006KT CAVOK 20/05 Q1012,SAZN,2014-12-18T07:00:00Z,-38.95,-68.15,20.0,5.0,250,6,,6.21,29.88189,,,,,,,,,,,CAVOK,,,,,,,,VFR,,,,,,,,,,,,METAR,271.0
FSPP 180700Z 29015KT //// //// 28/23 Q1012,FSPP,2014-12-18T07:00:00Z,-4.32,55.7,28.0,23.0,290,15,,,29.88189,,,,,,,,,,,,,,,,,,,,,,,,,,,,,,,METAR,4.0
GMMC 180700Z /////KT CAVOK 11/10 Q1025,GMMC,2014-12-18T07:00:00Z,33.57,-7.67,11.0,10.0,,,,6.21,30.265747,,,,,,,,,,,CAVOK,,,,,,,,VFR,,,,,,,,,,,,METAR,62.0
HKMO 180700Z 36004KT 9999 SCT022 30/24 Q1013 NOSIG,HKMO,2014-12-18T07:00:00Z,-4.02,39.62,30.0,24.0,360,4,,6.21,29.911417,,,,,,TRUE,,,,,SCT,2200,,,,,,,VFR,,,,,,,,,,,,METAR,55.0
CZSM 180700Z AUTO 11002KT M09/M11 RMK AO1 SOG 24 8001 SLP079 T10941110,CZSM,2014-12-18T07:00:00Z,60.03,-111.93,-9.4,-11.0,110,2,,,,1007.9,,TRUE,TRUE,,,,,,,,,,,,,,,,,,,,,,,,,,,METAR,203.0
CXWM 180700Z AUTO 19007KT M07/M09 RMK AO1 T10731088,CXWM,2014-12-18T07:00:00Z,49.5,-112.12,-7.3,-8.8,190,7,,,,,,TRUE,TRUE,,,,,,,,,,,,,,,,,,,,,,,,,,,METAR,944.0
CXTH 180700Z AUTO 00000KT M07/M08 RMK AO1 T10741079,CXTH,2014-12-18T07:00:00Z,53.63,-111.68,-7.4,-7.9,0,0,,,,,,TRUE,TRUE,,,,,,,,,,,,,,,,,,,,,,,,,,,METAR,678.0
CXFM 180700Z AUTO 15008KT M08/M09 RMK AO1 T10841091,CXFM,2014-12-18T07:00:00Z,49.48,-111.48,-8.4,-9.1,150,8,,,,,,TRUE,TRUE,,,,,,,,,,,,,,,,,,,,,,,,,,,METAR,881.0
CXDB 180700Z AUTO 25007KT M06/M07 RMK AO1 T10581066,CXDB,2014-12-18T07:00:00Z,49.05,-112.82,-5.8,-6.6,250,7,,,,,,TRUE,TRUE,,,,,,,,,,,,,,,,,,,,,,,,,,,METAR,1310.0
CXAK 180700Z AUTO 22003KT M09/M10 RMK AO1 T10921101,CXAK,2014-12-18T07:00:00Z,52.35,-112.6,-9.2,-10.1,220,3,,,,,,TRUE,TRUE,,,,,,,,,,,,,,,,,,,,,,,,,,,METAR,795.0
CPRO 180700Z AUTO 00000KT M11/M11 RMK AO1 T11061114,CPRO,2014-12-18T07:00:00Z,50.83,-112.05,-10.6,-11.4,0,0,,,,,,TRUE,TRUE,,,,,,,,,,,,,,,,,,,,,,,,,,,METAR,714.0
SAAR 180700Z 14003KT CAVOK 18/15 Q1012,SAAR,2014-12-18T07:00:00Z,-32.92,-60.77,18.0,15.0,140,3,,6.21,29.88189,,,,,,,,,,,CAVOK,,,,,,,,VFR,,,,,,,,,,,,METAR,25.0
FNBG 180700Z 28004KT 9999 FEW020 BKN100 28/20 Q1014,FNBG,2014-12-18T07:00:00Z,-12.62,13.4,28.0,20.0,280,4,,6.21,29.940945,,,,,,,,,,,FEW,2000,BKN,10000,,,,,VFR,,,,,,,,,,,,METAR,36.0
FNSO 180700Z 17004KT 9999 FEW011 BKN100 27/23 Q////,FNSO,2014-12-18T07:00:00Z,-6.13,12.37,27.0,23.0,170,4,,6.21,,,,,,,,,,,,FEW,1100,BKN,10000,,,,,VFR,,,,,,,,,,,,METAR,5.0
FNHU 180700Z 00000KT 9999 FEW018 BKN070 17/16 Q1024,FNHU,2014-12-18T07:00:00Z,-12.82,15.77,17.0,16.0,0,0,,6.21,30.236221,,,,,,,,,,,FEW,1800,BKN,7000,,,,,VFR,,,,,,,,,,,,METAR,1701.0
FNBC 180700Z 29005KT 7000 OVC011 22/22 Q1015,FNBC,2014-12-18T07:00:00Z,-6.27,14.25,22.0,22.0,290,5,,4.35,29.970472,,,,,,,,,,,OVC,1100,,,,,,,MVFR,,,,,,,,,,,,METAR,567.0
FNMO 180700Z 00000KT 9999 OVC015 22/18 Q1014,FNMO,2014-12-18T07:00:00Z,-15.27,12.15,22.0,18.0,0,0,,6.21,29.940945,,,,,,,,,,,OVC,1500,,,,,,,MVFR,,,,,,,,,,,,METAR,64.0
FNSA 180700Z 00000KT 9999 BKN023 21/18 Q1014,FNSA,2014-12-18T07:00:00Z,-9.68,20.43,21.0,18.0,0,0,,6.21,29.940945,,,,,,,,,,,BKN,2300,,,,,,,MVFR,,,,,,,,,,,,METAR,1093.0
FNUG 180700Z 18006KT 3000 BR OVC012 22/20 Q1017,FNUG,2014-12-18T07:00:00Z,-7.6,15.28,22.0,20.0,180,6,,1.86,30.029528,,,,,,,,,,BR,OVC,1200,,,,,,,IFR,,,,,,,,,,,,METAR,829.0
GMAT 180700Z 08004KT CAVOK 11/05 Q1023 NOSIG,GMAT,2014-12-18T07:00:00Z,28.43,-11.15,11.0,5.0,80,4,,6.21,30.206694,,,,,,TRUE,,,,,CAVOK,,,,,,,,VFR,,,,,,,,,,,,METAR,200.0
FBMN 180700Z 35007KT CAVOK 24/19 Q1015,FBMN,2014-12-18T07:00:00Z,-19.97,23.42,24.0,19.0,350,7,,6.21,29.970472,,,,,,,,,,,CAVOK,,,,,,,,VFR,,,,,,,,,,,,METAR,900.0
FLKK 180700Z 33004KT 9999 SCT015 BKN100 22/18 Q1020 NOSIG,FLKK,2014-12-18T07:00:00Z,-15.32,28.45,22.0,18.0,330,4,,6.21,30.11811,,,,,,TRUE,,,,,SCT,1500,BKN,10000,,,,,VFR,,,,,,,,,,,,METAR,1154.0
FYLZ 180700Z AUTO 32003KT //// // ////// 14/12 Q1016,FYLZ,2014-12-18T07:00:00Z,-26.67,15.25,14.0,12.0,320,3,,,30.0,,,TRUE,,,,,,,,,,,,,,,,,,,,,,,,,,,,METAR,130.0
HKKS 180700Z 09003KT 9999 FEW021CB 23/14,HKKS,2014-12-18T07:00:00Z,-0.67,34.77,23.0,14.0,90,3,,6.21,,,,,,,,,,,,FEW,2100,,,,,,,VFR,,,,,,,,,,,,METAR,1493.0
VTPO 180700Z 28002KT 8000 NSC 27/14 Q1015,VTPO,2014-12-18T07:00:00Z,17.23,99.82,27.0,14.0,280,2,,4.97,29.970472,,,,,,,,,,,,,,,,,,,,,,,,,,,,,,,METAR,54.0
DAAP 180700Z 00000KT CAVOK 05/M06 Q1023,DAAP,2014-12-18T07:00:00Z,26.72,8.62,5.0,-6.0,0,0,,6.21,30.206694,,,,,,,,,,,CAVOK,,,,,,,,VFR,,,,,,,,,,,,METAR,558.0
FTTC 180700Z 16006KT CAVOK 25/M01 Q1015,FTTC,2014-12-18T07:00:00Z,13.83,20.85,25.0,-1.0,160,6,,6.21,29.970472,,,,,,,,,,,CAVOK,,,,,,,,VFR,,,,,,,,,,,,METAR,549.0
RJAW 180700Z RTD 34014KT 9999 FEW020 BKN030 BKN080 20/11 Q1018 RMK 1CU020 5CU030 6AC080 A3009,RJAW,2014-12-18T07:00:00Z,24.77,141.32,20.0,11.0,340,14,,6.21,30.059055,,,,,,,,,,,FEW,2000,BKN,3000,BKN,8000,,,MVFR,,,,,,,,,,,,METAR,116.0
CXKT 180700Z AUTO 06004KT 05/05 RMK AO1 3PAST HR 6041 SLP955 P0001 T00490047 50003,CXKT,2014-12-18T07:00:00Z,45.07,-64.48,4.9,4.7,60,4,,,,995.5,,TRUE,TRUE,,,,,,,,,,,,,,,,0.3,,,,,0.01,,,,,,METAR,49.0
CXTP 180700Z AUTO 13001KT M02/M03 RMK AO1 SOG 00 6011 SLP191 T10151027,CXTP,2014-12-18T07:00:00Z,48.55,-53.97,-1.5,-2.7,130,1,,,,1019.1,,TRUE,TRUE,,,,,,,,,,,,,,,,,,,,,,,,,,,METAR,107.0
CXSR 180700Z AUTO 22006KT M01/M04 RMK AO1 SOG 31 1001 SLP087 T10141041,CXSR,2014-12-18T07:00:00Z,55.7,-119.23,-1.4,-4.1,220,6,,,,1008.7,,TRUE,TRUE,,,,,,,,,,,,,,,,,,,,,,,,,,,METAR,1015.0
CXRH 180700Z AUTO 14003KT M02/M05 RMK AO1 SOG 04 T10241047,CXRH,2014-12-18T07:00:00Z,49.57,-57.88,-2.4,-4.7,140,3,,,,,,TRUE,TRUE,,,,,,,,,,,,,,,,,,,,,,,,,,,METAR,68.0
CXMY 180700Z AUTO 07/06 RMK AO1 5PAST HR M P0021 T00660059 50055,CXMY,2014-12-18T07:00:00Z,44.98,-62.48,6.6,5.9,,,,,,,,TRUE,TRUE,,,,,,,,,,,,,,,,5.5,,,,,0.21,,,,,,METAR,40.0
CXLL 180700Z AUTO 00000KT M24/M27 RMK AO1 SOG 35 3002 SLP060 T12421266,CXLL,2014-12-18T07:00:00Z,61.12,-122.85,-24.2,-26.6,0,0,,,,1006.0,,TRUE,TRUE,,,,,,,,,,,,,,,,,,,,,,,,,,,METAR,183.0
CWIY 180700Z AUTO 01003KT M03/M03 RMK AO1 SLP060 T10301032 56016,CWIY,2014-12-18T07:00:00Z,47.13,-67.82,-3.0,-3.2,10,3,,,,1006.0,,TRUE,TRUE,,,,,,,,,,,,,,,,-1.6,,,,,,,,,,,METAR,241.0
CWIJ 180700Z AUTO 11015KT M19/M21 RMK AO1 SOG 68 6006 PK WND 11020/0614 SLP132 T11911214,CWIJ,2014-12-18T07:00:00Z,65.77,-111.23,-19.1,-21.4,110,15,,,,1013.2,,TRUE,TRUE,,,,,,,,,,,,,,,,,,,,,,,,,,,METAR,500.0
CWID 180700Z AUTO 00000KT M19/M21 RMK AO1 SLP066 T11861212 50001,CWID,2014-12-18T07:00:00Z,61.32,-117.6,-18.6,-21.2,0,0,,,,1006.6,,TRUE,TRUE,,,,,,,,,,,,,,,,0.1,,,,,,,,,,,METAR,161.0
CWDT 180700Z AUTO 02004KT M05/M06 RMK AO1 SLP131 T10511055 55006,CWDT,2014-12-18T07:00:00Z,49.88,-71.25,-5.1,-5.5,20,4,,,,1013.1,,TRUE,TRUE,,,,,,,,,,,,,,,,-0.6,,,,,,,,,,,METAR,399.0
CWCO 180700Z AUTO 32018G24KT M01/M02 RMK AO1 PK WND 32024/0657 SLP161 T10071022 51013,CWCO,2014-12-18T07:00:00Z,44.45,-80.17,-0.7,-2.2,320,18,24,,,1016.1,,TRUE,TRUE,,,,,,,,,,,,,,,,1.3,,,,,,,,,,,METAR,221.0
CWXC 180700Z AUTO 36007KT M03/M04 RMK AO1 2PAST HR 5004 SLP092 P0001 T10251035 50002,CWXC,2014-12-18T07:00:00Z,48.88,-71.03,-2.5,-3.5,360,7,,,,1009.2,,TRUE,TRUE,,,,,,,,,,,,,,,,0.2,,,,,0.01,,,,,,METAR,300.0
CWWK 180700Z AUTO 03004KT 06/05 RMK AO1 4PAST HR SOG 00 3005 SLP132 P0002 T00550054 50004,CWWK,2014-12-18T07:00:00Z,49.02,-122.78,5.5,5.4,30,4,,,,1013.2,,TRUE,TRUE,,,,,,,,,,,,,,,,0.4,,,,,0.02,,,,,,METAR,15.0
CWNC 180700Z AUTO 28008KT M00/M02 RMK AO1 SLP135 T10041019 53010,CWNC,2014-12-18T07:00:00Z,43.95,-78.17,-0.4,-1.9,280,8,,,,1013.5,,TRUE,TRUE,,,,,,,,,,,,,,,,1.0,,,,,,,,,,,METAR,78.0
CWLB 180700Z AUTO 17003KT M07/M08 RMK AO1 SOG 21 8006 SLP143 T10701076,CWLB,2014-12-18T07:00:00Z,54.77,-112.02,-7.0,-7.6,170,3,,,,1014.3,,TRUE,TRUE,,,,,,,,,,,,,,,,,,,,,,,,,,,METAR,567.0
CWRU 180700Z AUTO 12022G27KT 07/03 RMK AO1 PK WND 12028/0608 SLP084 T00680029 56005,CWRU,2014-12-18T07:00:00Z,50.12,-127.93,6.8,2.9,120,22,27,,,1008.4,,TRUE,TRUE,,,,,,,,,,,,,,,,-0.5,,,,,,,,,,,METAR,98.0
CWQS 180700Z AUTO 15019G28KT 08/02 RMK AO1 2PAST HR 8018 PK WND 15028/0657 SLP003 P0001 T00830015 50002,CWQS,2014-12-18T07:00:00Z,53.32,-132.77,8.3,1.5,150,19,28,,,1000.3,,TRUE,TRUE,,,,,,,,,,,,,,,,0.2,,,,,0.01,,,,,,METAR,14.0
CWWL 180700Z AUTO 14012G23KT 06/03 RMK AO1 PK WND 15026/0648 SLP035 T00620032 58017,CWWL,2014-12-18T07:00:00Z,53.5,-130.63,6.2,3.2,140,12,23,,,1003.5,,TRUE,TRUE,,,,,,,,,,,,,,,,-1.7,,,,,,,,,,,METAR,17.0
CWEK 180700Z AUTO 06028G33KT 05/ RMK AO1 PK WND 06037/0633 SLP053 T0053 57013,CWEK,2014-12-18T07:00:00Z,54.58,-130.7,5.3,,60,28,33,,,1005.3,,TRUE,TRUE,,,,,,,,,,,,,,,,-1.3,,,,,,,,,,,METAR,8.0
CWME 180700Z AUTO 05018KT 03/02 RMK AO1 PK WND 05022/0616 SLP104 T00330016 56005,CWME,2014-12-18T07:00:00Z,52.18,-127.47,3.3,1.6,50,18,,,,1010.4,,TRUE,TRUE,,,,,,,,,,,,,,,,-0.5,,,,,,,,,,,METAR,32.0
CTNK 180700Z AUTO 32002KT M05/M06 RMK AO1 2PAST HR SOG 16 2014 SLP134 P0001 T10531055 50002,CTNK,2014-12-18T07:00:00Z,45.53,-78.27,-5.3,-5.5,320,2,,,,1013.4,,TRUE,TRUE,,,,,,,,,,,,,,,,0.2,,,,,0.01,,,,,,METAR,410.0
CZZJ 180700Z AUTO 27006KT M12/M13 RMK AO1 SOG 19 3002 SLP154 T11191133,CZZJ,2014-12-18T07:00:00Z,53.58,-116.47,-11.9,-13.3,270,6,,,,1015.4,,TRUE,TRUE,,,,,,,,,,,,,,,,,,,,,,,,,,,METAR,927.0
CZRP 180700Z AUTO 28020KT M30/M32 RMK AO1 PK WND 30026/0631 SLP251 T12961315 53013,CZRP,2014-12-18T07:00:00Z,75.37,-105.72,-29.6,-31.5,280,20,,,,1025.1,,TRUE,TRUE,,,,,,,,,,,,,,,,1.3,,,,,,,,,,,METAR,12.0
CZKD 180700Z AUTO 22005KT M16/M17 RMK AO1 SOG 35 8001 SLP211 T11561170,CZKD,2014-12-18T07:00:00Z,56.03,-96.52,-15.6,-17.0,220,5,,,,1021.1,,TRUE,TRUE,,,,,,,,,,,,,,,,,,,,,,,,,,,METAR,183.0
CXYH 180700Z AUTO 34003KT M15/M16 RMK AO1 SOG 33 SLP056 T11481160,CXYH,2014-12-18T07:00:00Z,61.25,-123.75,-14.8,-16.0,340,3,,,,1005.6,,TRUE,TRUE,,,,,,,,,,,,,,,,,,,,,,,,,,,METAR,204.0
CXTO 180700Z AUTO 01/M04 RMK AO1 SLP159 T00051035 53009,CXTO,2014-12-18T07:00:00Z,43.67,-79.4,0.5,-3.5,,,,,,1015.9,,TRUE,TRUE,,,,,,,,,,,,,,,,0.9,,,,,,,,,,,METAR,113.0
CXRB 180700Z AUTO 33015G23KT M34/M38 RMK AO1 SOG 00 1006 PK WND 32023/0654 SLP188 T13431379,CXRB,2014-12-18T07:00:00Z,74.72,-94.98,-34.3,-37.9,330,15,23,,,1018.8,,TRUE,TRUE,,,,,,,,,,,,,,,,,,,,,,,,,,,METAR,68.0
CXPC 180700Z AUTO M05/M07 RMK AO1 SLP157 T10471068 51014,CXPC,2014-12-18T07:00:00Z,45.35,-80.05,-4.7,-6.8,,,,,,1015.7,,TRUE,TRUE,,,,,,,,,,,,,,,,1.4,,,,,,,,,,,METAR,176.0
TTCP 180700Z 00000KT 9999 FEW016 25/22 Q1012 NOSIG,TTCP,2014-12-18T07:00:00Z,11.15,-60.85,25.0,22.0,0,0,,6.21,29.88189,,,,,,TRUE,,,,,FEW,1600,,,,,,,VFR,,,,,,,,,,,,METAR,8.0
CWND 180700Z AUTO 30005KT M16/M18 RMK AO1 SLP044 T11621181 53001,CWND,2014-12-18T07:00:00Z,69.63,-135.43,-16.2,-18.1,300,5,,,,1004.4,,TRUE,TRUE,,,,,,,,,,,,,,,,0.1,,,,,,,,,,,METAR,12.0
CWRY 180700Z AUTO 18003KT M12/M13 RMK AO1 SOG 13 0000 SLP164 T11201129,CWRY,2014-12-18T07:00:00Z,49.12,-112.03,-12.0,-12.9,180,3,,,,1016.4,,TRUE,TRUE,,,,,,,,,,,,,,,,,,,,,,,,,,,METAR,1050.0
CWZL 180700Z AUTO 16020KT 08/05 RMK AO1 PK WND 16024/0650 SLP026 T00750051 58017,CWZL,2014-12-18T07:00:00Z,53.03,-131.6,7.5,5.1,160,20,,,,1002.6,,TRUE,TRUE,,,,,,,,,,,,,,,,-1.7,,,,,,,,,,,METAR,17.0
CWDO 180700Z AUTO 18004KT M03/M05 RMK AO1 SOG 03 6008 SLP192 T10281053,CWDO,2014-12-18T07:00:00Z,49.67,-54.78,-2.8,-5.3,180,4,,,,1019.2,,TRUE,TRUE,,,,,,,,,,,,,,,,,,,,,,,,,,,METAR,92.0
CWRA 180700Z AUTO 13011KT 04/ RMK AO1 SLP184 T0039 56011,CWRA,2014-12-18T07:00:00Z,46.63,-53.07,3.9,,130,11,,,,1018.4,,TRUE,TRUE,,,,,,,,,,,,,,,,-1.1,,,,,,,,,,,METAR,28.0
CZDB 180700Z AUTO 10011G16KT 01/M00 RMK AO1 1PAST HR SOG 00 6056 PK WND 07023/0621 SLP977 P0012 T00121002 50031,CZDB,2014-12-18T07:00:00Z,45.42,-63.47,1.2,-0.2,100,11,16,,,997.7,,TRUE,TRUE,,,,,,,,,,,,,,,,3.1,,,,,0.12,,,,,,METAR,38.0
FPST 180700Z 00000KT 9999 FEW025CB BKN110 25/23 Q1013 NOSIG,FPST,2014-12-18T07:00:00Z,0.37,6.72,25.0,23.0,0,0,,6.21,29.911417,,,,,,TRUE,,,,,FEW,2500,BKN,11000,,,,,VFR,,,,,,,,,,,,METAR,13.0
FOON 180700Z 16004KT 9999 SCT006 BKN016 24/23 Q1013,FOON,2014-12-18T07:00:00Z,-1.63,13.42,24.0,23.0,160,4,,6.21,29.911417,,,,,,,,,,,SCT,600,BKN,1600,,,,,MVFR,,,,,,,,,,,,METAR,441.0
FOOG 180700Z /////KT 9999 SCT010 BKN040 28/25 Q1013,FOOG,2014-12-18T07:00:00Z,-0.7,8.75,28.0,25.0,,,,6.21,29.911417,,,,,,,,,,,SCT,1000,BKN,4000,,,,,VFR,,,,,,,,,,,,METAR,4.0
FGSL 180700Z 00000KT 3000 BR FEW010 23/22 Q1013 NOSIG,FGSL,2014-12-18T07:00:00Z,3.75,8.72,23.0,22.0,0,0,,1.86,29.911417,,,,,,TRUE,,,,BR,FEW,1000,,,,,,,IFR,,,,,,,,,,,,METAR,56.0
FGBT 180700Z 00000KT 9999 SCT010 FEW020CB 26/25 Q1013 NOSIG,FGBT,2014-12-18T07:00:00Z,1.88,9.8,26.0,25.0,0,0,,6.21,29.911417,,,,,,TRUE,,,,,SCT,1000,FEW,2000,,,,,VFR,,,,,,,,,,,,METAR,8.0
FSIA 180700Z 24007KT 9999 FEW014CB BKN016 29/24 Q1011 NOSIG,FSIA,2014-12-18T07:00:00Z,-4.67,55.52,29.0,24.0,240,7,,6.21,29.852362,,,,,,TRUE,,,,,FEW,1400,BKN,1600,,,,,MVFR,,,,,,,,,,,,METAR,3.0
CYMX 180700Z 26003KT 1 1/2SM -SN BR SCT003 BKN012 BKN020 OVC030 M00/M01 A2978 RMK FG3SF1SC2SC1SC1 VIS VRB 1-2 SLP088,CYMX,2014-12-18T07:00:00Z,45.67,-74.02,0.0,-1.0,260,3,,1.5,29.778543,1008.8,,,,,,,,,-SN BR,SCT,300,BKN,1200,BKN,2000,OVC,3000,IFR,,,,,,,,,,,,METAR,82.0
CWCA 180700Z 19005KT 15SM SCT200 M11/M12 A3012 RMK CS2 SLP200,CWCA,2014-12-18T07:00:00Z,53.7,-57.02,-11.0,-12.0,190,5,,15.0,30.121063,1020.0,,,,,,,,,,SCT,20000,,,,,,,VFR,,,,,,,,,,,,SPECI,14.0
CWNE 180700Z AUTO 08025KT 01/01 RMK AO1 3PAST HR 6039 PK WND 09030/0639 SLP037 P0005 T00110010 50013,CWNE,2014-12-18T07:00:00Z,47.07,-64.0,1.1,1.0,80,25,,,,1003.7,,TRUE,TRUE,,,,,,,,,,,,,,,,1.3,,,,,0.05,,,,,,METAR,15.0
CZCR 180700Z AUTO 05009KT M02/M03 RMK AO1 0PAST HR SOG 17 6022 SLP085 P0004 T10231028 50010,CZCR,2014-12-18T07:00:00Z,47.97,-66.32,-2.3,-2.8,50,9,,,,1008.5,,TRUE,TRUE,,,,,,,,,,,,,,,,1.0,,,,,0.04,,,,,,METAR,38.0
CXNP 180700Z AUTO 06003KT 03/03 RMK AO1 3PAST HR 6054 PK WND 03021/0610 SLP980 P0017 T00300029 50043,CXNP,2014-12-18T07:00:00Z,45.75,-64.23,3.0,2.9,60,3,,,,998.0,,TRUE,TRUE,,,,,,,,,,,,,,,,4.3,,,,,0.17,,,,,,METAR,20.0
CWAR 180700Z AUTO 11001KT 01/01 RMK AO1 SLP182 T00110005 56016,CWAR,2014-12-18T07:00:00Z,47.28,-54.0,1.1,0.5,110,1,,,,1018.2,,TRUE,TRUE,,,,,,,,,,,,,,,,-1.6,,,,,,,,,,,METAR,16.0
CERM 180700Z AUTO 30002KT M02/M03 RMK AO1 1PAST HR SOG 17 6014 SLP070 P0004 T10221032 50011,CERM,2014-12-18T07:00:00Z,47.42,-68.32,-2.2,-3.2,300,2,,,,1007.0,,TRUE,TRUE,,,,,,,,,,,,,,,,1.1,,,,,0.04,,,,,,METAR,154.0
CAHR 180700Z AUTO 07012G18KT 02/01 RMK AO1 5PAST HR PRESFR 8049 PK WND 09020/0603 SLP009 P0002 T00210014 50005,CAHR,2014-12-18T07:00:00Z,46.35,-63.17,2.1,1.4,70,12,18,,,1000.9,,TRUE,TRUE,,,,,,,,,,,,,,,,0.5,,,,,0.02,,,,,,METAR,53.0
CWZW 180700Z AUTO 08005KT M15/M16 RMK AO1 SOG 20 1004 SLP138 T11491163,CWZW,2014-12-18T07:00:00Z,60.17,-132.73,-14.9,-16.3,80,5,,,,1013.8,,TRUE,TRUE,,,,,,,,,,,,,,,,,,,,,,,,,,,METAR,705.0
CWEQ 180700Z AUTO 22006KT M13/M15 RMK AO1 SLP234 T11271147 58006,CWEQ,2014-12-18T07:00:00Z,52.12,-101.22,-12.7,-14.7,220,6,,,,1023.4,,TRUE,TRUE,,,,,,,,,,,,,,,,-0.6,,,,,,,,,,,METAR,335.0
CZHY 180700Z AUTO 23004KT M10/M12 RMK AO1 2PAST HR SOG 22 3003 SLP057 P0001 T10991124 50002,CZHY,2014-12-18T07:00:00Z,60.83,-115.78,-9.9,-12.4,230,4,,,,1005.7,,TRUE,TRUE,,,,,,,,,,,,,,,,0.2,,,,,0.01,,,,,,SPECI,164.0
CZEV 180700Z AUTO 28001KT M18/M20 RMK AO1 SOG 23 3004 SLP086 T11801201,CZEV,2014-12-18T07:00:00Z,68.32,-133.52,-18.0,-20.1,280,1,,,,1008.6,,TRUE,TRUE,,,,,,,,,,,,,,,,,,,,,,,,,,,SPECI,103.0
CWNZ 180700Z AUTO 00000KT M19/M20 RMK AO1 SOG 49 0004 SLP278 T11871204,CWNZ,2014-12-18T07:00:00Z,49.75,-84.17,-18.7,-20.4,0,0,,,,1027.8,,TRUE,TRUE,,,,,,,,,,,,,,,,,,,,,,,,,,,METAR,256.0
CWDV 180700Z AUTO 24001KT M24/M26 RMK AO1 SOG 26 3002 SLP304 T12381258,CWDV,2014-12-18T07:00:00Z,49.02,-90.47,-23.8,-25.8,240,1,,,,1030.4,,TRUE,TRUE,,,,,,,,,,,,,,,,,,,,,,,,,,,METAR,489.0
DAAJ 180700Z 00000KT CAVOK 07/M04 Q1020,DAAJ,2014-12-18T07:00:00Z,24.28,9.47,7.0,-4.0,0,0,,6.21,30.11811,,,,,,,,,,,CAVOK,,,,,,,,VFR,,,,,,,,,,,,METAR,968.0
DAAY 180700Z 00000KT 6000 SCT017 SCT100 02/02 Q1028,DAAY,2014-12-18T07:00:00Z,33.53,-0.25,2.0,2.0,0,0,,3.73,30.35433,,,,,,,,,,,SCT,1700,SCT,10000,,,,,MVFR,,,,,,,,,,,,METAR,1149.0
DAOV 180700Z 00000KT CAVOK 03/03 Q1026,DAOV,2014-12-18T07:00:00Z,35.2,0.15,3.0,3.0,0,0,,6.21,30.295275,,,,,,,,,,,CAVOK,,,,,,,,VFR,,,,,,,,,,,,METAR,514.0
DAUL 180700Z 00000KT 9999 FEW033 BKN080 03/02 Q1024,DAUL,2014-12-18T07:00:00Z,33.77,2.92,3.0,2.0,0,0,,6.21,30.236221,,,,,,,,,,,FEW,3300,BKN,8000,,,,,VFR,,,,,,,,,,,,METAR,765.0
DAOI 180700Z 00000KT 9999 SCT030 BKN100 08/06 Q1026,DAOI,2014-12-18T07:00:00Z,36.22,1.32,8.0,6.0,0,0,,6.21,30.295275,,,,,,,,,,,SCT,3000,BKN,10000,,,,,VFR,,,,,,,,,,,,METAR,143.0
VTCT 180700Z 02003KT 320V120 9999 BKN030 OVC110 20/10 Q1019 A3009 RMK/RWY03 INFO H,VTCT,2014-12-18T07:00:00Z,19.95,99.88,20.0,10.0,20,3,,6.21,30.088583,,,,,,,,,,,BKN,3000,OVC,11000,,,,,MVFR,,,,,,,,,,,,METAR,390.0
DAOR 180700Z 00000KT CAVOK 04/04 Q1027,DAOR,2014-12-18T07:00:00Z,31.65,-2.27,4.0,4.0,0,0,,6.21,30.324802,,,,,,,,,,,CAVOK,,,,,,,,VFR,,,,,,,,,,,,METAR,773.0
DAOF 180700Z 00000KT CAVOK 06/02 Q1025,DAOF,2014-12-18T07:00:00Z,27.7,-8.17,6.0,2.0,0,0,,6.21,30.265747,,,,,,,,,,,CAVOK,,,,,,,,VFR,,,,,,,,,,,,METAR,431.0
CYYQ 180700Z 25009KT 15SM SKC M15/M16 A3001 RMK SLP165,CYYQ,2014-12-18T07:00:00Z,58.75,-94.07,-15.0,-16.0,250,9,,15.0,30.008858,1016.5,,,,,,,,,,SKC,,,,,,,,VFR,,,,,,,,,,,,METAR,29.0
CYXX 180700Z 03003KT 8SM -RA OVC030 05/05 A2992 RMK SC8 SLP133,CYXX,2014-12-18T07:00:00Z,49.03,-122.38,5.0,5.0,30,3,,8.0,29.920275,1013.3,,,,,,,,,-RA,OVC,3000,,,,,,,MVFR,,,,,,,,,,,,METAR,58.0
CYWG 180700Z 14006KT 15SM SKC M15/M17 A3030 RMK SLP285,CYWG,2014-12-18T07:00:00Z,49.88,-97.22,-15.0,-17.0,140,6,,15.0,30.301182,1028.5,,,,,,,,,,SKC,,,,,,,,VFR,,,,,,,,,,,,METAR,239.0
CYQM 180700Z 04012G18KT 10SM RA BKN005 OVC009 01/00 A2948 RMK SF5SF3 PRESFR SLP986,CYQM,2014-12-18T07:00:00Z,46.12,-64.67,1.0,0.0,40,12,18,10.0,29.480314,998.6,,,,,,,,,RA,BKN,500,OVC,900,,,,,IFR,,,,,,,,,,,,METAR,71.0
CYGL 180700Z 00000KT 15SM SKC M22/M24 A3014 RMK SLP230,CYGL,2014-12-18T07:00:00Z,53.62,-77.7,-22.0,-24.0,0,0,,15.0,30.138779,1023.0,,,,,,,,,,SKC,,,,,,,,VFR,,,,,,,,,,,,METAR,195.0
CYYF 180700Z 01005KT 8SM -RA OVC009 01/01 A2997 RMK SF8 SLP162,CYYF,2014-12-18T07:00:00Z,49.47,-119.58,1.0,1.0,10,5,,8.0,29.970472,1016.2,,,,,,,,,-RA,OVC,900,,,,,,,IFR,,,,,,,,,,,,METAR,344.0
CYYE 180700Z 00000KT 15SM SCT070 M18/M20 A2978 RMK AC4 SLP127,CYYE,2014-12-18T07:00:00Z,58.82,-122.57,-18.0,-20.0,0,0,,15.0,29.778543,1012.7,,,,,,,,,,SCT,7000,,,,,,,VFR,,,,,,,,,,,,METAR,382.0
CYXT 180700Z 00000KT 3/4SM BR SCT006 BKN040 BKN140 M04/M05 A2983 RMK FG2SF2SC1AC1 VIS VRB 1/2-1 SLP112,CYXT,2014-12-18T07:00:00Z,54.47,-128.57,-4.0,-5.0,0,0,,0.75,29.828741,1011.2,,,,,,,,,BR,SCT,600,BKN,4000,BKN,14000,,,LIFR,,,,,,,,,,,,METAR,217.0
CYQU 180700Z 30004KT 25SM SCT060 BKN080 M13/M14 A2978 RMK SC4AC1 SLP143,CYQU,2014-12-18T07:00:00Z,55.18,-118.88,-13.0,-14.0,300,4,,25.0,29.778543,1014.3,,,,,,,,,,SCT,6000,BKN,8000,,,,,VFR,,,,,,,,,,,,METAR,669.0
CYMA 180700Z VRB02KT 20SM FEW004 SCT020 OVC040 M13/M15 A2970 RMK ST2SC2SC4 SLP103,CYMA,2014-12-18T07:00:00Z,63.62,-135.87,-13.0,-15.0,0,2,,20.0,29.698818,1010.3,,,,,,,,,,FEW,400,SCT,2000,OVC,4000,,,VFR,,,,,,,,,,,,METAR,504.0
CYKA 180700Z 10006KT 40SM SCT065 OVC087 01/M02 A2993 RMK SC3AC5 SLP151,CYKA,2014-12-18T07:00:00Z,50.7,-120.45,1.0,-2.0,100,6,,40.0,29.929134,1015.1,,,,,,,,,,SCT,6500,OVC,8700,,,,,VFR,,,,,,,,,,,,METAR,346.0
CYVC 180700Z 21006KT 15SM OVC005 M08/M11 A2998 RMK SC8 SLP182,CYVC,2014-12-18T07:00:00Z,55.15,-105.27,-8.0,-11.0,210,6,,15.0,29.97933,1018.2,,,,,,,,,,OVC,500,,,,,,,IFR,,,,,,,,,,,,METAR,379.0
CYQF 180700Z 19003KT 10SM SKC M13/M14 A2982 RMK SLP159,CYQF,2014-12-18T07:00:00Z,52.17,-113.9,-13.0,-14.0,190,3,,10.0,29.819881,1015.9,,,,,,,,,,SKC,,,,,,,,VFR,,,,,,,,,,,,METAR,905.0
CYBR 180700Z 06004KT 15SM FEW250 M21/M23 A3020 RMK CI2 SLP271,CYBR,2014-12-18T07:00:00Z,49.92,-99.95,-21.0,-23.0,60,4,,15.0,30.200787,1027.1,,,,,,,,,,FEW,25000,,,,,,,VFR,,,,,,,,,,,,METAR,409.0
CYRJ 180700Z 34007KT 1SM -SN VV004 M04/M05 A2982 RMK SN8 CIG VRB 2-6 SLP110,CYRJ,2014-12-18T07:00:00Z,48.52,-72.27,-4.0,-5.0,340,7,,1.0,29.819881,1011.0,,,,,,,,,-SN,OVX,0,,,,,,,LIFR,,,,,,,,,,,400,METAR,179.0
CYQT 180700Z 25003KT 15SM SKC M19/M21 A3037 RMK SLP304,CYQT,2014-12-18T07:00:00Z,48.37,-89.32,-19.0,-21.0,250,3,,15.0,30.369095,1030.4,,,,,,,,,,SKC,,,,,,,,VFR,,,,,,,,,,,,METAR,199.0
CYAM 180700Z 34006KT 15SM SKC M09/M10 A3018 RMK AC TR SLP233,CYAM,2014-12-18T07:00:00Z,46.47,-84.52,-9.0,-10.0,340,6,,15.0,30.180119,1023.3,,,,,,,,,,SKC,,,,,,,,VFR,,,,,,,,,,,,METAR,192.0
CYXL 180700Z 08002KT 15SM SKC M25/M27 A3033 RMK SLP314,CYXL,2014-12-18T07:00:00Z,50.12,-91.9,-25.0,-27.0,80,2,,15.0,30.33071,1031.4,,,,,,,,,,SKC,,,,,,,,VFR,,,,,,,,,,,,METAR,390.0
CYSB 180700Z 36011G17KT 6SM -SN DRSN SCT041 OVC061 M09/M11 A3001 RMK SC3SC5 SLP186,CYSB,2014-12-18T07:00:00Z,46.63,-80.8,-9.0,-11.0,360,11,17,6.0,30.008858,1018.6,,,,,,,,,-SN DRSN,SCT,4100,OVC,6100,,,,,VFR,,,,,,,,,,,,METAR,348.0
CYQK 180700Z 15004KT 15SM SKC M15/M18 A3030 RMK SLP294,CYQK,2014-12-18T07:00:00Z,49.77,-94.37,-15.0,-18.0,150,4,,15.0,30.301182,1029.4,,,,,,,,,,SKC,,,,,,,,VFR,,,,,,,,,,,,METAR,411.0
CYZT 180700Z 22002KT 15SM FEW011 FEW089 M01/M01 A2985 RMK SC1AC1 SLP109,CYZT,2014-12-18T07:00:00Z,50.67,-127.37,-1.0,-1.0,220,2,,15.0,29.84941,1010.9,,,,,,,,,,FEW,1100,FEW,8900,,,,,VFR,,,,,,,,,,,,METAR,22.0
CYXC 180700Z 00000KT 12SM -SN FEW020 OVC045 M03/M07 A2997 RMK SC2SC6 SLP190,CYXC,2014-12-18T07:00:00Z,49.6,-115.77,-3.0,-7.0,0,0,,12.0,29.970472,1019.0,,,,,,,,,-SN,FEW,2000,OVC,4500,,,,,VFR,,,,,,,,,,,,METAR,939.0
CYEV 180700Z 27003KT 15SM OVC120 M18/M20 A2976 RMK AC8 SLP086,CYEV,2014-12-18T07:00:00Z,68.32,-133.5,-18.0,-20.0,270,3,,15.0,29.760826,1008.6,,,,,,,,,,OVC,12000,,,,,,,VFR,,,,,,,,,,,,METAR,68.0
CYCO 180700Z 09022KT 4SM BLSN OVC050 M15/M17 A2989 RMK BLSN2SC6 SLP124,CYCO,2014-12-18T07:00:00Z,67.82,-115.15,-15.0,-17.0,90,22,,4.0,29.890747,1012.4,,,,,,,,,BLSN,OVC,5000,,,,,,,MVFR,,,,,,,,,,,,METAR,22.0
CYPE 180700Z 22005KT 15SM FEW250 M14/M16 A2978 RMK CI2 SLP134,CYPE,2014-12-18T07:00:00Z,56.22,-117.45,-14.0,-16.0,220,5,,15.0,29.778543,1013.4,,,,,,,,,,FEW,25000,,,,,,,VFR,,,,,,,,,,,,METAR,571.0
DAUT 180700Z ///05KT CAVOK 07/04 Q1024,DAUT,2014-12-18T07:00:00Z,29.25,0.27,7.0,4.0,,,,6.21,30.236221,,,,,,,,,,,CAVOK,,,,,,,,VFR,,,,,,,,,,,,METAR,312.0
DAUA 180700Z 02008KT CAVOK 05/M03 Q1024,DAUA,2014-12-18T07:00:00Z,27.83,-0.18,5.0,-3.0,20,8,,6.21,30.236221,,,,,,,,,,,CAVOK,,,,,,,,VFR,,,,,,,,,,,,METAR,263.0
NSFA 180700Z 16003KT 9999 FEW023 SCT290 26/25 Q1011,NSFA,2014-12-18T07:00:00Z,-13.83,-172.0,26.0,25.0,160,3,,6.21,29.852362,,,,,,,,,,,FEW,2300,SCT,29000,,,,,VFR,,,,,,,,,,,,METAR,5.0
FKKN 180700Z 00000KT CAVOK 18/11 Q1019,FKKN,2014-12-18T07:00:00Z,7.33,13.57,18.0,11.0,0,0,,6.21,30.088583,,,,,,,,,,,CAVOK,,,,,,,,VFR,,,,,,,,,,,,METAR,1104.0
FKKL 180700Z 02009KT CAVOK 24/02 Q1015,FKKL,2014-12-18T07:00:00Z,10.45,14.25,24.0,2.0,20,9,,6.21,29.970472,,,,,,,,,,,CAVOK,,,,,,,,VFR,,,,,,,,,,,,METAR,424.0
OLBA 180700Z 11005KT 9000 FEW070 BKN200 18/07 Q1021,OLBA,2014-12-18T07:00:00Z,33.82,35.47,18.0,7.0,110,5,,5.59,30.147638,,,,,,,,,,,FEW,7000,BKN,20000,,,,,VFR,,,,,,,,,,,,METAR,19.0
DAOB 180700Z 24010KT 9999 SCT026 04/02 Q1025,DAOB,2014-12-18T07:00:00Z,35.33,1.47,4.0,2.0,240,10,,6.21,30.265747,,,,,,,,,,,SCT,2600,,,,,,,VFR,,,,,,,,,,,,METAR,989.0
HKVO 180700Z 36008KT 9999 SCT023 27/22,HKVO,2014-12-18T07:00:00Z,-3.38,38.53,27.0,22.0,360,8,,6.21,,,,,,,,,,,,SCT,2300,,,,,,,VFR,,,,,,,,,,,,METAR,579.0
HKNK 180700Z 21004KT 9999 FEW022 20/12,HKNK,2014-12-18T07:00:00Z,-0.3,36.17,20.0,12.0,210,4,,6.21,,,,,,,,,,,,FEW,2200,,,,,,,VFR,,,,,,,,,,,,METAR,1901.0
HKMU 180700Z 00000KT 9999 SCT024 24/20,HKMU,2014-12-18T07:00:00Z,-2.27,37.82,24.0,20.0,0,0,,6.21,,,,,,,,,,,,SCT,2400,,,,,,,VFR,,,,,,,,,,,,METAR,1000.0
HKML 180700Z 36005KT 9999 SCT023TCU 30/23 Q1013,HKML,2014-12-18T07:00:00Z,-3.22,40.1,30.0,23.0,360,5,,6.21,29.911417,,,,,,,,,,,SCT,2300,,,,,,,VFR,,,,,,,,,,,,METAR,23.0
HKLU 180700Z 08010KT 9999 BKN023 31/24,HKLU,2014-12-18T07:00:00Z,-2.25,40.92,31.0,24.0,80,10,,6.21,,,,,,,,,,,,BKN,2300,,,,,,,MVFR,,,,,,,,,,,,METAR,6.0
HKKT 180700Z 18003KT 9999 FEW020 BKN270 21/14,HKKT,2014-12-18T07:00:00Z,0.97,34.97,21.0,14.0,180,3,,6.21,,,,,,,,,,,,FEW,2000,BKN,27000,,,,,VFR,,,,,,,,,,,,METAR,1850.0
HKEM 180700Z 16003KT 9999 FEW022 23/14,HKEM,2014-12-18T07:00:00Z,-0.57,37.48,23.0,14.0,160,3,,6.21,,,,,,,,,,,,FEW,2200,,,,,,,VFR,,,,,,,,,,,,METAR,1493.0
HKKI 180700Z 12005KT 9999 FEW022 25/15 Q1020,HKKI,2014-12-18T07:00:00Z,-0.1,34.75,25.0,15.0,120,5,,6.21,30.11811,,,,,,,,,,,FEW,2200,,,,,,,VFR,,,,,,,,,,,,SPECI,1146.0
HKEL 180700Z 33005KT 9999 FEW019CB BKN260 22/09 Q1027,HKEL,2014-12-18T07:00:00Z,0.4,35.23,22.0,9.0,330,5,,6.21,30.324802,,,,,,,,,,,FEW,1900,BKN,26000,,,,,VFR,,,,,,,,,,,,SPECI,2133.0
HKJK 180700Z 01007KT 340V040 9999 SCT023 23/15 Q1023,HKJK,2014-12-18T07:00:00Z,-1.32,36.92,23.0,15.0,10,7,,6.21,30.206694,,,,,,,,,,,SCT,2300,,,,,,,VFR,,,,,,,,,,,,SPECI,1624.0
UTFF 180700Z 28002KT 240V330 6000 NSC 06/M06 Q1022 R18/CLRD70,UTFF,2014-12-18T07:00:00Z,40.37,71.77,6.0,-6.0,280,2,,3.73,30.177166,,,,,,,,,,,,,,,,,,,,,,,,,,,,,,,METAR,577.0
CZPS 180700Z AUTO 28005KT M09/M11 RMK AO1 T10911107,CZPS,2014-12-18T07:00:00Z,52.43,-113.6,-9.1,-10.7,280,5,,,,,,TRUE,TRUE,,,,,,,,,,,,,,,,,,,,,,,,,,,METAR,965.0
CZOL 180700Z AUTO 26001KT M06/M08 RMK AO1 T10591075,CZOL,2014-12-18T07:00:00Z,53.65,-113.35,-5.9,-7.5,260,1,,,,,,TRUE,TRUE,,,,,,,,,,,,,,,,,,,,,,,,,,,METAR,665.0
CXVM 180700Z AUTO 19001KT M07/M08 RMK AO1 T10741080,CXVM,2014-12-18T07:00:00Z,53.35,-110.88,-7.4,-8.0,190,1,,,,,,TRUE,TRUE,,,,,,,,,,,,,,,,,,,,,,,,,,,METAR,623.0
CXOL 180700Z AUTO 27007KT M07/M07 RMK AO1 T10681070,CXOL,2014-12-18T07:00:00Z,51.77,-114.08,-6.8,-7.0,270,7,,,,,,TRUE,TRUE,,,,,,,,,,,,,,,,,,,,,,,,,,,METAR,1046.0
CXMO 180700Z AUTO 00000KT M09/M10 RMK AO1 T10941102,CXMO,2014-12-18T07:00:00Z,51.67,-112.68,-9.4,-10.2,0,0,,,,,,TRUE,TRUE,,,,,,,,,,,,,,,,,,,,,,,,,,,METAR,836.0
CXMG 180700Z AUTO 00000KT M18/M20 RMK AO1 T11771198,CXMG,2014-12-18T07:00:00Z,56.97,-117.45,-17.7,-19.8,0,0,,,,,,TRUE,TRUE,,,,,,,,,,,,,,,,,,,,,,,,,,,METAR,457.0
CXHD 180700Z AUTO 23004KT M06/M07 RMK AO1 T10631066,CXHD,2014-12-18T07:00:00Z,53.18,-112.25,-6.3,-6.6,230,4,,,,,,TRUE,TRUE,,,,,,,,,,,,,,,,,,,,,,,,,,,METAR,688.0
CPRY 180700Z AUTO 24007KT M01/M05 RMK AO1 T10081053,CPRY,2014-12-18T07:00:00Z,49.48,-112.68,-0.8,-5.3,240,7,,,,,,TRUE,TRUE,,,,,,,,,,,,,,,,,,,,,,,,,,,METAR,937.0
CPFI 180700Z AUTO 00000KT M11/M12 RMK AO1 T11111124,CPFI,2014-12-18T07:00:00Z,49.8,-112.03,-11.1,-12.4,0,0,,,,,,TRUE,TRUE,,,,,,,,,,,,,,,,,,,,,,,,,,,METAR,833.0
CXCD 180700Z AUTO 00000KT M19/M21 RMK AO1 T11851206,CXCD,2014-12-18T07:00:00Z,56.32,-119.75,-18.5,-20.6,0,0,,,,,,TRUE,TRUE,,,,,,,,,,,,,,,,,,,,,,,,,,,METAR,630.0
CXBA 180700Z AUTO 23003KT M07/M07 RMK AO1 T10661070,CXBA,2014-12-18T07:00:00Z,52.12,-110.1,-6.6,-7.0,230,3,,,,,,TRUE,TRUE,,,,,,,,,,,,,,,,,,,,,,,,,,,METAR,687.0
CXAJ 180700Z AUTO 24001KT M06/M07 RMK AO1 SOG 16 T10621069,CXAJ,2014-12-18T07:00:00Z,54.77,-112.82,-6.2,-6.9,240,1,,,,,,TRUE,TRUE,,,,,,,,,,,,,,,,,,,,,,,,,,,METAR,574.0
CXAG 180700Z AUTO 14003KT M07/M07 RMK AO1 T10681073,CXAG,2014-12-18T07:00:00Z,53.92,-112.28,-6.8,-7.3,140,3,,,,,,TRUE,TRUE,,,,,,,,,,,,,,,,,,,,,,,,,,,METAR,625.0
VTPH 180700Z 03011KT 350V050 8000 NSC 27/16 Q1013 NOSIG,VTPH,2014-12-18T07:00:00Z,12.63,99.95,27.0,16.0,30,11,,4.97,29.911417,,,,,,TRUE,,,,,,,,,,,,,,,,,,,,,,,,,SPECI,6.0
CXKA 180700Z AUTO 31004KT M20/M22 RMK AO1 SOG 36 1006 SLP261 T12041223,CXKA,2014-12-18T07:00:00Z,49.4,-82.45,-20.4,-22.3,310,4,,,,1026.1,,TRUE,TRUE,,,,,,,,,,,,,,,,,,,,,,,,,,,METAR,218.0
CWCJ 180700Z AUTO 07002KT M18/M19 RMK AO1 SOG 18 1010 SLP282 T11761194,CWCJ,2014-12-18T07:00:00Z,48.6,-86.28,-17.6,-19.4,70,2,,,,1028.2,,TRUE,TRUE,,,,,,,,,,,,,,,,,,,,,,,,,,,METAR,206.0
CWCF 180700Z AUTO 13004KT M18/M19 RMK AO1 SOG 13 8006 SLP271 T11751194,CWCF,2014-12-18T07:00:00Z,52.35,-97.03,-17.5,-19.4,130,4,,,,1027.1,,TRUE,TRUE,,,,,,,,,,,,,,,,,,,,,,,,,,,METAR,222.0
CWGX 180700Z AUTO 21008KT M16/M17 RMK AO1 SLP215 T11561173 50001,CWGX,2014-12-18T07:00:00Z,56.35,-94.7,-15.6,-17.3,210,8,,,,1021.5,,TRUE,TRUE,,,,,,,,,,,,,,,,0.1,,,,,,,,,,,METAR,145.0
CWJW 180700Z AUTO 18002KT M07/M07 RMK AO1 SOG 15 8001 SLP149 T10661071,CWJW,2014-12-18T07:00:00Z,52.93,-118.03,-6.6,-7.1,180,2,,,,1014.9,,TRUE,TRUE,,,,,,,,,,,,,,,,,,,,,,,,,,,METAR,1020.0
CWRT 180700Z AUTO 30006KT 01/M03 RMK AO1 T00071027,CWRT,2014-12-18T07:00:00Z,49.62,-114.47,0.7,-2.7,300,6,,,,,,TRUE,TRUE,,,,,,,,,,,,,,,,,,,,,,,,,,,METAR,1303.0
CWRK 180700Z AUTO 35007KT M03/M04 RMK AO1 SOG 10 3013 SLP126 T10341043,CWRK,2014-12-18T07:00:00Z,45.07,-77.87,-3.4,-4.3,350,7,,,,1012.6,,TRUE,TRUE,,,,,,,,,,,,,,,,,,,,,,,,,,,METAR,331.0
CWGM 180700Z AUTO 23011KT 02/M03 RMK AO1 PK WND 25019/0612 T00211028,CWGM,2014-12-18T07:00:00Z,49.13,-113.78,2.1,-2.8,230,11,,,,,,TRUE,TRUE,,,,,,,,,,,,,,,,,,,,,,,,,,,METAR,1296.0
CWGD 180700Z AUTO 30013G19KT 01/M02 RMK AO1 2PAST HR SOG 00 3011 PK WND 32020/0608 SLP181 P0001 T00051020 50002,CWGD,2014-12-18T07:00:00Z,43.77,-81.72,0.5,-2.0,300,13,19,,,1018.1,,TRUE,TRUE,,,,,,,,,,,,,,,,0.2,,,,,0.01,,,,,,METAR,214.0
CWFJ 180700Z AUTO 22001KT M06/M06 RMK AO1 T10571063,CWFJ,2014-12-18T07:00:00Z,49.2,-113.27,-5.7,-6.3,220,1,,,,,,TRUE,TRUE,,,,,,,,,,,,,,,,,,,,,,,,,,,METAR,1136.0
CWEZ 180700Z AUTO 08003KT 06/05 RMK AO1 SLP125 T00640054 51003,CWEZ,2014-12-18T07:00:00Z,48.78,-123.05,6.4,5.4,80,3,,,,1012.5,,TRUE,TRUE,,,,,,,,,,,,,,,,0.3,,,,,,,,,,,METAR,7.0
CWWE 180700Z AUTO 20015KT 06/06 RMK AO1 PK WND 21024/0634 SLP966 T00580058 55007,CWWE,2014-12-18T07:00:00Z,43.97,-64.67,5.8,5.8,200,15,,,,996.6,,TRUE,TRUE,,,,,,,,,,,,,,,,-0.7,,,,,,,,,,,METAR,9.0
CWHO 180700Z AUTO 24014KT M15/M21 RMK AO1 PK WND 23017/0657 SLP186 T11461209 56017,CWHO,2014-12-18T07:00:00Z,55.45,-60.22,-14.6,-20.9,240,14,,,,1018.6,,TRUE,TRUE,,,,,,,,,,,,,,,,-1.7,,,,,,,,,,,METAR,8.0
CXWN 180700Z AUTO 10002KT M14/M16 RMK AO1 SLP280 T11361157 58005,CXWN,2014-12-18T07:00:00Z,49.88,-97.13,-13.6,-15.7,100,2,,,,1028.0,,TRUE,TRUE,,,,,,,,,,,,,,,,-0.5,,,,,,,,,,,METAR,230.0
CXMD 180700Z AUTO 18001KT M18/M19 RMK AO1 SOG 03 8005 SLP277 T11771194,CXMD,2014-12-18T07:00:00Z,49.22,-98.08,-17.7,-19.4,180,1,,,,1027.7,,TRUE,TRUE,,,,,,,,,,,,,,,,,,,,,,,,,,,METAR,301.0
CXET 180700Z AUTO 28005KT M02/M03 RMK AO1 2PAST HR 3011 SLP152 P0001 T10201026 50002,CXET,2014-12-18T07:00:00Z,44.23,-79.78,-2.0,-2.6,280,5,,,,1015.2,,TRUE,TRUE,,,,,,,,,,,,,,,,0.2,,,,,0.01,,,,,,METAR,251.0
CXEG 180700Z AUTO M09/M09 RMK AO1 SOG 02 T10901094,CXEG,2014-12-18T07:00:00Z,53.3,-113.6,-9.0,-9.4,,,,,,,,TRUE,TRUE,,,,,,,,,,,,,,,,,,,,,,,,,,,METAR,715.0
CXEC 180700Z AUTO M07/ RMK AO1 T1067,CXEC,2014-12-18T07:00:00Z,53.57,-113.52,-6.7,,,,,,,,,TRUE,TRUE,,,,,,,,,,,,,,,,,,,,,,,,,,,METAR,671.0
CXDI 180700Z AUTO 27005KT M02/M04 RMK AO1 SLP189 T10221044 53012,CXDI,2014-12-18T07:00:00Z,42.87,-80.55,-2.2,-4.4,270,5,,,,1018.9,,TRUE,TRUE,,,,,,,,,,,,,,,,1.2,,,,,,,,,,,METAR,232.0
CXDE 180700Z AUTO 32001KT M18/M20 RMK AO1 SOG 21 6002 SLP080 T11781196,CXDE,2014-12-18T07:00:00Z,65.22,-123.43,-17.8,-19.6,320,1,,,,1008.0,,TRUE,TRUE,,,,,,,,,,,,,,,,,,,,,,,,,,,METAR,213.0
CXZC 180700Z AUTO 31006KT M17/M18 RMK AO1 SOG 48 1007 SLP245 T11671184,CXZC,2014-12-18T07:00:00Z,51.3,-80.62,-16.7,-18.4,310,6,,,,1024.5,,TRUE,TRUE,,,,,,,,,,,,,,,,,,,,,,,,,,,METAR,9.0
CXSE 180700Z AUTO 25008KT M36/M40 RMK AO1 SLP245 T13641403 51009,CXSE,2014-12-18T07:00:00Z,73.77,-105.28,-36.4,-40.3,250,8,,,,1024.5,,TRUE,TRUE,,,,,,,,,,,,,,,,0.9,,,,,,,,,,,METAR,11.0
CXKI 180700Z AUTO M10/M11 RMK AO1 SOG 29 1014 SLP197 T11041111,CXKI,2014-12-18T07:00:00Z,48.22,-80.0,-10.4,-11.1,,,,,,1019.7,,TRUE,TRUE,,,,,,,,,,,,,,,,,,,,,,,,,,,METAR,324.0
CXDK 180700Z AUTO 00000KT M22/M24 RMK AO1 SOG 14 3009 SLP106 T12191244,CXDK,2014-12-18T07:00:00Z,61.27,-124.47,-21.9,-24.4,0,0,,,,1010.6,,TRUE,TRUE,,,,,,,,,,,,,,,,,,,,,,,,,,,METAR,283.0
CWTT 180700Z AUTO 26004KT 00/M00 RMK AO1 T00001003,CWTT,2014-12-18T07:00:00Z,45.27,-72.17,0.0,-0.3,260,4,,,,,,TRUE,TRUE,,,,,,,,,,,,,,,,,,,,,,,,,,,METAR,209.0
FTTY 180700Z 04010KT CAVOK 20/M02 Q1017,FTTY,2014-12-18T07:00:00Z,18.0,19.17,20.0,-2.0,40,10,,6.21,30.029528,,,,,,,,,,,CAVOK,,,,,,,,VFR,,,,,,,,,,,,METAR,234.0
FTTD 180700Z 00000KT CAVOK 22/10 Q1015,FTTD,2014-12-18T07:00:00Z,8.62,16.07,22.0,10.0,0,0,,6.21,29.970472,,,,,,,,,,,CAVOK,,,,,,,,VFR,,,,,,,,,,,,METAR,422.0
YLEC 180700Z AUTO 21015KT //// // ////// 32/03 Q1011,YLEC,2014-12-18T07:00:00Z,-30.6,138.43,32.0,3.0,210,15,,,29.852362,,,TRUE,,,,,,,,,,,,,,,,,,,,,,,,,,,,METAR,262.0
YGTE 180700Z AUTO 08005KT 360V120 9999 // SCT125 37/20 Q1006,YGTE,2014-12-18T07:00:00Z,-13.97,136.45,37.0,20.0,80,5,,6.21,29.704725,,,TRUE,,,,,,,,SCT,12500,,,,,,,VFR,,,,,,,,,,,,METAR,14.0
YGLA 180700Z AUTO 03011KT 9999 // NCD 30/22 Q1008,YGLA,2014-12-18T07:00:00Z,-23.87,151.22,30.0,22.0,30,11,,6.21,29.763779,,,TRUE,,,,,,,,,,,,,,,,,,,,,,,,,,,,METAR,52.0
YGFN 180700Z AUTO 24005KT 9999 // SCT043 SCT060 BKN100 22/20 Q1007,YGFN,2014-12-18T07:00:00Z,-29.77,153.03,22.0,20.0,240,5,,6.21,29.734253,,,TRUE,,,,,,,,SCT,4300,SCT,6000,BKN,10000,,,VFR,,,,,,,,,,,,METAR,34.0
YESP 180700Z AUTO 14014KT 9999 // NCD 22/13 Q1018,YESP,2014-12-18T07:00:00Z,-33.68,121.82,22.0,13.0,140,14,,6.21,30.059055,,,TRUE,,,,,,,,,,,,,,,,,,,,,,,,,,,,METAR,143.0
YEML 180700Z AUTO 31007KT 9999 // OVC115 37/11 Q1006,YEML,2014-12-18T07:00:00Z,-23.57,148.18,37.0,11.0,310,7,,6.21,29.704725,,,TRUE,,,,,,,,OVC,11500,,,,,,,VFR,,,,,,,,,,,,METAR,190.0
YDBY 180700Z AUTO 31011KT //// // ////// 36/23 Q1004,YDBY,2014-12-18T07:00:00Z,-17.37,123.67,36.0,23.0,310,11,,,29.64567,,,TRUE,,,,,,,,,,,,,,,,,,,,,,,,,,,,METAR,7.0
YCOM 180700Z AUTO 30011KT 9999 // OVC090 21/03 Q1007,YCOM,2014-12-18T07:00:00Z,-36.3,148.97,21.0,3.0,300,11,,6.21,29.734253,,,TRUE,,,,,,,,OVC,9000,,,,,,,VFR,,,,,,,,,,,,METAR,941.0
YCNM 180700Z AUTO 26009KT //// // ////// 28/M02 Q1007,YCNM,2014-12-18T07:00:00Z,-30.98,148.38,28.0,-2.0,260,9,,,29.734253,,,TRUE,,,,,,,,,,,,,,,,,,,,,,,,,,,,METAR,184.0
YCDU 180700Z AUTO 19014KT 9999 // NCD 22/11 Q1016,YCDU,2014-12-18T07:00:00Z,-32.12,133.7,22.0,11.0,190,14,,6.21,30.0,,,TRUE,,,,,,,,,,,,,,,,,,,,,,,,,,,,METAR,15.0
YSNW 180700Z AUTO 11010KT 9999 // NCD 25/19 Q1004,YSNW,2014-12-18T07:00:00Z,-34.95,150.52,25.0,19.0,110,10,,6.21,29.64567,,,TRUE,,,,,,,,,,,,,,,,,,,,,,,,,,,,METAR,110.0
YBPN 180700Z AUTO 33013KT 9999 // NCD 31/20 Q1008,YBPN,2014-12-18T07:00:00Z,-20.5,148.55,31.0,20.0,330,13,,6.21,29.763779,,,TRUE,,,,,,,,,,,,,,,,,,,,,,,,,,,,METAR,25.0
YBOK 180700Z AUTO 22014KT 9999 // SCT049 BKN077 OVC110 22/20 Q1011,YBOK,2014-12-18T07:00:00Z,-27.42,151.72,22.0,20.0,220,14,,6.21,29.852362,,,TRUE,,,,,,,,SCT,4900,BKN,7700,OVC,11000,,,VFR,,,,,,,,,,,,METAR,407.0
YBNA 180700Z AUTO 01012KT 9999 // NCD 27/22 Q1005,YBNA,2014-12-18T07:00:00Z,-28.83,153.57,27.0,22.0,10,12,,6.21,29.675198,,,TRUE,,,,,,,,,,,,,,,,,,,,,,,,,,,,METAR,2.0
YBMK 180700Z AUTO 01016KT 9999 // NCD 30/22 Q1008,YBMK,2014-12-18T07:00:00Z,-21.17,149.17,30.0,22.0,10,16,,6.21,29.763779,,,TRUE,,,,,,,,,,,,,,,,,,,,,,,,,,,,METAR,31.0
YPBO 180700Z AUTO 21005KT 9999 // NCD 43/03 Q1006,YPBO,2014-12-18T07:00:00Z,-23.2,117.75,43.0,3.0,210,5,,6.21,29.704725,,,TRUE,,,,,,,,,,,,,,,,,,,,,,,,,,,,METAR,1292.0
YOLD 180700Z AUTO 21010KT 9999 // NCD 34/03 Q1010,YOLD,2014-12-18T07:00:00Z,-30.48,136.88,34.0,3.0,210,10,,6.21,29.822834,,,TRUE,,,,,,,,,,,,,,,,,,,,,,,,,,,,METAR,105.0
YNWN 180700Z AUTO 11006KT 9999 // NCD 42/05 Q1007,YNWN,2014-12-18T07:00:00Z,-23.42,119.8,42.0,5.0,110,6,,6.21,29.734253,,,TRUE,,,,,,,,,,,,,,,,,,,,,,,,,,,,METAR,525.0
YNTN 180700Z AUTO 31014KT //// // ////// 34/26 Q1007,YNTN,2014-12-18T07:00:00Z,-17.68,141.07,34.0,26.0,310,14,,,29.734253,,,TRUE,,,,,,,,,,,,,,,,,,,,,,,,,,,,METAR,22.0
YNBR 180700Z AUTO 24010KT //// // ////// 30/M01 Q1008,YNBR,2014-12-18T07:00:00Z,-30.32,149.83,30.0,-1.0,240,10,,,29.763779,,,TRUE,,,,,,,,,,,,,,,,,,,,,,,,,,,,METAR,240.0
YMTG 180700Z AUTO 25017KT 9999 // SCT049 BKN059 OVC070 17/04 Q1011,YMTG,2014-12-18T07:00:00Z,-37.75,140.78,17.0,4.0,250,17,,6.21,29.852362,,,TRUE,,,,,,,,SCT,4900,BKN,5900,OVC,7000,,,VFR,,,,,,,,,,,,METAR,65.0
GOGK 180700Z VRB02KT 8000 NSC 20/07 Q1012,GOGK,2014-12-18T07:00:00Z,12.9,-14.97,20.0,7.0,0,2,,4.97,29.88189,,,,,,,,,,,,,,,,,,,,,,,,,,,,,,,METAR,10.0
GOOD 180700Z 00000KT 8000 NSC 16/01 Q1013,GOOD,2014-12-18T07:00:00Z,14.65,-16.22,16.0,1.0,0,0,,4.97,29.911417,,,,,,,,,,,,,,,,,,,,,,,,,,,,,,,METAR,9.0
GOSM 180700Z 00000KT 8000 NSC 14/05 Q1014,GOSM,2014-12-18T07:00:00Z,15.6,-13.33,14.0,5.0,0,0,,4.97,29.940945,,,,,,,,,,,,,,,,,,,,,,,,,,,,,,,METAR,17.0
GOOG 180700Z 04004KT 7000 NSC 15/05 Q////,GOOG,2014-12-18T07:00:00Z,15.4,-15.08,15.0,5.0,40,4,,4.35,,,,,,,,,,,,,,,,,,,,,,,,,,,,,,,,METAR,21.0
GOSP 180700Z 00000KT CAVOK 15/09 Q1015,GOSP,2014-12-18T07:00:00Z,16.68,-14.97,15.0,9.0,0,0,,6.21,29.970472,,,,,,,,,,,CAVOK,,,,,,,,VFR,,,,,,,,,,,,METAR,7.0
RKSM 180700Z 28003KT 9999 SKC M03/M19 A3055,RKSM,2014-12-18T07:00:00Z,37.42,127.12,-3.0,-19.0,280,3,,6.21,30.549213,,,,,,,,,,,SKC,,,,,,,,VFR,,,,,,,,,,,,METAR,20.0
CWJU 180700Z AUTO 11008KT 06/05 RMK AO1 SLP012 T00580048 56016,CWJU,2014-12-18T07:00:00Z,54.25,-133.07,5.8,4.8,110,8,,,,1001.2,,TRUE,TRUE,,,,,,,,,,,,,,,,-1.6,,,,,,,,,,,METAR,41.0
CXPA 180700Z AUTO 07001KT M11/M12 RMK AO1 T11081117,CXPA,2014-12-18T07:00:00Z,55.62,-118.3,-10.8,-11.7,70,1,,,,,,TRUE,TRUE,,,,,,,,,,,,,,,,,,,,,,,,,,,METAR,621.0
CXKM 180700Z AUTO 00000KT M06/M07 RMK AO1 T10641073,CXKM,2014-12-18T07:00:00Z,52.82,-111.85,-6.4,-7.3,0,0,,,,,,TRUE,TRUE,,,,,,,,,,,,,,,,,,,,,,,,,,,METAR,675.0
CXFR 180700Z AUTO 00000KT M16/M17 RMK AO1 T11561172,CXFR,2014-12-18T07:00:00Z,56.08,-118.43,-15.6,-17.2,0,0,,,,,,TRUE,TRUE,,,,,,,,,,,,,,,,,,,,,,,,,,,METAR,655.0
CXDP 180700Z AUTO 21005KT M09/M09 RMK AO1 T10861091,CXDP,2014-12-18T07:00:00Z,54.32,-113.95,-8.6,-9.1,210,5,,,,,,TRUE,TRUE,,,,,,,,,,,,,,,,,,,,,,,,,,,METAR,614.0
CXBR 180700Z AUTO 26013KT 02/M03 RMK AO1 PK WND 25018/0654 T00231029,CXBR,2014-12-18T07:00:00Z,49.62,-113.82,2.3,-2.9,260,13,,,,,,TRUE,TRUE,,,,,,,,,,,,,,,,,,,,,,,,,,,METAR,1073.0
CXAF 180700Z AUTO 25003KT M07/M08 RMK AO1 T10681076,CXAF,2014-12-18T07:00:00Z,54.28,-112.97,-6.8,-7.6,250,3,,,,,,TRUE,TRUE,,,,,,,,,,,,,,,,,,,,,,,,,,,METAR,664.0
CWNK 180700Z AUTO 16003KT M17/M19 RMK AO1 T11711188,CWNK,2014-12-18T07:00:00Z,49.5,-98.03,-17.1,-18.8,160,3,,,,,,TRUE,TRUE,,,,,,,,,,,,,,,,,,,,,,,,,,,METAR,268.0
CWZV 180700Z AUTO 15018KT 08/06 RMK AO1 PK WND 17023/0646 SLP025 T00800056 58019,CWZV,2014-12-18T07:00:00Z,51.93,-131.02,8.0,5.6,150,18,,,,1002.5,,TRUE,TRUE,,,,,,,,,,,,,,,,-1.9,,,,,,,,,,,METAR,92.0
CWHP 180700Z AUTO 08023G28KT 00/M02 RMK AO1 PK WND 09028/0645 SLP117 T00001019 56017,CWHP,2014-12-18T07:00:00Z,49.07,-61.7,0.0,-1.9,80,23,28,,,1011.7,,TRUE,TRUE,,,,,,,,,,,,,,,,-1.7,,,,,,,,,,,METAR,4.0
CWWX 180700Z AUTO 05012KT M04/M06 RMK AO1 PK WND 05018/0613 SLP181 T10391055 51015,CWWX,2014-12-18T07:00:00Z,45.32,-81.73,-3.9,-5.5,50,12,,,,1018.1,,TRUE,TRUE,,,,,,,,,,,,,,,,1.5,,,,,,,,,,,METAR,181.0
CXSC 180700Z AUTO 22002KT M12/M14 RMK AO1 T11221136,CXSC,2014-12-18T07:00:00Z,50.3,-110.08,-12.2,-13.6,220,2,,,,,,TRUE,TRUE,,,,,,,,,,,,,,,,,,,,,,,,,,,METAR,800.0
"VRMM 180700Z 04014KT 9999 SCT017 FEW018CB BKN120 29/25 Q1011 CB NE,S,WSW NOSIG",VRMM,2014-12-18T07:00:00Z,4.2,73.52,29.0,25.0,40,14,,6.21,29.852362,,,,,,TRUE,,,,,SCT,1700,FEW,1800,BKN,12000,,,VFR,,,,,,,,,,,,METAR,2.0
OIBA 180700Z 27010KT 5000 HZ FEW025TCU SCT030 25/16 Q1019,OIBA,2014-12-18T07:00:00Z,25.88,55.03,25.0,16.0,270,10,,3.11,30.088583,,,,,,,,,,HZ,FEW,2500,SCT,3000,,,,,MVFR,,,,,,,,,,,,METAR,7.0
OIFS 180700Z 17002KT CAVOK 03/M04 Q1026,OIFS,2014-12-18T07:00:00Z,32.32,50.85,3.0,-4.0,170,2,,6.21,30.295275,,,,,,,,,,,CAVOK,,,,,,,,VFR,,,,,,,,,,,,METAR,2078.0
OIBV 180700Z 31014KT CAVOK 22/15 Q1020,OIBV,2014-12-18T07:00:00Z,26.82,53.35,22.0,15.0,310,14,,6.21,30.11811,,,,,,,,,,,CAVOK,,,,,,,,VFR,,,,,,,,,,,,METAR,24.0
OIIP 180700Z 32012KT 8000 NSC 03/M02 Q1025,OIIP,2014-12-18T07:00:00Z,35.78,50.83,3.0,-2.0,320,12,,4.97,30.265747,,,,,,,,,,,,,,,,,,,,,,,,,,,,,,,METAR,1271.0
OIMN 180700Z 00000KT 9999 FEW015 SCT030 05/00 Q1024,OIMN,2014-12-18T07:00:00Z,37.48,57.3,5.0,0.0,0,0,,6.21,30.236221,,,,,,,,,,,FEW,1500,SCT,3000,,,,,VFR,,,,,,,,,,,,METAR,1074.0
OIMB 180700Z 00000KT 9999 FEW025 FEW030CB SCT035 06/01 Q1024,OIMB,2014-12-18T07:00:00Z,32.9,59.28,6.0,1.0,0,0,,6.21,30.236221,,,,,,,,,,,FEW,2500,FEW,3000,SCT,3500,,,VFR,,,,,,,,,,,,METAR,1491.0
OITM 180700Z 00000KT 5000 BR FEW035 BKN180 03/00 Q1025,OITM,2014-12-18T07:00:00Z,37.35,46.15,3.0,0.0,0,0,,3.11,30.265747,,,,,,,,,,BR,FEW,3500,BKN,18000,,,,,MVFR,,,,,,,,,,,,METAR,1340.0
OITK 180700Z 02002KT 5000 BR BKN035 OVC090 01/00 Q1024,OITK,2014-12-18T07:00:00Z,38.42,44.98,1.0,0.0,20,2,,3.11,30.236221,,,,,,,,,,BR,BKN,3500,OVC,9000,,,,,MVFR,,,,,,,,,,,,METAR,1107.0
OINE 180700Z 00000KT CAVOK 11/08 Q1025,OINE,2014-12-18T07:00:00Z,37.38,55.45,11.0,8.0,0,0,,6.21,30.265747,,,,,,,,,,,CAVOK,,,,,,,,VFR,,,,,,,,,,,,METAR,130.0
OIMQ 180700Z 27006KT 9999 FEW020 SCT035 OVC090 04/03 Q1024 RERA,OIMQ,2014-12-18T07:00:00Z,35.23,58.47,4.0,3.0,270,6,,6.21,30.236221,,,,,,,,,,,FEW,2000,SCT,3500,OVC,9000,,,VFR,,,,,,,,,,,,METAR,1140.0
OIMD 180700Z 00000KT 9999 FEW030CB BKN035 08/02 Q1020,OIMD,2014-12-18T07:00:00Z,34.38,58.63,8.0,2.0,0,0,,6.21,30.11811,,,,,,,,,,,FEW,3000,BKN,3500,,,,,VFR,,,,,,,,,,,,METAR,1100.0
OIMC 180700Z 30006KT 9999 BKN020 OVC090 05/03 Q1029,OIMC,2014-12-18T07:00:00Z,36.5,61.07,5.0,3.0,300,6,,6.21,30.383858,,,,,,,,,,,BKN,2000,OVC,9000,,,,,MVFR,,,,,,,,,,,,METAR,288.0
OIIK 180700Z 07004KT CAVOK 05/M01 Q1025,OIIK,2014-12-18T07:00:00Z,36.25,50.05,5.0,-1.0,70,4,,6.21,30.265747,,,,,,,,,,,CAVOK,,,,,,,,VFR,,,,,,,,,,,,METAR,1278.0
OIBQ 180700Z 35012KT 5000 BR BKN020 17/15 Q1024,OIBQ,2014-12-18T07:00:00Z,29.27,50.32,17.0,15.0,350,12,,3.11,30.236221,,,,,,,,,,BR,BKN,2000,,,,,,,MVFR,,,,,,,,,,,,METAR,6.0
OIBL 180700Z 10008KT CAVOK 22/14 Q1020,OIBL,2014-12-18T07:00:00Z,26.53,54.82,22.0,14.0,100,8,,6.21,30.11811,,,,,,,,,,,CAVOK,,,,,,,,VFR,,,,,,,,,,,,METAR,14.0
FVHA 180700Z 03008KT 9999 FEW010 BKN090 23/17 Q1022 NOSIG,FVHA,2014-12-18T07:00:00Z,-17.92,31.12,23.0,17.0,30,8,,6.21,30.177166,,,,,,TRUE,,,,,FEW,1000,BKN,9000,,,,,VFR,,,,,,,,,,,,METAR,1503.0
FVBU 180700Z 04009KT 9999 BKN015 SCT120 BKN300 22/18 Q1019 BECMG SCT020,FVBU,2014-12-18T07:00:00Z,-20.02,28.62,22.0,18.0,40,9,,6.21,30.088583,,,,,,,,,,,BKN,1500,SCT,12000,BKN,30000,,,MVFR,,,,,,,,,,,,METAR,1326.0
UKDE 180700Z 32001MPS 0100 R20/0250N FG VV001 07/07 Q1012 20290350 NOSIG,UKDE,2014-12-18T07:00:00Z,47.87,35.32,7.0,7.0,320,2,,0.06,29.88189,,,,,,TRUE,,,,FG,OVX,0,,,,,,,LIFR,,,29.0,,,,,,,,100,METAR,113.0
FXMM 180700Z 00000KT 9999 BKN030 19/14 Q1022 NOSIG,FXMM,2014-12-18T07:00:00Z,-29.47,27.55,19.0,14.0,0,0,,6.21,30.177166,,,,,,TRUE,,,,,BKN,3000,,,,,,,MVFR,,,,,,,,,,,,METAR,1631.0
OJAM 180700Z 35005KT 4000 NSC 08/05 Q1023 NOSIG,OJAM,2014-12-18T07:00:00Z,31.97,35.97,8.0,5.0,350,5,,2.49,30.206694,,,,,,TRUE,,,,,,,,,,,,,,,,,,,,,,,,,METAR,773.0
OJAQ 180700Z 00000KT CAVOK 15/07 Q1020 NOSIG,OJAQ,2014-12-18T07:00:00Z,29.62,35.02,15.0,7.0,0,0,,6.21,30.11811,,,,,,TRUE,,,,,CAVOK,,,,,,,,VFR,,,,,,,,,,,,METAR,51.0
OJAI 180700Z 07004KT 7000 NSC 10/06 Q1022 NOSIG,OJAI,2014-12-18T07:00:00Z,31.72,36.0,10.0,6.0,70,4,,4.35,30.177166,,,,,,TRUE,,,,,,,,,,,,,,,,,,,,,,,,,METAR,730.0
RPLI 180700Z 07014KT 9999 FEW019 29/17 Q1013 NOSIG RMK A2991,RPLI,2014-12-18T07:00:00Z,18.17,120.52,29.0,17.0,70,14,,6.21,29.911417,,,,,,TRUE,,,,,FEW,1900,,,,,,,VFR,,,,,,,,,,,,METAR,5.0
NGTT 180700Z 11006KT 9999 FEW020 29/23 Q1007,NGTT,2014-12-18T07:00:00Z,1.35,172.92,29.0,23.0,110,6,,6.21,29.734253,,,,,,,,,,,FEW,2000,,,,,,,VFR,,,,,,,,,,,,METAR,2.0
FAVV 180700Z AUTO 31003KT //// // ////// 21/13 Q1024,FAVV,2014-12-18T07:00:00Z,-26.57,27.97,21.0,13.0,310,3,,,30.236221,,,TRUE,,,,,,,,,,,,,,,,,,,,,,,,,,,,METAR,1483.0
FASI 180700Z AUTO /////KT //// // ////// 19/15 Q1021,FASI,2014-12-18T07:00:00Z,-26.25,28.4,19.0,15.0,,,,,30.147638,,,TRUE,,,,,,,,,,,,,,,,,,,,,,,,,,,,METAR,1628.0
FAJB 180700Z AUTO 01001KT //// // ////// 21/13 Q1021,FAJB,2014-12-18T07:00:00Z,-26.15,28.0,21.0,13.0,10,1,,,30.147638,,,TRUE,,,,,,,,,,,,,,,,,,,,,,,,,,,,METAR,1626.0
FAKM 180700Z 34006KT CAVOK 27/13 Q1017,FAKM,2014-12-18T07:00:00Z,-28.8,24.77,27.0,13.0,340,6,,6.21,30.029528,,,,,,,,,,,CAVOK,,,,,,,,VFR,,,,,,,,,,,,METAR,1192.0
DTTR 180700Z /////KT CAVOK 06/06 Q1024,DTTR,2014-12-18T07:00:00Z,31.7,9.27,6.0,6.0,,,,6.21,30.236221,,,,,,,,,,,CAVOK,,,,,,,,VFR,,,,,,,,,,,,METAR,259.0
SLVR 180700Z 17010KT 4000 -RA SCT006 BKN015 OVC070 21/21 Q1011,SLVR,2014-12-18T07:00:00Z,-17.63,-63.12,21.0,21.0,170,10,,2.49,29.852362,,,,,,,,,,-RA,SCT,600,BKN,1500,OVC,7000,,,IFR,,,,,,,,,,,,METAR,373.0
SLLP 180700Z VRB02KT 9999 FEW009 BKN200 05/04 Q1033,SLLP,2014-12-18T07:00:00Z,-16.52,-68.17,5.0,4.0,0,2,,6.21,30.501968,,,,,,,,,,,FEW,900,BKN,20000,,,,,VFR,,,,,,,,,,,,METAR,4014.0
SLCB 180700Z 00000KT 9999 FEW027 FEW030CB BKN070 15/12 Q1021,SLCB,2014-12-18T07:00:00Z,-17.42,-66.18,15.0,12.0,0,0,,6.21,30.147638,,,,,,,,,,,FEW,2700,FEW,3000,BKN,7000,,,VFR,,,,,,,,,,,,METAR,2548.0
SGES 180700Z 00000KT CAVOK 19/18 Q1010,SGES,2014-12-18T07:00:00Z,-25.45,-54.85,19.0,18.0,0,0,,6.21,29.822834,,,,,,,,,,,CAVOK,,,,,,,,VFR,,,,,,,,,,,,METAR,849.0
SGAS 180700Z 00000KT 9000 SCT020 BKN030 22/22 Q1009,SGAS,2014-12-18T07:00:00Z,-25.25,-57.52,22.0,22.0,0,0,,5.59,29.793306,,,,,,,,,,,SCT,2000,BKN,3000,,,,,MVFR,,,,,,,,,,,,METAR,101.0
RPVM 180700Z 02011KT 9999 FEW020 BKN300 30/23 Q1011 RMK A2985,RPVM,2014-12-18T07:00:00Z,10.32,123.98,30.0,23.0,20,11,,6.21,29.852362,,,,,,,,,,,FEW,2000,BKN,30000,,,,,VFR,,,,,,,,,,,,METAR,10.0
RPMD 180700Z 01009KT 3600 HZ SCT016 BKN090 OVC290 27/24 Q1009 RMK A2980,RPMD,2014-12-18T07:00:00Z,7.12,125.65,27.0,24.0,10,9,,2.24,29.793306,,,,,,,,,,HZ,SCT,1600,BKN,9000,OVC,29000,,,IFR,,,,,,,,,,,,METAR,18.0
RPLL 180700Z 09013KT 060V130 9999 SCT025 BKN300 30/19 Q1013 NOSIG RMK A2991,RPLL,2014-12-18T07:00:00Z,14.52,121.0,30.0,19.0,90,13,,6.21,29.911417,,,,,,TRUE,,,,,SCT,2500,BKN,30000,,,,,VFR,,,,,,,,,,,,METAR,21.0
RPLB 180700Z 07020KT 9999 FEW020 BKN300 28/18 Q1012 NOSIG RMK A2988,RPLB,2014-12-18T07:00:00Z,14.8,120.27,28.0,18.0,70,20,,6.21,29.88189,,,,,,TRUE,,,,,FEW,2000,BKN,30000,,,,,VFR,,,,,,,,,,,,METAR,17.0
LEBA 180700Z 05005KT 0050 R21/0650N FG VV001 05/05 Q1028,LEBA,2014-12-18T07:00:00Z,37.85,-4.82,5.0,5.0,50,5,,0.03,30.35433,,,,,,,,,,FG,OVX,0,,,,,,,LIFR,,,,,,,,,,,100,METAR,92.0
LEBG 180700Z 09001KT 9999 FEW018 01/01 Q1029,LEBG,2014-12-18T07:00:00Z,42.37,-3.62,1.0,1.0,90,1,,6.21,30.383858,,,,,,,,,,,FEW,1800,,,,,,,VFR,,,,,,,,,,,,METAR,891.0
LELO 180700Z 26005KT 9999 SCT030 08/05 Q1029,LELO,2014-12-18T07:00:00Z,42.45,-2.32,8.0,5.0,260,5,,6.21,30.383858,,,,,,,,,,,SCT,3000,,,,,,,VFR,,,,,,,,,,,,METAR,363.0
LEEC 180700Z 03006KT 0500 FG VV001 07/07 Q1027,LEEC,2014-12-18T07:00:00Z,37.32,-6.0,7.0,7.0,30,6,,0.31,30.324802,,,,,,,,,,FG,OVX,0,,,,,,,LIFR,,,,,,,,,,,100,METAR,7.0
LECV 180700Z 27003KT 9999 FEW085 05/03 Q1027,LECV,2014-12-18T07:00:00Z,40.63,-3.72,5.0,3.0,270,3,,6.21,30.324802,,,,,,,,,,,FEW,8500,,,,,,,VFR,,,,,,,,,,,,METAR,710.0
LEBT 180700Z AUTO 00000KT CAVOK 06/04 Q1024,LEBT,2014-12-18T07:00:00Z,39.58,-0.45,6.0,4.0,0,0,,6.21,30.236221,,,TRUE,,,,,,,,CAVOK,,,,,,,,VFR,,,,,,,,,,,,METAR,50.0
LEAO 180700Z VRB01KT 0200 FZFG NSC M00/M00 Q1028,LEAO,2014-12-18T07:00:00Z,38.95,-3.73,0.0,0.0,0,1,,0.12,30.35433,,,,,,,,,,FZFG,,,,,,,,,,,,,,,,,,,,,METAR,629.0
SBBE 180700Z 08002KT CAVOK 24/22 Q1009,SBBE,2014-12-18T07:00:00Z,-1.37,-48.47,24.0,22.0,80,2,,6.21,29.793306,,,,,,,,,,,CAVOK,,,,,,,,VFR,,,,,,,,,,,,SPECI,16.0
RPMZ 180700Z 02004KT 9999 FEW018CB SCT300 32/26 Q1010 RMK A2983 CB W AND NW,RPMZ,2014-12-18T07:00:00Z,6.92,122.07,32.0,26.0,20,4,,6.21,29.822834,,,,,,,,,,,FEW,1800,SCT,30000,,,,,VFR,,,,,,,,,,,,METAR,6.0
FAUT 180700Z AUTO /////KT //// // ////// ///// Q////,FAUT,2014-12-18T07:00:00Z,-31.52,28.67,,,,,,,,,,TRUE,,,,,,,,,,,,,,,,,,,,,,,,,,,,METAR,732.0
YBDV 180700Z AUTO 35005KT //// // ////// 29/20 Q1011,YBDV,2014-12-18T07:00:00Z,-25.9,139.35,29.0,20.0,350,5,,,29.852362,,,TRUE,,,,,,,,,,,,,,,,,,,,,,,,,,,,METAR,47.0
YBCV 180700Z AUTO 22010KT 9999 // SCT034 BKN050 OVC100 24/17 Q1012,YBCV,2014-12-18T07:00:00Z,-26.38,146.27,24.0,17.0,220,10,,6.21,29.88189,,,TRUE,,,,,,,,SCT,3400,BKN,5000,OVC,10000,,,VFR,,,,,,,,,,,,METAR,304.0
YAYE 180700Z AUTO 19007KT 140V220 9999 // SCT072 34/17 Q1011,YAYE,2014-12-18T07:00:00Z,-25.18,130.98,34.0,17.0,190,7,,6.21,29.852362,,,TRUE,,,,,,,,SCT,7200,,,,,,,VFR,,,,,,,,,,,,METAR,496.0
YABA 180700Z 14011KT CAVOK 21/11 Q1017,YABA,2014-12-18T07:00:00Z,-34.93,117.8,21.0,11.0,140,11,,6.21,30.029528,,,,,,,,,,,CAVOK,,,,,,,,VFR,,,,,,,,,,,,METAR,69.0
FMSD 180700Z 12008KT 9999 SCT016 BKN100 26/23 Q1011,FMSD,2014-12-18T07:00:00Z,-25.02,46.95,26.0,23.0,120,8,,6.21,29.852362,,,,,,,,,,,SCT,1600,BKN,10000,,,,,VFR,,,,,,,,,,,,METAR,9.0
FMNM 180700Z 20004KT 9999 SCT020CB BKN100 27/24 Q1012 TEMPO TS,FMNM,2014-12-18T07:00:00Z,-15.67,46.35,27.0,24.0,200,4,,6.21,29.88189,,,,,,,,,,,SCT,2000,BKN,10000,,,,,VFR,,,,,,,,,,,,METAR,18.0
FMMT 180700Z 08004KT 9999 FEW017 BKN100 30/24 Q1011 NOSIG,FMMT,2014-12-18T07:00:00Z,-18.12,49.38,30.0,24.0,80,4,,6.21,29.852362,,,,,,TRUE,,,,,FEW,1700,BKN,10000,,,,,VFR,,,,,,,,,,,,METAR,6.0
FMCH 180700Z 32011KT 9999 FEW022 31/26 Q1013 NOSIG,FMCH,2014-12-18T07:00:00Z,-11.52,43.27,31.0,26.0,320,11,,6.21,29.911417,,,,,,TRUE,,,,,FEW,2200,,,,,,,VFR,,,,,,,,,,,,METAR,29.0
SBFI 180700Z 01002KT CAVOK 19/19 Q1010,SBFI,2014-12-18T07:00:00Z,-25.6,-54.48,19.0,19.0,10,2,,6.21,29.822834,,,,,,,,,,,CAVOK,,,,,,,,VFR,,,,,,,,,,,,METAR,243.0
GBYD 180700Z 04005KT CAVOK 19/05 Q1011,GBYD,2014-12-18T07:00:00Z,13.33,-16.65,19.0,5.0,40,5,,6.21,29.852362,,,,,,,,,,,CAVOK,,,,,,,,VFR,,,,,,,,,,,,METAR,36.0
ORNI 180700Z 28005KT 6000 NSC 14/10 Q1026 NOSIG,ORNI,2014-12-18T07:00:00Z,31.98,44.4,14.0,10.0,280,5,,3.73,30.295275,,,,,,TRUE,,,,,,,,,,,,,,,,,,,,,,,,,METAR,53.0
SULS 180700Z 23009KT CAVOK 19/16 Q1009,SULS,2014-12-18T07:00:00Z,-34.87,-55.1,19.0,16.0,230,9,,6.21,29.793306,,,,,,,,,,,CAVOK,,,,,,,,VFR,,,,,,,,,,,,METAR,30.0
OIZI 180700Z 27004KT CAVOK 19/M04 Q1022,OIZI,2014-12-18T07:00:00Z,27.23,60.72,19.0,-4.0,270,4,,6.21,30.177166,,,,,,,,,,,CAVOK,,,,,,,,VFR,,,,,,,,,,,,METAR,591.0
OIZB 180700Z 30010KT CAVOK 14/M01 Q1022,OIZB,2014-12-18T07:00:00Z,31.1,61.55,14.0,-1.0,300,10,,6.21,30.177166,,,,,,,,,,,CAVOK,,,,,,,,VFR,,,,,,,,,,,,METAR,489.0
OING 180700Z 09008KT CAVOK 12/07 Q1026,OING,2014-12-18T07:00:00Z,36.9,54.4,12.0,7.0,90,8,,6.21,30.295275,,,,,,,,,,,CAVOK,,,,,,,,VFR,,,,,,,,,,,,METAR,155.0
OIBS 180700Z 31016KT CAVOK 25/14 Q1020,OIBS,2014-12-18T07:00:00Z,25.9,54.55,25.0,14.0,310,16,,6.21,30.11811,,,,,,,,,,,CAVOK,,,,,,,,VFR,,,,,,,,,,,,METAR,14.0
OIBJ 180700Z 36004KT CAVOK 17/11 Q1024,OIBJ,2014-12-18T07:00:00Z,27.82,52.35,17.0,11.0,360,4,,6.21,30.236221,,,,,,,,,,,CAVOK,,,,,,,,VFR,,,,,,,,,,,,METAR,663.0
OITZ 180700Z 14004KT CAVOK 02/M02 Q1024,OITZ,2014-12-18T07:00:00Z,36.77,48.37,2.0,-2.0,140,4,,6.21,30.236221,,,,,,,,,,,CAVOK,,,,,,,,VFR,,,,,,,,,,,,METAR,1663.0
OISY 180700Z 00000KT 8000 SKC 04/M01 Q1027,OISY,2014-12-18T07:00:00Z,30.7,51.55,4.0,-1.0,0,0,,4.97,30.324802,,,,,,,,,,,SKC,,,,,,,,MVFR,,,,,,,,,,,,METAR,1811.0
OISL 180700Z 00000KT CAVOK 17/08 Q1022,OISL,2014-12-18T07:00:00Z,27.67,54.37,17.0,8.0,0,0,,6.21,30.177166,,,,,,,,,,,CAVOK,,,,,,,,VFR,,,,,,,,,,,,METAR,805.0
OINR 180700Z 11004KT 9999 FEW020TCU FEW200 12/07 Q1022,OINR,2014-12-18T07:00:00Z,36.88,50.67,12.0,7.0,110,4,,6.21,30.177166,,,,,,,,,,,FEW,2000,FEW,20000,,,,,VFR,,,,,,,,,,,,METAR,-20.0
OINN 180700Z 09006KT CAVOK 12/07 Q1022,OINN,2014-12-18T07:00:00Z,36.67,51.47,12.0,7.0,90,6,,6.21,30.177166,,,,,,,,,,,CAVOK,,,,,,,,VFR,,,,,,,,,,,,METAR,-19.0
OIKQ 180700Z 09010KT CAVOK 23/18 Q1020,OIKQ,2014-12-18T07:00:00Z,26.75,55.9,23.0,18.0,90,10,,6.21,30.11811,,,,,,,,,,,CAVOK,,,,,,,,VFR,,,,,,,,,,,,METAR,12.0
OICI 180700Z 13004KT CAVOK 09/01 Q1025 A3029,OICI,2014-12-18T07:00:00Z,33.58,46.4,9.0,1.0,130,4,,6.21,30.265747,,,,,,,,,,,CAVOK,,,,,,,,VFR,,,,,,,,,,,,METAR,1343.0
OIAM 180700Z 31008KT 2000 BR SKC 13/11 Q1024,OIAM,2014-12-18T07:00:00Z,30.55,49.15,13.0,11.0,310,8,,1.24,30.236221,,,,,,,,,,BR,SKC,,,,,,,,IFR,,,,,,,,,,,,METAR,4.0
OIAG 180700Z 29002KT 2000 BR SCT030 14/13 Q1025,OIAG,2014-12-18T07:00:00Z,30.77,49.67,14.0,13.0,290,2,,1.24,30.265747,,,,,,,,,,BR,SCT,3000,,,,,,,IFR,,,,,,,,,,,,METAR,29.0
LFQQ 180700Z 24013KT 4000 -DZ OVC006 12/11 Q1012 TEMPO 1500 OVC003,LFQQ,2014-12-18T07:00:00Z,50.57,3.1,12.0,11.0,240,13,,2.49,29.88189,,,,,,,,,,-DZ,OVC,600,,,,,,,IFR,,,,,,,,,,,,SPECI,52.0
OIIE 180700Z 30010KT CAVOK 06/M03 Q1025 NOSIG,OIIE,2014-12-18T07:00:00Z,35.42,51.15,6.0,-3.0,300,10,,6.21,30.265747,,,,,,TRUE,,,,,CAVOK,,,,,,,,VFR,,,,,,,,,,,,METAR,1008.0
OIBK 180700Z 30010G20KT CAVOK 24/12 Q1019,OIBK,2014-12-18T07:00:00Z,26.53,53.98,24.0,12.0,300,10,20,6.21,30.088583,,,,,,,,,,,CAVOK,,,,,,,,VFR,,,,,,,,,,,,METAR,30.0
LFMC 180700Z VRB02KT CAVOK 06/05 Q1018,LFMC,2014-12-18T07:00:00Z,43.37,6.37,6.0,5.0,0,2,,6.21,30.059055,,,,,,,,,,,CAVOK,,,,,,,,VFR,,,,,,,,,,,,METAR,78.0
OIKK 180700Z 00000KT 9999 SCT030 BKN035 05/01 Q1027 A3035,OIKK,2014-12-18T07:00:00Z,30.25,56.97,5.0,1.0,0,0,,6.21,30.324802,,,,,,,,,,,SCT,3000,BKN,3500,,,,,VFR,,,,,,,,,,,,METAR,1754.0
OITL 180700Z 31008KT CAVOK 02/M01 Q1022,OITL,2014-12-18T07:00:00Z,38.33,48.42,2.0,-1.0,310,8,,6.21,30.177166,,,,,,,,,,,CAVOK,,,,,,,,VFR,,,,,,,,,,,,METAR,1316.0
OISR 180700Z 29004KT CAVOK 19/10 Q1022,OISR,2014-12-18T07:00:00Z,27.37,53.2,19.0,10.0,290,4,,6.21,30.177166,,,,,,,,,,,CAVOK,,,,,,,,VFR,,,,,,,,,,,,METAR,408.0
OINZ 180700Z 02004KT CAVOK 10/09 Q1023,OINZ,2014-12-18T07:00:00Z,36.63,53.2,10.0,9.0,20,4,,6.21,30.206694,,,,,,,,,,,CAVOK,,,,,,,,VFR,,,,,,,,,,,,METAR,11.0
OIHH 180700Z 00000KT CAVOK 03/M03 Q1025,OIHH,2014-12-18T07:00:00Z,34.87,48.55,3.0,-3.0,0,0,,6.21,30.265747,,,,,,,,,,,CAVOK,,,,,,,,VFR,,,,,,,,,,,,METAR,1757.0
OICK 180700Z 33004KT CAVOK 07/02 Q1026,OICK,2014-12-18T07:00:00Z,33.43,48.28,7.0,2.0,330,4,,6.21,30.295275,,,,,,,,,,,CAVOK,,,,,,,,VFR,,,,,,,,,,,,METAR,1155.0
OIBB 180700Z 03008KT 2500 BR BKN020 15/13 Q1023 A3022,OIBB,2014-12-18T07:00:00Z,28.97,50.82,15.0,13.0,30,8,,1.55,30.206694,,,,,,,,,,BR,BKN,2000,,,,,,,IFR,,,,,,,,,,,,METAR,19.0
NVVV 180700Z 03002KT 9999 SCT020 29/25 Q1010 RMK NIL,NVVV,2014-12-18T07:00:00Z,-17.68,168.3,29.0,25.0,30,2,,6.21,29.822834,,,,,,,,,,,SCT,2000,,,,,,,VFR,,,,,,,,,,,,SPECI,21.0
NVSS 180700Z 24003KT 9999 FEW020 FEW025CB BKN110 26/24 Q1010 RMK NIL,NVSS,2014-12-18T07:00:00Z,-15.52,167.22,26.0,24.0,240,3,,6.21,29.822834,,,,,,,,,,,FEW,2000,FEW,2500,BKN,11000,,,VFR,,,,,,,,,,,,SPECI,44.0
GQPP 180700Z 02015KT 7000 NSC 16/09 Q1019 NOSIG,GQPP,2014-12-18T07:00:00Z,20.92,-17.02,16.0,9.0,20,15,,4.35,30.088583,,,,,,TRUE,,,,,,,,,,,,,,,,,,,,,,,,,METAR,3.0
SBMA 180700Z 15005KT CAVOK 24/24 Q1010,SBMA,2014-12-18T07:00:00Z,-5.37,-49.13,24.0,24.0,150,5,,6.21,29.822834,,,,,,,,,,,CAVOK,,,,,,,,VFR,,,,,,,,,,,,METAR,102.0
HUEN 180700Z 27004KT 8000 FEW020 FEW022CB SCT150 24/20 1019,HUEN,2014-12-18T07:00:00Z,0.03,32.45,24.0,20.0,270,4,,4.97,,,,,,,,,,,,FEW,2000,FEW,2200,SCT,15000,,,MVFR,,,,,,,,,,,,METAR,1155.0
YMOR 180700Z AUTO /////KT 9999 // BKN095 OVC105 30/M05 Q1008,YMOR,2014-12-18T07:00:00Z,-29.5,149.85,30.0,-5.0,,,,6.21,29.763779,,,TRUE,,,,,,,,BKN,9500,OVC,10500,,,,,VFR,,,,,,,,,,,,METAR,214.0
YMER 180700Z AUTO 05010KT 9999 // NCD 22/18 Q1004,YMER,2014-12-18T07:00:00Z,-36.92,149.9,22.0,18.0,50,10,,6.21,29.64567,,,TRUE,,,,,,,,,,,,,,,,,,,,,,,,,,,,METAR,2.0
YMEN 180700Z AUTO 25011KT 9999 -SHRA SCT001 SCT005 SCT008 16/12 Q1009,YMEN,2014-12-18T07:00:00Z,-37.72,144.9,16.0,12.0,250,11,,6.21,29.793306,,,TRUE,,,,,,,-SHRA,SCT,100,SCT,500,SCT,800,,,VFR,,,,,,,,,,,,METAR,86.0
YMEK 180700Z 08010KT CAVOK 39/04 Q1009,YMEK,2014-12-18T07:00:00Z,-26.62,118.55,39.0,4.0,80,10,,6.21,29.793306,,,,,,,,,,,CAVOK,,,,,,,,VFR,,,,,,,,,,,,METAR,522.0
YMDG 180700Z AUTO 29013KT //// // NCD 30/02 Q1006,YMDG,2014-12-18T07:00:00Z,-32.57,149.62,30.0,2.0,290,13,,,29.704725,,,TRUE,,,,,,,,,,,,,,,,,,,,,,,,,,,,METAR,471.0
FBSK 180700Z 07008KT 9999 DZ FEW009 OVC012 21/18 Q1018 NOSIG,FBSK,2014-12-18T07:00:00Z,-24.55,25.92,21.0,18.0,70,8,,6.21,30.059055,,,,,,TRUE,,,,DZ,FEW,900,OVC,1200,,,,,MVFR,,,,,,,,,,,,METAR,1005.0
BIRK 180700Z 00000KT 9999 -SHSN SCT019 BKN026 M01/M02 Q0964 RESHSN R19/490248,BIRK,2014-12-18T07:00:00Z,64.13,-21.93,-1.0,-2.0,0,0,,6.21,28.464567,,,,,,,,,,-SHSN,SCT,1900,BKN,2600,,,,,MVFR,,,,,,,,,,,,METAR,61.0
BIEG 180700Z 17009KT 9999 FEW049 BKN080 OVC096 M03/M09 Q0966 R04/720095,BIEG,2014-12-18T07:00:00Z,65.27,-14.4,-3.0,-9.0,170,9,,6.21,28.523623,,,,,,,,,,,FEW,4900,BKN,8000,OVC,9600,,,VFR,,,,,,,,,,,,METAR,38.0
BIAR 180700Z 22004KT 9999 BKN056 M03/M07 Q0965,BIAR,2014-12-18T07:00:00Z,65.67,-18.07,-3.0,-7.0,220,4,,6.21,28.494095,,,,,,,,,,,BKN,5600,,,,,,,VFR,,,,,,,,,,,,METAR,27.0
LQTZ 180700Z VRB01KT 0350 R09///// R27/0700N FG SCT002 OVC050 05/05 Q1017,LQTZ,2014-12-18T07:00:00Z,44.47,18.73,5.0,5.0,0,1,,0.22,30.029528,,,,,,,,,,FG,SCT,200,OVC,5000,,,,,LIFR,,,,,,,,,,,,METAR,306.0
SBKP 180700Z 13010KT CAVOK 20/17 Q1011,SBKP,2014-12-18T07:00:00Z,-23.0,-47.12,20.0,17.0,130,10,,6.21,29.852362,,,,,,,,,,,CAVOK,,,,,,,,VFR,,,,,,,,,,,,METAR,661.0
SBCT 180700Z 03004KT 8000 3000NE FEW001 SCT004 17/16 Q1014,SBCT,2014-12-18T07:00:00Z,-25.52,-49.17,17.0,16.0,30,4,,4.97,29.940945,,,,,,,,,,,FEW,100,SCT,400,,,,,MVFR,,,,,,,,,,,,METAR,908.0
NGFU 180700Z VRB02KT 9999 FEW019TCU SCT310 29/25 Q1009,NGFU,2014-12-18T07:00:00Z,-8.52,179.22,29.0,25.0,0,2,,6.21,29.793306,,,,,,,,,,,FEW,1900,SCT,31000,,,,,VFR,,,,,,,,,,,,METAR,1.0
UBBY 180700Z VRB02KT 9999 OVC027 06/01 Q1024 R33/////// NOSIG RMK MT OBSC,UBBY,2014-12-18T07:00:00Z,41.57,46.67,6.0,1.0,0,2,,6.21,30.236221,,,,,,TRUE,,,,,OVC,2700,,,,,,,MVFR,,,,,,,,,,,,METAR,390.0
OMSJ 180700Z 29010KT 9999 FEW040 25/14 Q1021,OMSJ,2014-12-18T07:00:00Z,25.32,55.52,25.0,14.0,290,10,,6.21,30.147638,,,,,,,,,,,FEW,4000,,,,,,,VFR,,,,,,,,,,,,METAR,33.0
OMRK 180700Z 33003KT 9999 FEW040 25/17 Q1020 A3015,OMRK,2014-12-18T07:00:00Z,25.62,55.92,25.0,17.0,330,3,,6.21,30.11811,,,,,,,,,,,FEW,4000,,,,,,,VFR,,,,,,,,,,,,METAR,31.0
OMFJ 180700Z 28012KT 250V320 7000 FEW020 26/14 Q1020 A3013,OMFJ,2014-12-18T07:00:00Z,25.1,56.32,26.0,14.0,280,12,,4.35,30.11811,,,,,,,,,,,FEW,2000,,,,,,,MVFR,,,,,,,,,,,,METAR,28.0
OMDW 180700Z 30016KT 9999 FEW030 24/12 Q1022 NOSIG,OMDW,2014-12-18T07:00:00Z,24.9,55.17,24.0,12.0,300,16,,6.21,30.177166,,,,,,TRUE,,,,,FEW,3000,,,,,,,VFR,,,,,,,,,,,,METAR,25.0
OMDB 180700Z 28012KT 240V300 9999 FEW040 25/14 Q1021 NOSIG,OMDB,2014-12-18T07:00:00Z,25.25,55.37,25.0,14.0,280,12,,6.21,30.147638,,,,,,TRUE,,,,,FEW,4000,,,,,,,VFR,,,,,,,,,,,,METAR,5.0
OMAL 180700Z 35013KT 9999 SCT021 23/16 Q1022 A3019 NOSIG,OMAL,2014-12-18T07:00:00Z,24.25,55.6,23.0,16.0,350,13,,6.21,30.177166,,,,,,TRUE,,,,,SCT,2100,,,,,,,VFR,,,,,,,,,,,,METAR,262.0
OMAD 180700Z 33012KT 9999 FEW030 25/16 Q1021 A3017 NOSIG,OMAD,2014-12-18T07:00:00Z,24.42,54.47,25.0,16.0,330,12,,6.21,30.147638,,,,,,TRUE,,,,,FEW,3000,,,,,,,VFR,,,,,,,,,,,,METAR,3.0
OMAA 180700Z 32014KT 9999 FEW028 24/16 Q1021 A3015 NOSIG,OMAA,2014-12-18T07:00:00Z,24.42,54.63,24.0,16.0,320,14,,6.21,30.147638,,,,,,TRUE,,,,,FEW,2800,,,,,,,VFR,,,,,,,,,,,,METAR,27.0
GMTA 180700Z 18004KT CAVOK 12/03 Q1025 NOSIG,GMTA,2014-12-18T07:00:00Z,35.17,-3.85,12.0,3.0,180,4,,6.21,30.265747,,,,,,TRUE,,,,,CAVOK,,,,,,,,VFR,,,,,,,,,,,,METAR,14.0
GMMZ 180700Z 00000KT CAVOK 03/01 Q1027 NOSIG,GMMZ,2014-12-18T07:00:00Z,30.92,-6.9,3.0,1.0,0,0,,6.21,30.324802,,,,,,TRUE,,,,,CAVOK,,,,,,,,VFR,,,,,,,,,,,,METAR,1140.0
GMMW 180700Z 18004KT CAVOK 04/03 Q1025 NOSIG,GMMW,2014-12-18T07:00:00Z,34.98,-3.02,4.0,3.0,180,4,,6.21,30.265747,,,,,,TRUE,,,,,CAVOK,,,,,,,,VFR,,,,,,,,,,,,METAR,175.0
GMML 180700Z 08005KT 8000 FEW020 13/12 Q1023 NOSIG,GMML,2014-12-18T07:00:00Z,27.13,-13.23,13.0,12.0,80,5,,4.97,30.206694,,,,,,TRUE,,,,,FEW,2000,,,,,,,MVFR,,,,,,,,,,,,METAR,6.0
GMMI 180700Z AUTO 07004KT //// NCD 13/09 Q1024 NOSIG,GMMI,2014-12-18T07:00:00Z,31.4,-9.68,13.0,9.0,70,4,,,30.236221,,,TRUE,,,TRUE,,,,,,,,,,,,,,,,,,,,,,,,,METAR,8.0
GMMH 180700Z 03016KT CAVOK 16/13 Q1021 NOSIG,GMMH,2014-12-18T07:00:00Z,23.72,-15.93,16.0,13.0,30,16,,6.21,30.147638,,,,,,TRUE,,,,,CAVOK,,,,,,,,VFR,,,,,,,,,,,,METAR,11.0
GMMB 180700Z AUTO 09004KT //// NCD 10/10 Q1027,GMMB,2014-12-18T07:00:00Z,33.65,-7.63,10.0,10.0,90,4,,,30.324802,,,TRUE,,,,,,,,,,,,,,,,,,,,,,,,,,,,METAR,191.0
GMFO 180700Z 21003KT 180V250 9999 FEW020 07/06 Q1025 NOSIG,GMFO,2014-12-18T07:00:00Z,34.77,-1.92,7.0,6.0,210,3,,6.21,30.265747,,,,,,TRUE,,,,,FEW,2000,,,,,,,VFR,,,,,,,,,,,,METAR,470.0
GMFM 180700Z 14002KT CAVOK 04/04 Q1026 NOSIG,GMFM,2014-12-18T07:00:00Z,33.87,-5.52,4.0,4.0,140,2,,6.21,30.295275,,,,,,TRUE,,,,,CAVOK,,,,,,,,VFR,,,,,,,,,,,,METAR,549.0
GMFK 180700Z 27003KT CAVOK 05/03 Q1028 NOSIG,GMFK,2014-12-18T07:00:00Z,31.95,-4.4,5.0,3.0,270,3,,6.21,30.35433,,,,,,TRUE,,,,,CAVOK,,,,,,,,VFR,,,,,,,,,,,,METAR,1045.0
GMAG 180700Z 10010KT CAVOK 09/06 Q1025 NOSIG,GMAG,2014-12-18T07:00:00Z,29.03,-10.05,9.0,6.0,100,10,,6.21,30.265747,,,,,,TRUE,,,,,CAVOK,,,,,,,,VFR,,,,,,,,,,,,METAR,333.0
TGPY 180700Z 00000KT 9999 FEW017 25/24 Q1012,TGPY,2014-12-18T07:00:00Z,12.0,-61.78,25.0,24.0,0,0,,6.21,29.88189,,,,,,,,,,,FEW,1700,,,,,,,VFR,,,,,,,,,,,,METAR,7.0
MKJP 180700Z 34005KT 9999 FEW024 25/23 Q1014,MKJP,2014-12-18T07:00:00Z,17.92,-76.78,25.0,23.0,340,5,,6.21,29.940945,,,,,,,,,,,FEW,2400,,,,,,,VFR,,,,,,,,,,,,METAR,3.0
UBBQ 180700Z 29006KT 9999 OVC017 06/02 Q1022 R34/CLRD70 NOSIG RMK MT OBSC,UBBQ,2014-12-18T07:00:00Z,40.82,47.72,6.0,2.0,290,6,,6.21,30.177166,,,,,,TRUE,,,,,OVC,1700,,,,,,,MVFR,,,,,,,,,,,,METAR,338.0
TAPA 180700Z 03010KT 9999 FEW018 23/20 Q1014 NOSIG,TAPA,2014-12-18T07:00:00Z,17.12,-61.78,23.0,20.0,30,10,,6.21,29.940945,,,,,,TRUE,,,,,FEW,1800,,,,,,,VFR,,,,,,,,,,,,METAR,14.0
SBJP 180700Z 10004KT 070V130 9999 BKN019 25/21 Q1012,SBJP,2014-12-18T07:00:00Z,-7.15,-34.95,25.0,21.0,100,4,,6.21,29.88189,,,,,,,,,,,BKN,1900,,,,,,,MVFR,,,,,,,,,,,,METAR,7.0
MMPB 180700Z RTD 31003KT 7SM BKN230 08/06 A3037 RMK 8/008,MMPB,2014-12-18T07:00:00Z,19.17,-98.37,8.0,6.0,310,3,,7.0,30.369095,,,,,,,,,,,BKN,23000,,,,,,,VFR,,,,,,,,,,,,METAR,2244.0
YCCY 180700Z AUTO 17015KT //// // ////// 32/17 Q1009,YCCY,2014-12-18T07:00:00Z,-20.67,140.5,32.0,17.0,170,15,,,29.793306,,,TRUE,,,,,,,,,,,,,,,,,,,,,,,,,,,,METAR,570.0
YCBP 180700Z AUTO 19011KT 140V200 //// // NCD 36/05 Q1010,YCBP,2014-12-18T07:00:00Z,-29.03,134.72,36.0,5.0,190,11,,,29.822834,,,TRUE,,,,,,,,,,,,,,,,,,,,,,,,,,,,METAR,226.0
YCBB 180700Z AUTO 26015KT //// // ////// 25/02 Q1009,YCBB,2014-12-18T07:00:00Z,-31.33,149.27,25.0,2.0,260,15,,,29.793306,,,TRUE,,,,,,,,,,,,,,,,,,,,,,,,,,,,METAR,645.0
YCAR 180700Z 21015KT CAVOK 28/17 Q1008,YCAR,2014-12-18T07:00:00Z,-24.88,113.67,28.0,17.0,210,15,,6.21,29.763779,,,,,,,,,,,CAVOK,,,,,,,,VFR,,,,,,,,,,,,METAR,8.0
YBWX 180700Z AUTO 27017KT //// // ////// 30/20 Q1006,YBWX,2014-12-18T07:00:00Z,-20.88,115.4,30.0,20.0,270,17,,,29.704725,,,TRUE,,,,,,,,,,,,,,,,,,,,,,,,,,,,METAR,6.0
YBWP 180700Z AUTO 28010KT 9999 // SCT099 32/25 Q1006,YBWP,2014-12-18T07:00:00Z,-12.68,141.92,32.0,25.0,280,10,,6.21,29.704725,,,TRUE,,,,,,,,SCT,9900,,,,,,,VFR,,,,,,,,,,,,METAR,12.0
YBUD 180700Z AUTO 36018KT 9999 // NCD 27/22 Q1009,YBUD,2014-12-18T07:00:00Z,-24.9,152.32,27.0,22.0,360,18,,6.21,29.793306,,,TRUE,,,,,,,,,,,,,,,,,,,,,,,,,,,,METAR,82.0
SADF 180700Z 23002KT 9999 MIFG NSC 19/18 Q1011,SADF,2014-12-18T07:00:00Z,-34.45,-58.58,19.0,18.0,230,2,,6.21,29.852362,,,,,,,,,,MIFG,,,,,,,,,,,,,,,,,,,,,METAR,4.0
YWHA 180700Z AUTO 17019KT 9999 // NCD 22/13 Q1013,YWHA,2014-12-18T07:00:00Z,-33.07,137.52,22.0,13.0,170,19,,6.21,29.911417,,,TRUE,,,,,,,,,,,,,,,,,,,,,,,,,,,,METAR,13.0
YTRE 180700Z AUTO 07005KT //// // NCD 24/22 Q1005,YTRE,2014-12-18T07:00:00Z,-31.88,152.52,24.0,22.0,70,5,,,29.675198,,,TRUE,,,,,,,,,,,,,,,,,,,,,,,,,,,,METAR,12.0
YTNK 180700Z AUTO 11011KT 9999 // SCT060 35/19 Q1009,YTNK,2014-12-18T07:00:00Z,-19.63,134.18,35.0,19.0,110,11,,6.21,29.793306,,,TRUE,,,,,,,,SCT,6000,,,,,,,VFR,,,,,,,,,,,,METAR,377.0
YTEF 180700Z AUTO 30011KT 300V010 //// // ////// 42/11 Q1006,YTEF,2014-12-18T07:00:00Z,-21.72,122.23,42.0,11.0,300,11,,,29.704725,,,TRUE,,,,,,,,,,,,,,,,,,,,,,,,,,,,METAR,296.0
SEQM 180700Z 01003KT 1000 BR SCT001 OVC015 12/11 Q1027 TEMPO 0800 RMK A3032,SEQM,2014-12-18T07:00:00Z,-0.12,-78.35,12.0,11.0,10,3,,0.62,30.324802,,,,,,,,,,BR,SCT,100,OVC,1500,,,,,LIFR,,,,,,,,,,,,METAR,2400.0
LBGO 180700Z VRB01MPS 0150 0100W R09/0150N FG VV001 02/02 Q1016 R88/19//95 NOSIG,LBGO,2014-12-18T07:00:00Z,43.15,25.72,2.0,2.0,0,2,,0.09,30.0,,,,,,TRUE,,,,FG,OVX,0,,,,,,,LIFR,,,,,,,,,,,100,METAR,86.0
WSAP 180700Z 05011KT 9999 SCT022 BKN300 32/24 Q1008,WSAP,2014-12-18T07:00:00Z,1.37,103.92,32.0,24.0,50,11,,6.21,29.763779,,,,,,,,,,,SCT,2200,BKN,30000,,,,,VFR,,,,,,,,,,,,METAR,32.0
SBRP 180700Z 34004KT CAVOK 23/19 Q1010,SBRP,2014-12-18T07:00:00Z,-21.12,-47.77,23.0,19.0,340,4,,6.21,29.822834,,,,,,,,,,,CAVOK,,,,,,,,VFR,,,,,,,,,,,,METAR,549.0
WSSL 180700Z 03010KT 9999 FEW015 SCT018TCU BKN300 32/23 Q1008 RMK 0630Z Q1008,WSSL,2014-12-18T07:00:00Z,1.42,103.87,32.0,23.0,30,10,,6.21,29.763779,,,,,,,,,,,FEW,1500,SCT,1800,BKN,30000,,,VFR,,,,,,,,,,,,SPECI,14.0
FIMR 180700Z 04012KT 9999 FEW018 31/21 Q1013,FIMR,2014-12-18T07:00:00Z,-19.75,63.37,31.0,21.0,40,12,,6.21,29.911417,,,,,,,,,,,FEW,1800,,,,,,,VFR,,,,,,,,,,,,METAR,31.0
SBPL 180700Z 03005KT 9999 SCT020 24/24 Q1013,SBPL,2014-12-18T07:00:00Z,-9.37,-40.57,24.0,24.0,30,5,,6.21,29.911417,,,,,,,,,,,SCT,2000,,,,,,,VFR,,,,,,,,,,,,METAR,375.0
SCAR 180700Z 08006KT 9999 OVC030 20/12 Q////,SCAR,2014-12-18T07:00:00Z,-18.35,-70.32,20.0,12.0,80,6,,6.21,,,,,,,,,,,,OVC,3000,,,,,,,MVFR,,,,,,,,,,,,METAR,59.0
SKCG 180700Z VRB02KT CAVOK 27/25 A2981,SKCG,2014-12-18T07:00:00Z,10.43,-75.52,27.0,25.0,0,2,,6.21,29.811024,,,,,,,,,,,CAVOK,,,,,,,,VFR,,,,,,,,,,,,METAR,1.0
SBTE 180700Z 20005KT 9999 SCT020 25/22 Q1010,SBTE,2014-12-18T07:00:00Z,-5.03,-42.82,25.0,22.0,200,5,,6.21,29.822834,,,,,,,,,,,SCT,2000,,,,,,,VFR,,,,,,,,,,,,METAR,69.0
YCBA 180700Z AUTO 29015G26KT //// // ////// 33/M04 Q1007,YCBA,2014-12-18T07:00:00Z,-31.53,145.8,33.0,-4.0,290,15,26,,29.734253,,,TRUE,,,,,,,,,,,,,,,,,,,,,,,,,,,,METAR,221.0
YRMD 180700Z AUTO 20025G35KT //// // ////// 26/18 Q1009,YRMD,2014-12-18T07:00:00Z,-20.7,143.12,26.0,18.0,200,25,35,,29.793306,,,TRUE,,,,,,,,,,,,,,,,,,,,,,,,,,,,METAR,207.0
SYCJ 180700Z 26004KT 4000 BR FEW010 22/22 Q1011 BR-ALQDS REFG NOSIG,SYCJ,2014-12-18T07:00:00Z,6.5,-58.25,22.0,22.0,260,4,,2.49,29.852362,,,,,,TRUE,,,,BR BR,FEW,1000,,,,,,,IFR,,,,,,,,,,,,METAR,30.0
SBVT 180700Z 02006KT 9999 FEW020 23/20 Q1012,SBVT,2014-12-18T07:00:00Z,-20.27,-40.27,23.0,20.0,20,6,,6.21,29.88189,,,,,,,,,,,FEW,2000,,,,,,,VFR,,,,,,,,,,,,METAR,4.0
SKPE 180700Z VRB02KT 9999 FEW015 SCT080 19/17 A3010,SKPE,2014-12-18T07:00:00Z,4.82,-75.73,19.0,17.0,0,2,,6.21,30.100393,,,,,,,,,,,FEW,1500,SCT,8000,,,,,VFR,,,,,,,,,,,,METAR,1346.0
SKSP 180700Z 07003KT 9999 FEW017 OVC090 27/25 A2990,SKSP,2014-12-18T07:00:00Z,12.57,-81.72,27.0,25.0,70,3,,6.21,29.899607,,,,,,,,,,,FEW,1700,OVC,9000,,,,,VFR,,,,,,,,,,,,METAR,-2.0
SKRG 180700Z 00000KT 2000 BR BKN003 14/14 A3030,SKRG,2014-12-18T07:00:00Z,6.17,-75.42,14.0,14.0,0,0,,1.24,30.301182,,,,,,,,,,BR,BKN,300,,,,,,,LIFR,,,,,,,,,,,,METAR,2137.0
SKCL 180700Z 13003KT 9000 FEW017 19/18 A3001 RMK HZ,SKCL,2014-12-18T07:00:00Z,3.53,-76.37,19.0,18.0,130,3,,5.59,30.008858,,,,,,,,,,,FEW,1700,,,,,,,VFR,,,,,,,,,,,,METAR,969.0
SKBO 180700Z VRB02KT 7000 SCT020 10/09 A30332 RMK HZ,SKBO,2014-12-18T07:00:00Z,4.7,-74.12,10.0,9.0,0,2,,4.35,,,,,,,,,,,,SCT,2000,,,,,,,MVFR,,,,,,,,,,,,METAR,2548.0
FQCH 180700Z /////KT 9999 BKN015 SCT050 24/21 Q1017,FQCH,2014-12-18T07:00:00Z,-19.15,33.43,24.0,21.0,,,,6.21,30.029528,,,,,,,,,,,BKN,1500,SCT,5000,,,,,MVFR,,,,,,,,,,,,METAR,732.0
NFTF 180700Z 11004KT 9999 FEW018TCU BKN040 26/22 Q1016,NFTF,2014-12-18T07:00:00Z,-21.23,-175.15,26.0,22.0,110,4,,6.21,30.0,,,,,,,,,,,FEW,1800,BKN,4000,,,,,VFR,,,,,,,,,,,,METAR,38.0
AGGH 180700Z 00000KT 9999 FEW016 SCT100 BKN300 26/25 Q1008,AGGH,2014-12-18T07:00:00Z,-9.42,160.05,26.0,25.0,0,0,,6.21,29.763779,,,,,,,,,,,FEW,1600,SCT,10000,BKN,30000,,,VFR,,,,,,,,,,,,METAR,9.0
SEGU 180700Z 22006KT 9999 FEW016 SCT030 BKN100 24/20 Q1013 NOSIG RMK A2991,SEGU,2014-12-18T07:00:00Z,-2.13,-79.87,24.0,20.0,220,6,,6.21,29.911417,,,,,,TRUE,,,,,FEW,1600,SCT,3000,BKN,10000,,,VFR,,,,,,,,,,,,METAR,9.0
SELT 180700Z 17002KT 9999 FEW010 BKN030 10/10 Q1030,SELT,2014-12-18T07:00:00Z,-0.92,-78.62,10.0,10.0,170,2,,6.21,30.413385,,,,,,,,,,,FEW,1000,BKN,3000,,,,,MVFR,,,,,,,,,,,,METAR,2785.0
SEMT 180700Z 17003KT 9999 OVC026 26/21 Q1013,SEMT,2014-12-18T07:00:00Z,-0.95,-80.67,26.0,21.0,170,3,,6.21,29.911417,,,,,,,,,,,OVC,2600,,,,,,,MVFR,,,,,,,,,,,,METAR,14.0
SPCL 180700Z /////KT 9999 SCT016 24/23 Q1010 RMK PP000,SPCL,2014-12-18T07:00:00Z,-8.38,-74.58,24.0,23.0,,,,6.21,29.822834,,,,,,,,,,,SCT,1600,,,,,,,VFR,,,,,,,,,,,,SPECI,149.0
OERY 180700Z 03006KT CAVOK 15/06 Q1027,OERY,2014-12-18T07:00:00Z,24.72,46.72,15.0,6.0,30,6,,6.21,30.324802,,,,,,,,,,,CAVOK,,,,,,,,VFR,,,,,,,,,,,,METAR,612.0
OERK 180700Z 03004KT CAVOK 14/04 Q1027 NOSIG,OERK,2014-12-18T07:00:00Z,24.95,46.72,14.0,4.0,30,4,,6.21,30.324802,,,,,,TRUE,,,,,CAVOK,,,,,,,,VFR,,,,,,,,,,,,METAR,612.0
OEMA 180700Z 10008KT 7000 SKC 18/07 Q1026 NOSIG,OEMA,2014-12-18T07:00:00Z,24.55,39.7,18.0,7.0,100,8,,4.35,30.295275,,,,,,TRUE,,,,,SKC,,,,,,,,MVFR,,,,,,,,,,,,METAR,631.0
OEJN 180700Z 00000KT CAVOK 28/12 Q1016 NOSIG,OEJN,2014-12-18T07:00:00Z,21.68,39.15,28.0,12.0,0,0,,6.21,30.0,,,,,,TRUE,,,,,CAVOK,,,,,,,,VFR,,,,,,,,,,,,METAR,15.0
OEDF 180700Z 30013KT 8000 SKC 17/09 Q1024 NOSIG,OEDF,2014-12-18T07:00:00Z,26.47,49.8,17.0,9.0,300,13,,4.97,30.236221,,,,,,TRUE,,,,,SKC,,,,,,,,MVFR,,,,,,,,,,,,METAR,22.0
SPZO 180700Z VRB03KT 9000 -DZ FEW030 SCT040 BKN070 09/06 Q1030 RMK PP002,SPZO,2014-12-18T07:00:00Z,-13.55,-71.97,9.0,6.0,0,3,,5.59,30.413385,,,,,,,,,,-DZ,FEW,3000,SCT,4000,BKN,7000,,,VFR,,,,,,,,,,,,METAR,3249.0
SPTN 180700Z 13004KT 040V150 9999 OVC020 17/13 Q1014 RMK PP000,SPTN,2014-12-18T07:00:00Z,-18.07,-70.28,17.0,13.0,130,4,,6.21,29.940945,,,,,,,,,,,OVC,2000,,,,,,,MVFR,,,,,,,,,,,,METAR,458.0
SPSO 180700Z 22008KT 6000 SCT008 OVC020 19/16 Q1014 RMK PP000,SPSO,2014-12-18T07:00:00Z,-13.73,-76.22,19.0,16.0,220,8,,3.73,29.940945,,,,,,,,,,,SCT,800,OVC,2000,,,,,MVFR,,,,,,,,,,,,METAR,10.0
SPRU 180700Z 10005KT 9999 SCT005 OVC130 18/16 Q1014 RMK PP000,SPRU,2014-12-18T07:00:00Z,-8.08,-79.12,18.0,16.0,100,5,,6.21,29.940945,,,,,,,,,,,SCT,500,OVC,13000,,,,,VFR,,,,,,,,,,,,SPECI,30.0
SPQU 180700Z 02003KT CAVOK 10/01 Q1026 RMK PP000,SPQU,2014-12-18T07:00:00Z,-16.33,-71.57,10.0,1.0,20,3,,6.21,30.295275,,,,,,,,,,,CAVOK,,,,,,,,VFR,,,,,,,,,,,,METAR,2554.0
SPHI 180700Z 19009KT CAVOK 19/17 Q1014 RMK PP000,SPHI,2014-12-18T07:00:00Z,-6.77,-79.82,19.0,17.0,190,9,,6.21,29.940945,,,,,,,,,,,CAVOK,,,,,,,,VFR,,,,,,,,,,,,SPECI,34.0
SBLO 180700Z 19003KT CAVOK 22/18 Q1011,SBLO,2014-12-18T07:00:00Z,-23.32,-51.12,22.0,18.0,190,3,,6.21,29.852362,,,,,,,,,,,CAVOK,,,,,,,,VFR,,,,,,,,,,,,METAR,570.0
RPLC 180700Z 07008KT 9999 SCT036 BKN100 27/18 Q1014 RMK NOSIG A2996,RPLC,2014-12-18T07:00:00Z,15.17,120.58,27.0,18.0,70,8,,6.21,29.940945,,,,,,,,,,,SCT,3600,BKN,10000,,,,,VFR,,,,,,,,,,,,METAR,196.0
YPXM 180700Z AUTO 15002KT 9999 // BKN010 BKN017 OVC036 27/24 Q1010,YPXM,2014-12-18T07:00:00Z,-10.45,105.67,27.0,24.0,150,2,,6.21,29.822834,,,TRUE,,,,,,,,BKN,1000,BKN,1700,OVC,3600,,,MVFR,,,,,,,,,,,,METAR,259.0
SBPK 180700Z 26002KT 9999 FEW010 18/18 Q1010,SBPK,2014-12-18T07:00:00Z,-31.72,-52.33,18.0,18.0,260,2,,6.21,29.822834,,,,,,,,,,,FEW,1000,,,,,,,VFR,,,,,,,,,,,,METAR,13.0
SBCZ 180700Z 00000KT 6000 -RA SCT006 FEW030TCU BKN100 24/24 Q10 10,SBCZ,2014-12-18T07:00:00Z,-7.62,-72.77,24.0,24.0,0,0,,3.73,,,,,,,,,,,-RA,SCT,600,FEW,3000,BKN,10000,,,MVFR,,,,,,,,,,,,METAR,170.0
FQIN 180700Z 23005KT 9999 BKN020 BKN090 25/24 Q1012,FQIN,2014-12-18T07:00:00Z,-23.87,35.37,25.0,24.0,230,5,,6.21,29.88189,,,,,,,,,,,BKN,2000,BKN,9000,,,,,MVFR,,,,,,,,,,,,METAR,15.0
SBMQ 180700Z 32003KT CAVOK 25/24 Q1010,SBMQ,2014-12-18T07:00:00Z,0.05,-51.07,25.0,24.0,320,3,,6.21,29.822834,,,,,,,,,,,CAVOK,,,,,,,,VFR,,,,,,,,,,,,METAR,15.0
SBGO 180700Z 00000KT 9999 FEW030 BKN100 22/20 Q1013,SBGO,2014-12-18T07:00:00Z,-16.62,-49.22,22.0,20.0,0,0,,6.21,29.911417,,,,,,,,,,,FEW,3000,BKN,10000,,,,,VFR,,,,,,,,,,,,METAR,747.0
SKBQ 180700Z 27004KT CAVOK 26/26 A2982,SKBQ,2014-12-18T07:00:00Z,10.9,-74.77,26.0,26.0,270,4,,6.21,29.819881,,,,,,,,,,,CAVOK,,,,,,,,VFR,,,,,,,,,,,,METAR,10.0
SBGL 180700Z 20002KT CAVOK 22/18 Q1009,SBGL,2014-12-18T07:00:00Z,-22.82,-43.25,22.0,18.0,200,2,,6.21,29.793306,,,,,,,,,,,CAVOK,,,,,,,,VFR,,,,,,,,,,,,METAR,6.0
FDMV 180700Z AUTO 01002KT //// // ////// 26/19 Q1021,FDMV,2014-12-18T07:00:00Z,,,26.0,19.0,10,2,,,30.147638,,,TRUE,,,,,,,,,,,,,,,,,,,,,,,,,,,,METAR,
FDMY 180700Z AUTO 12009KT //// // ////// ///// Q1022,FDMY,2014-12-18T07:00:00Z,-25.87,31.52,,,120,9,,,30.177166,,,TRUE,,,,,,,,,,,,,,,,,,,,,,,,,,,,METAR,480.0
FDPP 180700Z AUTO 07003KT //// // ////// 18/M01 Q1021,FDPP,2014-12-18T07:00:00Z,-25.97,31.25,18.0,-1.0,70,3,,,30.147638,,,TRUE,,,,,,,,,,,,,,,,,,,,,,,,,,,,METAR,1099.0
FDST 180700Z AUTO 33002KT //// // ////// 23/19 Q1015,FDST,2014-12-18T07:00:00Z,-26.43,31.95,23.0,19.0,330,2,,,29.970472,,,TRUE,,,,,,,,,,,,,,,,,,,,,,,,,,,,METAR,667.0
FDND 180700Z AUTO /////KT //// // ////// 24/17 Q1013,FDND,2014-12-18T07:00:00Z,-26.97,31.97,24.0,17.0,,,,,29.911417,,,TRUE,,,,,,,,,,,,,,,,,,,,,,,,,,,,METAR,207.0
FDBB 180700Z AUTO 05002KT //// // ////// 26/20 Q1013,FDBB,2014-12-18T07:00:00Z,-26.85,31.92,26.0,20.0,50,2,,,29.911417,,,TRUE,,,,,,,,,,,,,,,,,,,,,,,,,,,,METAR,94.0
OPRN 180700Z 23006KT 1000 HZ SKC 15/05 Q1022.3/30.18,OPRN,2014-12-18T07:00:00Z,33.62,73.08,15.0,5.0,230,6,,0.62,,,,,,,,,,,HZ,SKC,,,,,,,,LIFR,,,,,,,,,,,,METAR,508.0
OPNH 180700Z 31503KT 2200M FU FEW100 SCT200 19/07 Q.1020,OPNH,2014-12-18T07:00:00Z,26.22,68.37,19.0,7.0,315,3,,1.37,,,,,,,,,,,FU,FEW,10000,SCT,20000,,,,,IFR,,,,,,,,,,,,METAR,38.0
GVSV 180700Z 05019KT 9999 SCT022 21/15 Q1016 NOSIG,GVSV,2014-12-18T07:00:00Z,16.83,-25.07,21.0,15.0,50,19,,6.21,30.0,,,,,,TRUE,,,,,SCT,2200,,,,,,,VFR,,,,,,,,,,,,METAR,20.0
TBPB 180700Z 04008KT 9999 FEW022 SCT300 25/22 Q1012 NOSIG,TBPB,2014-12-18T07:00:00Z,13.07,-59.48,25.0,22.0,40,8,,6.21,29.88189,,,,,,TRUE,,,,,FEW,2200,SCT,30000,,,,,VFR,,,,,,,,,,,,METAR,52.0
UKLI 180700Z 18002MPS 0100 R28/0175N FZFG VV002 M01/M01 Q1014 NOSIG,UKLI,2014-12-18T07:00:00Z,48.88,24.68,-1.0,-1.0,180,4,,0.06,29.940945,,,,,,TRUE,,,,FZFG,OVX,0,,,,,,,LIFR,,,,,,,,,,,200,METAR,280.0
EIME 180700Z 23023G33KT 6000 -RA FEW006 BKN007 BKN010 12/11 Q1001,EIME,2014-12-18T07:00:00Z,53.3,-6.45,12.0,11.0,230,23,33,3.73,29.557087,,,,,,,,,,-RA,FEW,600,BKN,700,BKN,1000,,,IFR,,,,,,,,,,,,METAR,93.0
UTAT 180700Z 33003MPS CAVOK M03/M05 Q1029 99CLRD70 NOSIG,UTAT,2014-12-18T07:00:00Z,41.77,59.83,-3.0,-5.0,330,6,,6.21,30.383858,,,,,,TRUE,,,,,CAVOK,,,,,,,,VFR,,,,,,,,,,,,METAR,83.0
UTAM 180700Z 28002MPS 6000 BR -SN OVC013 03/M01 Q1029 NOSIG RMK SC07,UTAM,2014-12-18T07:00:00Z,37.62,61.9,3.0,-1.0,280,4,,3.73,30.383858,,,,,,TRUE,,,,BR -SN,OVC,1300,,,,,,,MVFR,,,,,,,,,,,,METAR,222.0
UTAV 180700Z 24002MPS 9999 FEW020CB BKN020 03/M02 Q1028 NOSIG,UTAV,2014-12-18T07:00:00Z,39.08,63.62,3.0,-2.0,240,4,,6.21,30.35433,,,,,,TRUE,,,,,FEW,2000,BKN,2000,,,,,MVFR,,,,,,,,,,,,METAR,192.0
UTAK 180700Z 13008MPS 9999 OVC046 07/06 Q1025 TEMPO BKN006,UTAK,2014-12-18T07:00:00Z,40.05,53.0,7.0,6.0,130,16,,6.21,30.265747,,,,,,,,,,,OVC,4600,,,,,,,VFR,,,,,,,,,,,,METAR,85.0
SAZM 180700Z 32002KT 8000 NSC 09/08 Q1011,SAZM,2014-12-18T07:00:00Z,-37.92,-57.57,9.0,8.0,320,2,,4.97,29.852362,,,,,,,,,,,,,,,,,,,,,,,,,,,,,,,SPECI,21.0
SAWG 180700Z 29006KT 8000 -RA FEW035 OVC040 09/08 Q0984,SAWG,2014-12-18T07:00:00Z,-51.62,-69.32,9.0,8.0,290,6,,4.97,29.055119,,,,,,,,,,-RA,FEW,3500,OVC,4000,,,,,MVFR,,,,,,,,,,,,METAR,19.0
SASA 180700Z 14002KT 5000 BR FEW008 SCT200 17/16 Q1018,SASA,2014-12-18T07:00:00Z,-24.85,-65.47,17.0,16.0,140,2,,3.11,30.059055,,,,,,,,,,BR,FEW,800,SCT,20000,,,,,MVFR,,,,,,,,,,,,METAR,1216.0
SARL 180700Z 27005KT 8000 NSC 20/19 Q1011,SARL,2014-12-18T07:00:00Z,-29.67,-57.13,20.0,19.0,270,5,,4.97,29.852362,,,,,,,,,,,,,,,,,,,,,,,,,,,,,,,SPECI,70.0
SARI 180700Z 36005KT 9000 NSC 19/19 Q1011,SARI,2014-12-18T07:00:00Z,-25.72,-54.47,19.0,19.0,360,5,,5.59,29.852362,,,,,,,,,,,,,,,,,,,,,,,,,,,,,,,SPECI,270.0
SARC 180700Z 20003KT 9999 SCT007 BKN020 OVC100 23/21 Q1011,SARC,2014-12-18T07:00:00Z,-27.43,-58.77,23.0,21.0,200,3,,6.21,29.852362,,,,,,,,,,,SCT,700,BKN,2000,OVC,10000,,,MVFR,,,,,,,,,,,,METAR,62.0
SAOC 180700Z 32004KT CAVOK 19/15 Q1014,SAOC,2014-12-18T07:00:00Z,-33.12,-64.27,19.0,15.0,320,4,,6.21,29.940945,,,,,,,,,,,CAVOK,,,,,,,,VFR,,,,,,,,,,,,METAR,421.0
SAEZ 180700Z 00000KT CAVOK 15/14 Q1012,SAEZ,2014-12-18T07:00:00Z,-34.82,-58.52,15.0,14.0,0,0,,6.21,29.88189,,,,,,,,,,,CAVOK,,,,,,,,VFR,,,,,,,,,,,,METAR,20.0
SACO 180700Z 34014KT 9999 BKN010 SCT040 19/11 Q1015 RERA,SACO,2014-12-18T07:00:00Z,-31.32,-64.22,19.0,11.0,340,14,,6.21,29.970472,,,,,,,,,,,BKN,1000,SCT,4000,,,,,MVFR,,,,,,,,,,,,METAR,474.0
SABE 180700Z 20004KT CAVOK 21/17 Q1011,SABE,2014-12-18T07:00:00Z,-34.57,-58.42,21.0,17.0,200,4,,6.21,29.852362,,,,,,,,,,,CAVOK,,,,,,,,VFR,,,,,,,,,,,,METAR,6.0
TNCM 180700Z 05009KT 9999 VCSH SCT018 BKN036 25/19 Q1014 A2996 RMK SHRA ESE-SE,TNCM,2014-12-18T07:00:00Z,18.05,-63.12,25.0,19.0,50,9,,6.21,29.940945,,,,,,,,,,VCSH,SCT,1800,BKN,3600,,,,,VFR,,,,,,,,,,,,METAR,4.0
DTTZ 180700Z 30006KT 9999 FEW030 07/03 Q1022 NOSIG,DTTZ,2014-12-18T07:00:00Z,33.92,8.08,7.0,3.0,300,6,,6.21,30.177166,,,,,,TRUE,,,,,FEW,3000,,,,,,,VFR,,,,,,,,,,,,METAR,93.0
DTTX 180700Z 25005KT 9999 FEW020 10/05 Q1020 NOSIG,DTTX,2014-12-18T07:00:00Z,34.72,10.67,10.0,5.0,250,5,,6.21,30.11811,,,,,,TRUE,,,,,FEW,2000,,,,,,,VFR,,,,,,,,,,,,METAR,23.0
DTTF 180700Z 08005KT 9999 SCT030 07/04 Q1023 NOSIG,DTTF,2014-12-18T07:00:00Z,34.42,8.82,7.0,4.0,80,5,,6.21,30.206694,,,,,,TRUE,,,,,SCT,3000,,,,,,,VFR,,,,,,,,,,,,METAR,314.0
DTKA 180700Z 26021KT 8000 RA SCT020 SCT030 14/11 Q1019 NOSIG,DTKA,2014-12-18T07:00:00Z,36.98,8.88,14.0,11.0,260,21,,4.97,30.088583,,,,,,TRUE,,,,RA,SCT,2000,SCT,3000,,,,,MVFR,,,,,,,,,,,,METAR,21.0
LKPD 180700Z 25005KT CAVOK 06/05 Q1013 NOSIG,LKPD,2014-12-18T07:00:00Z,50.02,15.73,6.0,5.0,250,5,,6.21,29.911417,,,,,,TRUE,,,,,CAVOK,,,,,,,,VFR,,,,,,,,,,,,METAR,226.0
LKNA 180700Z 27006KT 9999 SCT015 BKN020 05/04 Q1014 NOSIG,LKNA,2014-12-18T07:00:00Z,49.17,16.12,5.0,4.0,270,6,,6.21,29.940945,,,,,,TRUE,,,,,SCT,1500,BKN,2000,,,,,MVFR,,,,,,,,,,,,METAR,472.0
LKKB 180700Z 23012KT 9999 OVC046 07/05 Q1013 NOSIG,LKKB,2014-12-18T07:00:00Z,50.12,14.53,7.0,5.0,230,12,,6.21,29.911417,,,,,,TRUE,,,,,OVC,4600,,,,,,,VFR,,,,,,,,,,,,METAR,286.0
LKCV 180700Z 24009KT CAVOK 07/06 Q1013 NOSIG,LKCV,2014-12-18T07:00:00Z,49.93,15.38,7.0,6.0,240,9,,6.21,29.911417,,,,,,TRUE,,,,,CAVOK,,,,,,,,VFR,,,,,,,,,,,,METAR,242.0
LPBJ 180700Z 27004KT 0200 R01/0700 FG NSC 04/04 Q1028,LPBJ,2014-12-18T07:00:00Z,38.08,-7.93,4.0,4.0,270,4,,0.12,30.35433,,,,,,,,,,FG,,,,,,,,,,,,,,,,,,,,,METAR,247.0
LPMT 180700Z 36009KT 9999 FEW020 11/09 Q1029,LPMT,2014-12-18T07:00:00Z,38.7,-9.05,11.0,9.0,360,9,,6.21,30.383858,,,,,,,,,,,FEW,2000,,,,,,,VFR,,,,,,,,,,,,METAR,11.0
LPST 180700Z 35009KT 9999 FEW012 BKN020 11/09 Q1029,LPST,2014-12-18T07:00:00Z,38.82,-9.32,11.0,9.0,350,9,,6.21,30.383858,,,,,,,,,,,FEW,1200,BKN,2000,,,,,MVFR,,,,,,,,,,,,METAR,130.0
LPMR 180700Z 36006KT 9999 SCT016 BKN028 08/07 Q1030,LPMR,2014-12-18T07:00:00Z,39.82,-8.87,8.0,7.0,360,6,,6.21,30.413385,,,,,,,,,,,SCT,1600,BKN,2800,,,,,MVFR,,,,,,,,,,,,METAR,54.0
LPOV 180700Z VRB01KT 8000 FEW025 04/04 Q1030,LPOV,2014-12-18T07:00:00Z,40.92,-8.65,4.0,4.0,0,1,,4.97,30.413385,,,,,,,,,,,FEW,2500,,,,,,,MVFR,,,,,,,,,,,,METAR,17.0
OEDR 180700Z 31016KT 8000 SKC 19/08 Q1022 NOSIG,OEDR,2014-12-18T07:00:00Z,26.27,50.17,19.0,8.0,310,16,,4.97,30.177166,,,,,,TRUE,,,,,SKC,,,,,,,,MVFR,,,,,,,,,,,,METAR,17.0
RJAH 180700Z 28010KT 9999 FEW025 06/M09 Q1013,RJAH,2014-12-18T07:00:00Z,36.17,140.42,6.0,-9.0,280,10,,6.21,29.911417,,,,,,,,,,,FEW,2500,,,,,,,VFR,,,,,,,,,,,,METAR,35.0
RORS 180700Z 03022KT 9999 SCT035 BKN060 18/10 Q1025,RORS,2014-12-18T07:00:00Z,24.82,125.15,18.0,10.0,30,22,,6.21,30.265747,,,,,,,,,,,SCT,3500,BKN,6000,,,,,VFR,,,,,,,,,,,,METAR,16.0
ROMY 180700Z 03011KT 9999 BKN035 18/09 Q1025,ROMY,2014-12-18T07:00:00Z,24.77,125.27,18.0,9.0,30,11,,6.21,30.265747,,,,,,,,,,,BKN,3500,,,,,,,VFR,,,,,,,,,,,,METAR,41.0
ROIG 180700Z 04016KT 9999 FEW035 SCT040 BKN070 18/09 Q1025,ROIG,2014-12-18T07:00:00Z,24.32,124.17,18.0,9.0,40,16,,6.21,30.265747,,,,,,,,,,,FEW,3500,SCT,4000,BKN,7000,,,VFR,,,,,,,,,,,,METAR,7.0
RJTO 180700Z 24007KT 180V300 9999 FEW030 08/M06 Q1016,RJTO,2014-12-18T07:00:00Z,34.77,139.37,8.0,-6.0,240,7,,6.21,30.0,,,,,,,,,,,FEW,3000,,,,,,,VFR,,,,,,,,,,,,METAR,41.0
RJTI 180700Z 30016G28KT 9999 FEW030 07/M15 Q1015,RJTI,2014-12-18T07:00:00Z,35.63,139.83,7.0,-15.0,300,16,28,6.21,29.970472,,,,,,,,,,,FEW,3000,,,,,,,VFR,,,,,,,,,,,,METAR,8.0
RJTF 180700Z 35012KT 9999 FEW030 07/M15 Q1016,RJTF,2014-12-18T07:00:00Z,35.67,139.52,7.0,-15.0,350,12,,6.21,30.0,,,,,,,,,,,FEW,3000,,,,,,,VFR,,,,,,,,,,,,METAR,44.0
RJSY 180700Z 30015G26KT 260V330 9999 -SHSNRA FEW010 SCT025 BKN040 04/M04 Q1015,RJSY,2014-12-18T07:00:00Z,38.82,139.77,4.0,-4.0,300,15,26,6.21,29.970472,,,,,,,,,,-SHSN -SHRA,FEW,1000,SCT,2500,BKN,4000,,,VFR,,,,,,,,,,,,METAR,22.0
RJSR 180700Z 27007KT 230V300 5000 -SHSN FEW002 SCT010 BKN030 01/01 Q1012,RJSR,2014-12-18T07:00:00Z,40.18,140.37,1.0,1.0,270,7,,3.11,29.88189,,,,,,,,,,-SHSN,FEW,200,SCT,1000,BKN,3000,,,MVFR,,,,,,,,,,,,METAR,87.0
RJSI 180700Z 34003KT 310V030 9999 FEW015 SCT030 01/M02 Q1011,RJSI,2014-12-18T07:00:00Z,39.42,141.12,1.0,-2.0,340,3,,6.21,29.852362,,,,,,,,,,,FEW,1500,SCT,3000,,,,,VFR,,,,,,,,,,,,METAR,93.0
RJSF 180700Z 33004KT 250V060 9999 -SHSN FEW015 SCT030 00/M05 Q1013,RJSF,2014-12-18T07:00:00Z,37.22,140.42,0.0,-5.0,330,4,,6.21,29.911417,,,,,,,,,,-SHSN,FEW,1500,SCT,3000,,,,,VFR,,,,,,,,,,,,METAR,375.0
RJSA 180700Z 25009KT 9999 FEW010 SCT025 BKN040 00/M01 Q1010,RJSA,2014-12-18T07:00:00Z,40.72,140.68,0.0,-1.0,250,9,,6.21,29.822834,,,,,,,,,,,FEW,1000,SCT,2500,BKN,4000,,,VFR,,,,,,,,,,,,METAR,201.0
RJOY 180700Z 30008KT 260V340 9999 FEW035 05/M06 Q1025,RJOY,2014-12-18T07:00:00Z,34.6,135.58,5.0,-6.0,300,8,,6.21,30.265747,,,,,,,,,,,FEW,3500,,,,,,,VFR,,,,,,,,,,,,METAR,13.0
RJFK 180700Z 32012KT 9999 FEW030 05/M07 Q1027 RMK 1CU030 A3033 VOLCANIC ASH CLOUD S,RJFK,2014-12-18T07:00:00Z,31.8,130.72,5.0,-7.0,320,12,,6.21,30.324802,,,,,,,,,,,FEW,3000,,,,,,,VFR,,,,,,,,,,,,SPECI,275.0
RJFG 180700Z 31018G28KT 9999 FEW020 08/02 Q1026,RJFG,2014-12-18T07:00:00Z,30.62,130.98,8.0,2.0,310,18,28,6.21,30.295275,,,,,,,,,,,FEW,2000,,,,,,,VFR,,,,,,,,,,,,METAR,95.0
RJFS 180700Z 01010KT 9999 FEW045 05/M06 Q1030,RJFS,2014-12-18T07:00:00Z,33.15,130.3,5.0,-6.0,10,10,,6.21,30.413385,,,,,,,,,,,FEW,4500,,,,,,,VFR,,,,,,,,,,,,METAR,5.0
RJEC 180700Z 34018KT 9999 FEW012 BKN045 M03/M06 Q1009,RJEC,2014-12-18T07:00:00Z,43.67,142.43,-3.0,-6.0,340,18,,6.21,29.793306,,,,,,,,,,,FEW,1200,BKN,4500,,,,,VFR,,,,,,,,,,,,METAR,211.0
RJDT 180700Z 01004KT 300V080 9999 FEW040 03/M11 Q1030,RJDT,2014-12-18T07:00:00Z,34.27,129.32,3.0,-11.0,10,4,,6.21,30.413385,,,,,,,,,,,FEW,4000,,,,,,,VFR,,,,,,,,,,,,METAR,66.0
RJDC 180700Z 29008KT 260V350 9999 FEW025 BKN035 03/M07 Q1029,RJDC,2014-12-18T07:00:00Z,33.92,131.27,3.0,-7.0,290,8,,6.21,30.383858,,,,,,,,,,,FEW,2500,BKN,3500,,,,,VFR,,,,,,,,,,,,METAR,8.0
RJCW 180700Z 01019KT 9999 FEW008 BKN045 M00/M06 Q1012,RJCW,2014-12-18T07:00:00Z,45.38,141.8,0.0,-6.0,10,19,,6.21,29.88189,,,,,,,,,,,FEW,800,BKN,4500,,,,,VFR,,,,,,,,,,,,METAR,11.0
RJCK 180700Z 36017G29KT 5000 -SHSN FEW010 BKN030 BKN/// M01/M06 Q1005,RJCK,2014-12-18T07:00:00Z,43.02,144.18,-1.0,-6.0,360,17,29,3.11,29.675198,,,,,,,,,,-SHSN,FEW,1000,BKN,3000,,,,,MVFR,,,,,,,,,,,,METAR,98.0
RJCH 180700Z 31013KT 9999 -SHSN FEW005 BKN030 BKN/// 02/M04 Q1010,RJCH,2014-12-18T07:00:00Z,41.77,140.82,2.0,-4.0,310,13,,6.21,29.822834,,,,,,,,,,-SHSN,FEW,500,BKN,3000,,,,,MVFR,,,,,,,,,,,,METAR,36.0
RJCB 180700Z 36011KT 9999 FEW050 BKN150 M02/M07 Q1006,RJCB,2014-12-18T07:00:00Z,42.72,143.22,-2.0,-7.0,360,11,,6.21,29.704725,,,,,,,,,,,FEW,5000,BKN,15000,,,,,VFR,,,,,,,,,,,,METAR,152.0
RJBE 180700Z 31012KT 9999 VCSH FEW025 SCT035 04/M03 Q1025,RJBE,2014-12-18T07:00:00Z,34.63,135.23,4.0,-3.0,310,12,,6.21,30.265747,,,,,,,,,,VCSH,FEW,2500,SCT,3500,,,,,VFR,,,,,,,,,,,,METAR,5.0
RJBD 180700Z 33017KT 300V360 9999 VCSH FEW010 SCT040 BKN050 04/M04 Q1024,RJBD,2014-12-18T07:00:00Z,33.67,135.37,4.0,-4.0,330,17,,6.21,30.236221,,,,,,,,,,VCSH,FEW,1000,SCT,4000,BKN,5000,,,VFR,,,,,,,,,,,,METAR,108.0
RJAF 180700Z 31004KT 9999 SCT050 M00/M11 Q1015,RJAF,2014-12-18T07:00:00Z,36.17,137.92,0.0,-11.0,310,4,,6.21,29.970472,,,,,,,,,,,SCT,5000,,,,,,,VFR,,,,,,,,,,,,METAR,660.0
RJOW 180700Z 31012KT 290V350 9999 FEW030 BKN035 03/M05 Q1029,RJOW,2014-12-18T07:00:00Z,34.67,131.8,3.0,-5.0,310,12,,6.21,30.383858,,,,,,,,,,,FEW,3000,BKN,3500,,,,,VFR,,,,,,,,,,,,METAR,54.0
RJOT 180700Z 28017KT 9999 FEW025 SCT040 03/M05 Q1026,RJOT,2014-12-18T07:00:00Z,34.22,134.02,3.0,-5.0,280,17,,6.21,30.295275,,,,,,,,,,,FEW,2500,SCT,4000,,,,,VFR,,,,,,,,,,,,METAR,188.0
RJOR 180700Z 32010G23KT 270V020 5000 -SHSN FEW010 SCT020 BKN030 03/M01 Q1026,RJOR,2014-12-18T07:00:00Z,35.52,134.17,3.0,-1.0,320,10,23,3.11,30.295275,,,,,,,,,,-SHSN,FEW,1000,SCT,2000,BKN,3000,,,MVFR,,,,,,,,,,,,METAR,18.0
RJOO 180700Z 35012KT 9999 VCSH FEW020 03/M01 Q1025 RMK 1CU020 A3028,RJOO,2014-12-18T07:00:00Z,34.77,135.43,3.0,-1.0,350,12,,6.21,30.265747,,,,,,,,,,VCSH,FEW,2000,,,,,,,VFR,,,,,,,,,,,,METAR,15.0
RJOM 180700Z 34009KT 9999 SCT035 05/M06 Q1028,RJOM,2014-12-18T07:00:00Z,33.82,132.68,5.0,-6.0,340,9,,6.21,30.35433,,,,,,,,,,,SCT,3500,,,,,,,VFR,,,,,,,,,,,,METAR,7.0
RJOK 180700Z 33012KT 300V360 9999 FEW030 06/M07 Q1025,RJOK,2014-12-18T07:00:00Z,33.52,133.67,6.0,-7.0,330,12,,6.21,30.265747,,,,,,,,,,,FEW,3000,,,,,,,VFR,,,,,,,,,,,,METAR,10.0
RJOH 180700Z 32007KT 290V350 5000 -SHGSSN FEW005 SCT007 BKN015 01/M01 Q1028,RJOH,2014-12-18T07:00:00Z,35.47,133.25,1.0,-1.0,320,7,,3.11,30.35433,,,,,,,,,,-SHGS -SHSN,FEW,500,SCT,700,BKN,1500,,,MVFR,,,,,,,,,,,,METAR,9.0
RJOB 180700Z 30009KT 260V340 9999 VCSH FEW025 SCT035 02/M05 Q1025,RJOB,2014-12-18T07:00:00Z,34.75,133.83,2.0,-5.0,300,9,,6.21,30.265747,,,,,,,,,,VCSH,FEW,2500,SCT,3500,,,,,VFR,,,,,,,,,,,,METAR,242.0
RJOA 180700Z 31008KT 260V340 9999 FEW015 BKN025 00/M05 Q1026,RJOA,2014-12-18T07:00:00Z,34.42,132.92,0.0,-5.0,310,8,,6.21,30.295275,,,,,,,,,,,FEW,1500,BKN,2500,,,,,MVFR,,,,,,,,,,,,METAR,6.0
RJNS 180700Z 27015KT 9999 FEW030 05/M08 Q1017,RJNS,2014-12-18T07:00:00Z,34.8,138.18,5.0,-8.0,270,15,,6.21,30.029528,,,,,,,,,,,FEW,3000,,,,,,,VFR,,,,,,,,,,,,METAR,135.0
RJNW 180700Z 30009G20KT 260V340 2000 -SHSN FEW006 SCT010 BKN015 M00/M01 Q1020,RJNW,2014-12-18T07:00:00Z,37.3,136.97,0.0,-1.0,300,9,20,1.24,30.11811,,,,,,,,,,-SHSN,FEW,600,SCT,1000,BKN,1500,,,IFR,,,,,,,,,,,,METAR,219.0
RJKA 180700Z 36018KT 9999 -SHRA FEW015 SCT025 BKN035 13/06 Q1027,RJKA,2014-12-18T07:00:00Z,28.42,129.72,13.0,6.0,360,18,,6.21,30.324802,,,,,,,,,,-SHRA,FEW,1500,SCT,2500,BKN,3500,,,VFR,,,,,,,,,,,,METAR,7.0
RJFU 180700Z 01013KT 9999 FEW035 06/M07 Q1029,RJFU,2014-12-18T07:00:00Z,32.92,129.92,6.0,-7.0,10,13,,6.21,30.383858,,,,,,,,,,,FEW,3500,,,,,,,VFR,,,,,,,,,,,,METAR,5.0
RJFT 180700Z 31006KT 280V030 9999 FEW045 04/M07 Q1028,RJFT,2014-12-18T07:00:00Z,32.82,130.83,4.0,-7.0,310,6,,6.21,30.35433,,,,,,,,,,,FEW,4500,,,,,,,VFR,,,,,,,,,,,,METAR,196.0
RJFR 180700Z 32015KT 9999 BKN035 03/M06 Q1030,RJFR,2014-12-18T07:00:00Z,33.82,131.03,3.0,-6.0,320,15,,6.21,30.413385,,,,,,,,,,,BKN,3500,,,,,,,VFR,,,,,,,,,,,,METAR,6.0
RJFO 180700Z 32012KT 9999 VCSH FEW025 SCT040 04/M06 Q1029,RJFO,2014-12-18T07:00:00Z,33.47,131.72,4.0,-6.0,320,12,,6.21,30.383858,,,,,,,,,,VCSH,FEW,2500,SCT,4000,,,,,VFR,,,,,,,,,,,,METAR,8.0
RJFM 180700Z 25012KT 9999 FEW030 09/M05 Q1026,RJFM,2014-12-18T07:00:00Z,31.87,131.43,9.0,-5.0,250,12,,6.21,30.295275,,,,,,,,,,,FEW,3000,,,,,,,VFR,,,,,,,,,,,,METAR,9.0
DTTN 180700Z 23008KT 9999 SCT020 SCT030 12/11 Q1020,DTTN,2014-12-18T07:00:00Z,36.47,8.8,12.0,11.0,230,8,,6.21,30.11811,,,,,,,,,,,SCT,2000,SCT,3000,,,,,VFR,,,,,,,,,,,,METAR,144.0
DTTL 180700Z VRB04KT 8000 BKN020 SCT030 13/12 Q1017,DTTL,2014-12-18T07:00:00Z,36.85,11.07,13.0,12.0,0,4,,4.97,30.029528,,,,,,,,,,,BKN,2000,SCT,3000,,,,,MVFR,,,,,,,,,,,,METAR,30.0
DTTK 180700Z 24002KT 9999 SCT023 SCT030 14/07 Q1020,DTTK,2014-12-18T07:00:00Z,35.67,10.08,14.0,7.0,240,2,,6.21,30.11811,,,,,,,,,,,SCT,2300,SCT,3000,,,,,VFR,,,,,,,,,,,,METAR,68.0
DTTD 180700Z 26006KT 220V290 CAVOK 09/04 Q1022,DTTD,2014-12-18T07:00:00Z,32.32,10.4,9.0,4.0,260,6,,6.21,30.177166,,,,,,,,,,,CAVOK,,,,,,,,VFR,,,,,,,,,,,,METAR,301.0
DTTB 180700Z 28014KT 6000 -RA SCT016 FEW023CB BKN030 14/13 Q1018 RMK CB/N,DTTB,2014-12-18T07:00:00Z,37.25,9.8,14.0,13.0,280,14,,3.73,30.059055,,,,,,,,,,-RA,SCT,1600,FEW,2300,BKN,3000,,,MVFR,,,,,,,,,,,,METAR,3.0
FBSP 180700Z 09010KT 9999 -DZ OVC020 20/20 Q1017,FBSP,2014-12-18T07:00:00Z,-22.05,27.82,20.0,20.0,90,10,,6.21,30.029528,,,,,,,,,,-DZ,OVC,2000,,,,,,,MVFR,,,,,,,,,,,,METAR,892.0
FBKE 180700Z 12005KT 080V160 9999 SCT020 SCT065 23/20 Q1018,FBKE,2014-12-18T07:00:00Z,-17.82,25.17,23.0,20.0,120,5,,6.21,30.059055,,,,,,,,,,,SCT,2000,SCT,6500,,,,,VFR,,,,,,,,,,,,METAR,1000.0
FBFT 180700Z 09005KT 9999 OVC015 22/19 Q1017,FBFT,2014-12-18T07:00:00Z,-21.17,27.48,22.0,19.0,90,5,,6.21,30.029528,,,,,,,,,,,OVC,1500,,,,,,,MVFR,,,,,,,,,,,,METAR,1000.0
FAPP 180700Z 06003KT 8000 OVC020 18/15 Q1019 NOSIG,FAPP,2014-12-18T07:00:00Z,-23.83,29.45,18.0,15.0,60,3,,4.97,30.088583,,,,,,TRUE,,,,,OVC,2000,,,,,,,MVFR,,,,,,,,,,,,METAR,1242.0
FAPE 180700Z 24019KT 9999 FEW013 22/15 Q1013 NOSIG,FAPE,2014-12-18T07:00:00Z,-33.97,25.6,22.0,15.0,240,19,,6.21,29.911417,,,,,,TRUE,,,,,FEW,1300,,,,,,,VFR,,,,,,,,,,,,METAR,60.0
FAOR 180700Z 36006KT 330V030 9999 BKN017 20/14 Q1023 NOSIG,FAOR,2014-12-18T07:00:00Z,-26.12,28.22,20.0,14.0,360,6,,6.21,30.206694,,,,,,TRUE,,,,,BKN,1700,,,,,,,MVFR,,,,,,,,,,,,METAR,1700.0
FAOB 180700Z 35003KT 9999 SCT025 23/// Q1013,FAOB,2014-12-18T07:00:00Z,-34.6,20.27,,,350,3,,6.21,29.911417,,,,,,,,,,,SCT,2500,,,,,,,VFR,,,,,,,,,,,,METAR,75.0
FAMM 180700Z 02003KT 9999 BKN025 22/16 Q1020 NOSIG,FAMM,2014-12-18T07:00:00Z,-25.8,25.52,22.0,16.0,20,3,,6.21,30.11811,,,,,,TRUE,,,,,BKN,2500,,,,,,,MVFR,,,,,,,,,,,,METAR,1277.0
FALW 180700Z AUTO 20011KT //// // ////// 22/13 Q1014,FALW,2014-12-18T07:00:00Z,-32.97,18.17,22.0,13.0,200,11,,,29.940945,,,TRUE,,,,,,,,,,,,,,,,,,,,,,,,,,,,SPECI,0.0
FALE 180700Z 08009KT CAVOK 25/19 Q1011 NOSIG,FALE,2014-12-18T07:00:00Z,-29.62,31.12,25.0,19.0,80,9,,6.21,29.852362,,,,,,TRUE,,,,,CAVOK,,,,,,,,VFR,,,,,,,,,,,,METAR,109.0
FAKN 180700Z AUTO 07001KT //// // ////// 23/17 Q1018,FAKN,2014-12-18T07:00:00Z,-25.38,31.1,23.0,17.0,70,1,,,30.059055,,,TRUE,,,,,,,,,,,,,,,,,,,,,,,,,,,,METAR,862.0
FAGG 180700Z 25006KT 170V280 9999 SCT020 20/14 Q1014,FAGG,2014-12-18T07:00:00Z,-34.0,22.37,20.0,14.0,250,6,,6.21,29.940945,,,,,,,,,,,SCT,2000,,,,,,,VFR,,,,,,,,,,,,METAR,193.0
FAEL 180700Z 22013KT CAVOK 24/15 Q1012,FAEL,2014-12-18T07:00:00Z,-33.02,27.82,24.0,15.0,220,13,,6.21,29.88189,,,,,,,,,,,CAVOK,,,,,,,,VFR,,,,,,,,,,,,METAR,125.0
FACT 180700Z 17014KT 140V200 9999 FEW020 22/14 Q1014 NOSIG,FACT,2014-12-18T07:00:00Z,-33.97,18.6,22.0,14.0,170,14,,6.21,29.940945,,,,,,TRUE,,,,,FEW,2000,,,,,,,VFR,,,,,,,,,,,,METAR,42.0
FABL 180700Z 03004KT 340V070 9999 BKN015 20/16 Q1020 NOSIG,FABL,2014-12-18T07:00:00Z,-29.1,26.3,20.0,16.0,30,4,,6.21,30.11811,,,,,,TRUE,,,,,BKN,1500,,,,,,,MVFR,,,,,,,,,,,,METAR,1348.0
RKNY 180700Z 28005KT CAVOK M01/M22 Q1030 NOSIG,RKNY,2014-12-18T07:00:00Z,38.07,128.67,-1.0,-22.0,280,5,,6.21,30.413385,,,,,,TRUE,,,,,CAVOK,,,,,,,,VFR,,,,,,,,,,,,METAR,74.0
RKJB 180700Z 04009KT CAVOK M00/M07 Q1033 NOSIG,RKJB,2014-12-18T07:00:00Z,34.98,126.38,0.0,-7.0,40,9,,6.21,30.501968,,,,,,TRUE,,,,,CAVOK,,,,,,,,VFR,,,,,,,,,,,,METAR,2.0
RKTN 180700Z 31010KT CAVOK 01/M20 Q1031 NOSIG,RKTN,2014-12-18T07:00:00Z,35.88,128.65,1.0,-20.0,310,10,,6.21,30.442913,,,,,,TRUE,,,,,CAVOK,,,,,,,,VFR,,,,,,,,,,,,METAR,35.0
RKTU 180700Z 31003KT CAVOK M01/M17 Q1033 NOSIG,RKTU,2014-12-18T07:00:00Z,36.7,127.5,-1.0,-17.0,310,3,,6.21,30.501968,,,,,,TRUE,,,,,CAVOK,,,,,,,,VFR,,,,,,,,,,,,METAR,66.0
RKPK 180700Z 36010KT CAVOK 04/M20 Q1031 NOSIG,RKPK,2014-12-18T07:00:00Z,35.17,128.92,4.0,-20.0,360,10,,6.21,30.442913,,,,,,TRUE,,,,,CAVOK,,,,,,,,VFR,,,,,,,,,,,,METAR,15.0
RKPC 180700Z 02007KT 9999 FEW030 04/M06 Q1034 NOSIG,RKPC,2014-12-18T07:00:00Z,33.5,126.48,4.0,-6.0,20,7,,6.21,30.531496,,,,,,TRUE,,,,,FEW,3000,,,,,,,VFR,,,,,,,,,,,,METAR,27.0
RKSS 180700Z 02005KT CAVOK M04/M25 Q1034 NOSIG,RKSS,2014-12-18T07:00:00Z,37.53,126.78,-4.0,-25.0,20,5,,6.21,30.531496,,,,,,TRUE,,,,,CAVOK,,,,,,,,VFR,,,,,,,,,,,,METAR,19.0
SBSN 180700Z 11005KT 9999 SCT010 SCT015 25/24 Q1009,SBSN,2014-12-18T07:00:00Z,-2.42,-54.78,25.0,24.0,110,5,,6.21,29.793306,,,,,,,,,,,SCT,1000,SCT,1500,,,,,VFR,,,,,,,,,,,,METAR,72.0
LETO 180700Z 00000KT 7000 NSC 01/01 Q1028 NOSIG,LETO,2014-12-18T07:00:00Z,40.47,-3.47,1.0,1.0,0,0,,4.35,30.35433,,,,,,TRUE,,,,,,,,,,,,,,,,,,,,,,,,,METAR,608.0
LELN 180700Z VRB02KT 5000 0700SW BR BCFG BKN005 02/01 Q1029,LELN,2014-12-18T07:00:00Z,42.57,-5.65,2.0,1.0,0,2,,3.11,30.383858,,,,,,,,,,BCFG BR,BKN,500,,,,,,,IFR,,,,,,,,,,,,METAR,914.0
LELC 180700Z 27006KT CAVOK 09/06 Q1024 NOSIG,LELC,2014-12-18T07:00:00Z,37.77,-0.8,9.0,6.0,270,6,,6.21,30.236221,,,,,,TRUE,,,,,CAVOK,,,,,,,,VFR,,,,,,,,,,,,METAR,3.0
LEBZ 180700Z VRB02KT 0600 R31/0700N FG VV001 07/07 Q1028,LEBZ,2014-12-18T07:00:00Z,38.87,-6.82,7.0,7.0,0,2,,0.37,30.35433,,,,,,,,,,FG,OVX,0,,,,,,,LIFR,,,,,,,,,,,100,METAR,192.0
LEAB 180700Z 17003KT 9000 NSC 00/00 Q1026 NOSIG,LEAB,2014-12-18T07:00:00Z,38.95,-1.85,0.0,0.0,170,3,,5.59,30.295275,,,,,,TRUE,,,,,,,,,,,,,,,,,,,,,,,,,METAR,704.0
GCGM 180700Z 00000KT 9999 FEW030 17/13 Q1024 RMK CAB09 00000KT,GCGM,2014-12-18T07:00:00Z,28.03,-17.22,17.0,13.0,0,0,,6.21,30.236221,,,,,,,,,,,FEW,3000,,,,,,,VFR,,,,,,,,,,,,METAR,219.0
GCHI 180700Z 05014KT 9999 FEW023 SCT050 20/16 Q1024,GCHI,2014-12-18T07:00:00Z,27.82,-17.87,20.0,16.0,50,14,,6.21,30.236221,,,,,,,,,,,FEW,2300,SCT,5000,,,,,VFR,,,,,,,,,,,,METAR,30.0
OYSN 180700Z 15003KT CAVOK 14/02 Q1030,OYSN,2014-12-18T07:00:00Z,15.48,44.22,14.0,2.0,150,3,,6.21,30.413385,,,,,,,,,,,CAVOK,,,,,,,,VFR,,,,,,,,,,,,METAR,2190.0
YPEA 180700Z AUTO 26004KT //// // NCD 32/03 Q1013,YPEA,2014-12-18T07:00:00Z,-31.67,116.02,32.0,3.0,260,4,,,29.911417,,,TRUE,,,,,,,,,,,,,,,,,,,,,,,,,,,,METAR,49.0
ZWSH 180700Z 00000MPS 6000 NSC M02/M10 Q1027 NOSIG,ZWSH,2014-12-18T07:00:00Z,39.55,76.02,-2.0,-10.0,0,0,,3.73,30.324802,,,,,,TRUE,,,,,,,,,,,,,,,,,,,,,,,,,METAR,1291.0
ZBSJ 180700Z 06003MPS 1400 R15/1400D HZ NSC 05/M10 Q1025 NOSIG,ZBSJ,2014-12-18T07:00:00Z,38.28,114.7,5.0,-10.0,60,6,,0.87,30.265747,,,,,,TRUE,,,,HZ,,,,,,,,,,,,,,,,,,,,,METAR,71.0
ZGKL 180700Z 10003MPS 060V150 CAVOK 15/M12 Q1025 NOSIG,ZGKL,2014-12-18T07:00:00Z,25.22,110.03,15.0,-12.0,100,6,,6.21,30.265747,,,,,,TRUE,,,,,CAVOK,,,,,,,,VFR,,,,,,,,,,,,METAR,166.0
ZGNN 180700Z 11003MPS 040V160 CAVOK 17/M05 Q1024 NOSIG,ZGNN,2014-12-18T07:00:00Z,22.62,108.17,17.0,-5.0,110,6,,6.21,30.236221,,,,,,TRUE,,,,,CAVOK,,,,,,,,VFR,,,,,,,,,,,,METAR,73.0
ZGOW 180700Z 03003MPS 360V060 9999 BKN050 17/03 Q1025 NOSIG,ZGOW,2014-12-18T07:00:00Z,23.55,116.5,17.0,3.0,30,6,,6.21,30.265747,,,,,,TRUE,,,,,BKN,5000,,,,,,,VFR,,,,,,,,,,,,METAR,3.0
ZGSZ 180700Z 02004MPS 9999 BKN033 14/M04 Q1024 NOSIG,ZGSZ,2014-12-18T07:00:00Z,22.63,113.8,14.0,-4.0,20,8,,6.21,30.236221,,,,,,TRUE,,,,,BKN,3300,,,,,,,VFR,,,,,,,,,,,,METAR,18.0
ZLXY 180700Z 14002MPS 100V190 3000 HZ NSC 06/M09 Q1026 NOSIG,ZLXY,2014-12-18T07:00:00Z,34.43,108.75,6.0,-9.0,140,4,,1.86,30.295275,,,,,,TRUE,,,,HZ,,,,,,,,,,,,,,,,,,,,,METAR,479.0
ZPPP 180700Z 20002MPS 160V220 2800 -SHRA BR SCT010 FEW016TCU SCT016 OVC030 03/03 Q1023 BECMG TL0800 3500,ZPPP,2014-12-18T07:00:00Z,25.0,102.75,3.0,3.0,200,4,,1.74,30.206694,,,,,,,,,,-SHRA BR,SCT,1000,FEW,1600,SCT,1600,OVC,3000,IFR,,,,,,,,,,,,METAR,1892.0
ZSAM 180700Z 05005MPS CAVOK 16/04 Q1026 NOSIG,ZSAM,2014-12-18T07:00:00Z,24.53,118.13,16.0,4.0,50,10,,6.21,30.295275,,,,,,TRUE,,,,,CAVOK,,,,,,,,VFR,,,,,,,,,,,,METAR,139.0
ZSFZ 180700Z 03009MPS CAVOK 12/03 Q1029 NOSIG,ZSFZ,2014-12-18T07:00:00Z,25.93,119.67,12.0,3.0,30,17,,6.21,30.383858,,,,,,TRUE,,,,,CAVOK,,,,,,,,VFR,,,,,,,,,,,,METAR,85.0
ZSNB 180700Z 13002MPS 080V190 CAVOK 10/M06 Q1032 NOSIG,ZSNB,2014-12-18T07:00:00Z,29.83,121.47,10.0,-6.0,130,4,,6.21,30.47244,,,,,,TRUE,,,,,CAVOK,,,,,,,,VFR,,,,,,,,,,,,METAR,4.0
ZSQD 180700Z 20006MPS CAVOK 07/M09 Q1031 NOSIG,ZSQD,2014-12-18T07:00:00Z,36.27,120.38,7.0,-9.0,200,12,,6.21,30.442913,,,,,,TRUE,,,,,CAVOK,,,,,,,,VFR,,,,,,,,,,,,METAR,77.0
ZUGY 180700Z 01004MPS 9999 BKN040 07/M02 Q1024 NOSIG,ZUGY,2014-12-18T07:00:00Z,26.53,106.8,7.0,-2.0,10,8,,6.21,30.236221,,,,,,TRUE,,,,,BKN,4000,,,,,,,VFR,,,,,,,,,,,,METAR,1074.0
ZUUU 180700Z VRB01MPS CAVOK 10/M04 Q1028 NOSIG,ZUUU,2014-12-18T07:00:00Z,30.58,103.95,10.0,-4.0,0,2,,6.21,30.35433,,,,,,TRUE,,,,,CAVOK,,,,,,,,VFR,,,,,,,,,,,,METAR,508.0
VTCL 180700Z VRB02KT 8000 SCT025 BKN120 25/15 Q1017 A3003 INFO: H,VTCL,2014-12-18T07:00:00Z,18.27,99.52,25.0,15.0,0,2,,4.97,30.029528,,,,,,,,,,,SCT,2500,BKN,12000,,,,,MVFR,,,,,,,,,,,,METAR,242.0
FNLU 180700Z 20005KT 9999 FEW020 BKN023 26/21 Q1014 NOSIG,FNLU,2014-12-18T07:00:00Z,-8.83,13.22,26.0,21.0,200,5,,6.21,29.940945,,,,,,TRUE,,,,,FEW,2000,BKN,2300,,,,,MVFR,,,,,,,,,,,,METAR,70.0
SCPQ 180700Z AUTO 02003KT 9999 OVC033 10/07 Q1020,SCPQ,2014-12-18T07:00:00Z,-42.33,-73.72,10.0,7.0,20,3,,6.21,30.11811,,,TRUE,,,,,,,,OVC,3300,,,,,,,VFR,,,,,,,,,,,,METAR,5.0
SCIP 180700Z 12010KT 6000 -SHRA SCT017 BKN020 22/18 Q1029 NOSIG,SCIP,2014-12-18T07:00:00Z,-27.17,-109.43,22.0,18.0,120,10,,3.73,30.383858,,,,,,TRUE,,,,-SHRA,SCT,1700,BKN,2000,,,,,MVFR,,,,,,,,,,,,METAR,69.0
SCEL 180700Z VRB01KT CAVOK 15/05 Q1016 NOSIG,SCEL,2014-12-18T07:00:00Z,-33.37,-70.77,15.0,5.0,0,1,,6.21,30.0,,,,,,TRUE,,,,,CAVOK,,,,,,,,VFR,,,,,,,,,,,,METAR,476.0
SCCI 180700Z 30012KT 9999 -RA FEW020 OVC060 07/06 Q0981 NOSIG,SCCI,2014-12-18T07:00:00Z,-53.0,-70.83,7.0,6.0,300,12,,6.21,28.966536,,,,,,TRUE,,,,-RA,FEW,2000,OVC,6000,,,,,VFR,,,,,,,,,,,,METAR,37.0
SCVD 180700Z AUTO 00000KT CAVOK 07/07 Q1020,SCVD,2014-12-18T07:00:00Z,-39.65,-73.07,7.0,7.0,0,0,,6.21,30.11811,,,TRUE,,,,,,,,CAVOK,,,,,,,,VFR,,,,,,,,,,,,METAR,14.0
SCTE 180700Z 00000KT 9999 OVC040 10/09 Q1021 NOSIG,SCTE,2014-12-18T07:00:00Z,-41.42,-73.07,10.0,9.0,0,0,,6.21,30.147638,,,,,,TRUE,,,,,OVC,4000,,,,,,,VFR,,,,,,,,,,,,METAR,86.0
SCQP 180700Z 25004KT 230V290 9999 OVC006 10/09 Q1020,SCQP,2014-12-18T07:00:00Z,,,10.0,9.0,250,4,,6.21,30.11811,,,,,,,,,,,OVC,600,,,,,,,IFR,,,,,,,,,,,,METAR,
SCSE 180700Z VRB01KT 9999 OVC013 14/12 Q1014,SCSE,2014-12-18T07:00:00Z,-29.92,-71.2,14.0,12.0,0,1,,6.21,29.940945,,,,,,,,,,,OVC,1300,,,,,,,MVFR,,,,,,,,,,,,METAR,146.0
SCDA 180700Z 17005KT 9999 FEW025 18/13 Q1016,SCDA,2014-12-18T07:00:00Z,-20.52,-70.17,18.0,13.0,170,5,,6.21,30.0,,,,,,,,,,,FEW,2500,,,,,,,VFR,,,,,,,,,,,,METAR,52.0
SCIE 180700Z 22009KT CAVOK 11/08 Q1017,SCIE,2014-12-18T07:00:00Z,-36.77,-73.07,11.0,8.0,220,9,,6.21,30.029528,,,,,,,,,,,CAVOK,,,,,,,,VFR,,,,,,,,,,,,METAR,16.0
SCCF 180700Z 09011KT CAVOK 06/M07 Q1026,SCCF,2014-12-18T07:00:00Z,-22.5,-68.9,6.0,-7.0,90,11,,6.21,30.295275,,,,,,,,,,,CAVOK,,,,,,,,VFR,,,,,,,,,,,,METAR,2312.0
SCFA 180700Z 11003KT 9999 BKN017 17/11 Q1016 NOSIG,SCFA,2014-12-18T07:00:00Z,-23.42,-70.42,17.0,11.0,110,3,,6.21,30.0,,,,,,TRUE,,,,,BKN,1700,,,,,,,MVFR,,,,,,,,,,,,METAR,120.0
ORER 180700Z VRB02KT 7000 FEW025 BKN050 08/07 Q1023 NOSIG,ORER,2014-12-18T07:00:00Z,36.23,43.97,8.0,7.0,0,2,,4.35,30.206694,,,,,,TRUE,,,,,FEW,2500,BKN,5000,,,,,MVFR,,,,,,,,,,,,METAR,409.0
OSLK 180700Z 05004KT 9999 SCT030 BKN100 14/08 Q1020,OSLK,2014-12-18T07:00:00Z,35.4,35.95,14.0,8.0,50,4,,6.21,30.11811,,,,,,,,,,,SCT,3000,BKN,10000,,,,,VFR,,,,,,,,,,,,METAR,7.0
OSDI 180700Z 00000KT 7000 08/06 Q1023,OSDI,2014-12-18T07:00:00Z,33.42,36.52,8.0,6.0,0,0,,4.35,30.206694,,,,,,,,,,,,,,,,,,,,,,,,,,,,,,,METAR,605.0
VTCN 180700Z 36003KT 9999 FEW025 26/08 Q1016 A3003 RWY/02 INFO/M,VTCN,2014-12-18T07:00:00Z,18.82,100.77,26.0,8.0,360,3,,6.21,30.0,,,,,,,,,,,FEW,2500,,,,,,,VFR,,,,,,,,,,,,METAR,201.0
VTCP 180700Z 36004KT 6000 FEW025 BKN120 OVC300 27/12 Q1016 A3001 INFO G RWY01,VTCP,2014-12-18T07:00:00Z,18.13,100.17,27.0,12.0,360,4,,3.73,30.0,,,,,,,,,,,FEW,2500,BKN,12000,OVC,30000,,,MVFR,,,,,,,,,,,,METAR,162.0
VTPP 180700Z 16004KT 7000 FEW030 SCT300 28/12 Q1015,VTPP,2014-12-18T07:00:00Z,16.78,100.28,28.0,12.0,160,4,,4.35,29.970472,,,,,,,,,,,FEW,3000,SCT,30000,,,,,MVFR,,,,,,,,,,,,METAR,44.0
VTBO 180700Z 03020KT 8000 NSC 27/15 Q1012,VTBO,2014-12-18T07:00:00Z,12.28,102.32,27.0,15.0,30,20,,4.97,29.88189,,,,,,,,,,,,,,,,,,,,,,,,,,,,,,,METAR,32.0
VTUD 180700Z 07006KT 350V140 9000 NSC 25/07 Q1017 A3005 INFO I RWY30,VTUD,2014-12-18T07:00:00Z,17.37,102.78,25.0,7.0,70,6,,5.59,30.029528,,,,,,,,,,,,,,,,,,,,,,,,,,,,,,,METAR,182.0
VTUI 180700Z 08009KT CAVOK 23/10 Q1018 A3007 RWY05 INFO I,VTUI,2014-12-18T07:00:00Z,17.2,104.12,23.0,10.0,80,9,,6.21,30.059055,,,,,,,,,,,CAVOK,,,,,,,,VFR,,,,,,,,,,,,METAR,172.0
VTUK 180700Z 05009KT 350V090 9000 NSC 26/08 Q1017 A3003 RWY 03 INFO I,VTUK,2014-12-18T07:00:00Z,16.47,102.78,26.0,8.0,50,9,,5.59,30.029528,,,,,,,,,,,,,,,,,,,,,,,,,,,,,,,METAR,204.0
VTUO 180700Z 01004KT CAVOK 27/16 Q1015 A2999 INFO H RWY 04,VTUO,2014-12-18T07:00:00Z,15.23,103.25,27.0,16.0,10,4,,6.21,29.970472,,,,,,,,,,,CAVOK,,,,,,,,VFR,,,,,,,,,,,,METAR,183.0
VTUU 180700Z 04009KT 9999 FEW120 BKN300 27/13 Q1014 A2996 NOSIG,VTUU,2014-12-18T07:00:00Z,15.25,104.87,27.0,13.0,40,9,,6.21,29.940945,,,,,,TRUE,,,,,FEW,12000,BKN,30000,,,,,VFR,,,,,,,,,,,,METAR,127.0
VTUW 180700Z 06009KT 8000 SCT035 BKN120 23/08 Q1017 A3005 RWY15 INFO G,VTUW,2014-12-18T07:00:00Z,17.38,104.63,23.0,8.0,60,9,,4.97,30.029528,,,,,,,,,,,SCT,3500,BKN,12000,,,,,MVFR,,,,,,,,,,,,METAR,184.0
VTSB 180700Z 03017KT 5000 BR BKN018 OVC120 26/26 Q1012 A2988 RERA,VTSB,2014-12-18T07:00:00Z,9.12,99.13,26.0,26.0,30,17,,3.11,29.88189,,,,,,,,,,BR,BKN,1800,OVC,12000,,,,,MVFR,,,,,,,,,,,,METAR,11.0
VTSF 180700Z 04009KT 010V070 9000 BKN016 OVC300 27/23 Q1011 A2986 INFO H / RWY 01,VTSF,2014-12-18T07:00:00Z,8.53,99.95,27.0,23.0,40,9,,5.59,29.852362,,,,,,,,,,,BKN,1600,OVC,30000,,,,,MVFR,,,,,,,,,,,,METAR,4.0
VTSG 180700Z 02006KT 330V060 9000 BKN020 27/23 Q1011 A2986 INFO M RWY32,VTSG,2014-12-18T07:00:00Z,8.1,98.98,27.0,23.0,20,6,,5.59,29.852362,,,,,,,,,,,BKN,2000,,,,,,,MVFR,,,,,,,,,,,,METAR,25.0
VTSH 180700Z 05008KT 7000 FEW018 SCT030 BKN120 27/25 Q1010 A2983,VTSH,2014-12-18T07:00:00Z,7.2,100.58,27.0,25.0,50,8,,4.35,29.822834,,,,,,,,,,,FEW,1800,SCT,3000,BKN,12000,,,MVFR,,,,,,,,,,,,METAR,5.0
VTSM 180700Z 02012KT 8000 FEW020 SCT120 BKN300 28/22 Q1012 A2990,VTSM,2014-12-18T07:00:00Z,9.55,100.07,28.0,22.0,20,12,,4.97,29.88189,,,,,,,,,,,FEW,2000,SCT,12000,BKN,30000,,,MVFR,,,,,,,,,,,,METAR,17.0
RJNK 180700Z 33018KT 9999 -SHSN SCT005 BKN008 BKN015 FEW015CB 03/00 Q1023,RJNK,2014-12-18T07:00:00Z,36.37,136.42,3.0,0.0,330,18,,6.21,30.206694,,,,,,,,,,-SHSN,SCT,500,BKN,800,BKN,1500,FEW,1500,IFR,,,,,,,,,,,,METAR,9.0
CYBK 180700Z 35010KT 5/8SM -SN BR BKN015 M16/M18 A2994 RMK FG5ST2 SLP142,CYBK,2014-12-18T07:00:00Z,64.28,-96.07,-16.0,-18.0,350,10,,0.63,29.940945,1014.2,,,,,,,,,-SN BR,BKN,1500,,,,,,,LIFR,,,,,,,,,,,,METAR,18.0
CYBQ 180700Z AUTO 00000KT 9SM BKN007 M16/M17 A2996 RMK SLP177,CYBQ,2014-12-18T07:00:00Z,58.7,-98.5,-16.0,-17.0,0,0,,9.0,29.958662,1017.7,,TRUE,,,,,,,,BKN,700,,,,,,,IFR,,,,,,,,,,,,METAR,262.0
CYBU 180700Z AUTO 18008KT 9SM -SN OVC013 M08/M10 A3004 RMK SLP200,CYBU,2014-12-18T07:00:00Z,53.32,-104.0,-8.0,-10.0,180,8,,9.0,30.041338,1020.0,,TRUE,,,,,,,-SN,OVC,1300,,,,,,,MVFR,,,,,,,,,,,,METAR,374.0
CYDN 180700Z AUTO 24005KT 9SM CLR M16/M17 A3018 RMK SLP250,CYDN,2014-12-18T07:00:00Z,51.1,-100.03,-16.0,-17.0,240,5,,9.0,30.180119,1025.0,,TRUE,,,,,,,,CLR,,,,,,,,VFR,,,,,,,,,,,,METAR,305.0
CYET 180700Z AUTO 27007KT 9SM CLR M14/M15 A2979 RMK SLP162,CYET,2014-12-18T07:00:00Z,53.57,-116.47,-14.0,-15.0,270,7,,9.0,29.790354,1016.2,,TRUE,,,,,,,,CLR,,,,,,,,VFR,,,,,,,,,,,,METAR,925.0
CYEN 180700Z 17009KT 15SM -SN OVC012 M09/M11 A3007 RMK SC8 SLP223,CYEN,2014-12-18T07:00:00Z,49.22,-102.97,-9.0,-11.0,170,9,,15.0,30.070866,1022.3,,,,,,,,,-SN,OVC,1200,,,,,,,MVFR,,,,,,,,,,,,METAR,581.0
CYOJ 180700Z AUTO 00000KT 9SM FEW150 M20/M22 A2976 RMK SLP114,CYOJ,2014-12-18T07:00:00Z,58.62,-117.17,-20.0,-22.0,0,0,,9.0,29.760826,1011.4,,TRUE,,,,,,,,FEW,15000,,,,,,,VFR,,,,,,,,,,,,METAR,338.0
CYMM 180700Z AUTO 19005KT 9SM OVC014 M06/M07 A2984 RMK SLP134,CYMM,2014-12-18T07:00:00Z,56.65,-111.22,-6.0,-7.0,190,5,,9.0,29.840551,1013.4,,TRUE,,,,,,,,OVC,1400,,,,,,,MVFR,,,,,,,,,,,,METAR,369.0
FWKI 180700Z 20006KT 9999 FEW027 SCT090 27/17 Q1019 NOSIG,FWKI,2014-12-18T07:00:00Z,-13.77,33.77,27.0,17.0,200,6,,6.21,30.088583,,,,,,TRUE,,,,,FEW,2700,SCT,9000,,,,,VFR,,,,,,,,,,,,METAR,1229.0
FCBB 180700Z VRB02KT 7000 FEW016 26/21 Q1015 NOSIG,FCBB,2014-12-18T07:00:00Z,-4.25,15.25,26.0,21.0,0,2,,4.35,29.970472,,,,,,TRUE,,,,,FEW,1600,,,,,,,MVFR,,,,,,,,,,,,METAR,316.0
FCPP 180700Z 15006KT 6000 SCT006 OVC023 FEW030CB 27/25 Q1013 NOSIG,FCPP,2014-12-18T07:00:00Z,-4.82,11.9,27.0,25.0,150,6,,3.73,29.911417,,,,,,TRUE,,,,,SCT,600,OVC,2300,FEW,3000,,,MVFR,,,,,,,,,,,,METAR,17.0
FEFF 180700Z VRB02KT 2000 BR SCT003 BKN150 23/23 Q1014 TEMPO 3000,FEFF,2014-12-18T07:00:00Z,4.4,18.52,23.0,23.0,0,2,,1.24,29.940945,,,,,,,,,,BR,SCT,300,BKN,15000,,,,,IFR,,,,,,,,,,,,METAR,366.0
FEFT 180700Z 00000KT 1000 BCFG BKN002 22/22 Q1011,FEFT,2014-12-18T07:00:00Z,4.25,15.8,22.0,22.0,0,0,,0.62,29.852362,,,,,,,,,,BCFG,BKN,200,,,,,,,LIFR,,,,,,,,,,,,METAR,583.0
CYIN 180700Z AUTO 15004KT 9SM BKN100 OVC120 M02/M04 A2976 RMK SLP116,CYIN,2014-12-18T07:00:00Z,51.27,-121.68,-2.0,-4.0,150,4,,9.0,29.760826,1011.6,,TRUE,,,,,,,,BKN,10000,OVC,12000,,,,,VFR,,,,,,,,,,,,METAR,1128.0
CBBC 180700Z AUTO 12004KT 9SM BKN140 03/01 A2985 RMK SLP110,CBBC,2014-12-18T07:00:00Z,52.18,-128.15,3.0,1.0,120,4,,9.0,29.84941,1011.0,,TRUE,,,,,,,,BKN,14000,,,,,,,VFR,,,,,,,,,,,,METAR,43.0
CYZH 180700Z AUTO 16003KT 9SM BKN150 OVC170 M12/M13 A2983 RMK SLP142,CYZH,2014-12-18T07:00:00Z,55.28,-114.77,-12.0,-13.0,160,3,,9.0,29.828741,1014.2,,TRUE,,,,,,,,BKN,15000,OVC,17000,,,,,VFR,,,,,,,,,,,,METAR,581.0
CYQW 180700Z AUTO 15006KT 9SM OVC005 M07/M08 A2994 RMK SLP175,CYQW,2014-12-18T07:00:00Z,52.77,-108.25,-7.0,-8.0,150,6,,9.0,29.940945,1017.5,,TRUE,,,,,,,,OVC,500,,,,,,,IFR,,,,,,,,,,,,METAR,548.0
CYQR 180700Z 19012G19KT 6SM BR OVC006 M08/M09 A3002 RMK SF8 SLP206,CYQR,2014-12-18T07:00:00Z,50.43,-104.67,-8.0,-9.0,190,12,19,6.0,30.02067,1020.6,,,,,,,,,BR,OVC,600,,,,,,,IFR,,,,,,,,,,,,METAR,577.0
CYQL 180700Z AUTO 20007KT 9SM FEW200 M04/M06 A2984 RMK SLP148,CYQL,2014-12-18T07:00:00Z,49.63,-112.8,-4.0,-6.0,200,7,,9.0,29.840551,1014.8,,TRUE,,,,,,,,FEW,20000,,,,,,,VFR,,,,,,,,,,,,METAR,929.0
CYPY 180700Z AUTO 07003KT 020V190 9SM SCT160 M09/M10 A2978 RMK SLP103,CYPY,2014-12-18T07:00:00Z,58.77,-111.12,-9.0,-10.0,70,3,,9.0,29.778543,1010.3,,TRUE,,,,,,,,SCT,16000,,,,,,,VFR,,,,,,,,,,,,METAR,232.0
CYPA 180700Z 21004KT 15SM -SN OVC009 M08/M10 A3000 RMK SC8 SLP190,CYPA,2014-12-18T07:00:00Z,53.22,-105.67,-8.0,-10.0,210,4,,15.0,30.0,1019.0,,,,,,,,,-SN,OVC,900,,,,,,,IFR,,,,,,,,,,,,METAR,428.0
CYQH 180700Z 31002KT 40SM SKC M29/M32 A2979 RMK SLP168,CYQH,2014-12-18T07:00:00Z,60.12,-128.82,-29.0,-32.0,310,2,,40.0,29.790354,1016.8,,,,,,,,,,SKC,,,,,,,,VFR,,,,,,,,,,,,METAR,690.0
CYWL 180700Z 13006KT 15SM SCT015 BKN050 M00/M02 A2979 RMK SC4SC2 SLP122,CYWL,2014-12-18T07:00:00Z,52.18,-122.07,0.0,-2.0,130,6,,15.0,29.790354,1012.2,,,,,,,,,,SCT,1500,BKN,5000,,,,,VFR,,,,,,,,,,,,METAR,940.0
CYXJ 180700Z 36003KT 15SM BKN120 M14/M16 A2976 RMK AC7 SLP137,CYXJ,2014-12-18T07:00:00Z,56.25,-120.73,-14.0,-16.0,360,3,,15.0,29.760826,1013.7,,,,,,,,,,BKN,12000,,,,,,,VFR,,,,,,,,,,,,METAR,695.0
CWRF 180700Z AUTO ///// M28/ A2988 RMK SLP177,CWRF,2014-12-18T07:00:00Z,69.42,-89.72,-28.0,,,,,,29.878937,1017.7,,TRUE,,,,,,,,,,,,,,,,,,,,,,,,,,,,METAR,325.0
CWVD 180700Z AUTO 34012KT M21/ A2942 RMK SLP037,CWVD,2014-12-18T07:00:00Z,67.52,-63.77,-21.0,,340,12,,,29.421259,1003.7,,TRUE,,,,,,,,,,,,,,,,,,,,,,,,,,,,METAR,573.0
CYBW 180700Z AUTO 31005KT 9SM CLR M07/M10 A2979 RMK SLP151,CYBW,2014-12-18T07:00:00Z,51.1,-114.37,-7.0,-10.0,310,5,,9.0,29.790354,1015.1,,TRUE,,,,,,,,CLR,,,,,,,,VFR,,,,,,,,,,,,METAR,1200.0
CYCY 180700Z AUTO 31015KT 9SM CLR M24/M27 A2981 RMK SLP098,CYCY,2014-12-18T07:00:00Z,70.47,-68.52,-24.0,-27.0,310,15,,9.0,29.811024,1009.8,,TRUE,,,,,,,,CLR,,,,,,,,VFR,,,,,,,,,,,,METAR,26.0
CYKF 180700Z AUTO 26010G15KT 9SM OVC014 M02/M03 A3001 RMK SLP174,CYKF,2014-12-18T07:00:00Z,43.47,-80.38,-2.0,-3.0,260,10,15,9.0,30.008858,1017.4,,TRUE,,,,,,,,OVC,1400,,,,,,,MVFR,,,,,,,,,,,,METAR,317.0
CYKL 180700Z AUTO VRB02KT 9SM CLR M31/M33 A3004 RMK SLP241,CYKL,2014-12-18T07:00:00Z,54.78,-66.82,-31.0,-33.0,0,2,,9.0,30.041338,1024.1,,TRUE,,,,,,,,CLR,,,,,,,,VFR,,,,,,,,,,,,METAR,521.0
CYKP 180700Z AUTO 28007KT 9SM CLR M18/M20 A3030 RMK SLP280,CYKP,2014-12-18T07:00:00Z,51.67,-85.9,-18.0,-20.0,280,7,,9.0,30.301182,1028.0,,TRUE,,,,,,,,CLR,,,,,,,,VFR,,,,,,,,,,,,METAR,179.0
CYKZ 180700Z 29006KT 15SM BKN030 M01/M04 A2998 RMK SC7 SLP159,CYKZ,2014-12-18T07:00:00Z,43.87,-79.37,-1.0,-4.0,290,6,,15.0,29.97933,1015.9,,,,,,,,,,BKN,3000,,,,,,,MVFR,,,,,,,,,,,,METAR,198.0
CYLH 180700Z AUTO 25006KT 9SM CLR M18/M19 A3030 RMK SLP290,CYLH,2014-12-18T07:00:00Z,52.2,-87.93,-18.0,-19.0,250,6,,9.0,30.301182,1029.0,,TRUE,,,,,,,,CLR,,,,,,,,VFR,,,,,,,,,,,,METAR,254.0
CYOO 180700Z AUTO 26008KT 9SM BKN022 OVC029 M00/M03 A2997 RMK SLP153,CYOO,2014-12-18T07:00:00Z,43.92,-78.9,0.0,-3.0,260,8,,9.0,29.970472,1015.3,,TRUE,,,,,,,,BKN,2200,OVC,2900,,,,,MVFR,,,,,,,,,,,,METAR,139.0
CYRB 180700Z 32009KT 15SM IC FEW013 M33/M37 A3006 RMK SC1 WND ESTD SC TR PRESRR SLP194,CYRB,2014-12-18T07:00:00Z,74.72,-94.97,-33.0,-37.0,320,9,,15.0,30.059055,1019.4,,,,,,,,,IC,FEW,1300,,,,,,,VFR,,,,,,,,,,,,METAR,67.0
CYVQ 180700Z VRB02KT 30SM IC FEW040 BKN090 M19/M22 A2976 RMK SC2AC5 SLP087,CYVQ,2014-12-18T07:00:00Z,65.27,-126.78,-19.0,-22.0,0,2,,30.0,29.760826,1008.7,,,,,,,,,IC,FEW,4000,BKN,9000,,,,,VFR,,,,,,,,,,,,METAR,74.0
CYYU 180700Z 34006KT 15SM SKC M19/M22 A3023 RMK SLP262,CYYU,2014-12-18T07:00:00Z,49.42,-82.47,-19.0,-22.0,340,6,,15.0,30.230314,1026.2,,,,,,,,,,SKC,,,,,,,,VFR,,,,,,,,,,,,METAR,227.0
CZMD 180700Z AUTO 22003KT 9SM CLR M21/M23 A3027 RMK SLP283,CZMD,2014-12-18T07:00:00Z,53.43,-91.77,-21.0,-23.0,220,3,,9.0,30.268702,1028.3,,TRUE,,,,,,,,CLR,,,,,,,,VFR,,,,,,,,,,,,METAR,278.0
CZSJ 180700Z AUTO 19003KT 9SM CLR M21/M23 A3028 RMK SLP287,CZSJ,2014-12-18T07:00:00Z,53.07,-93.35,-21.0,-23.0,190,3,,9.0,30.280512,1028.7,,TRUE,,,,,,,,CLR,,,,,,,,VFR,,,,,,,,,,,,METAR,290.0
CYAH 180700Z AUTO VRB02KT 9SM CLR M26/M28 A3010 RMK SLP230,CYAH,2014-12-18T07:00:00Z,53.75,-73.67,-26.0,-28.0,0,2,,9.0,30.100393,1023.0,,TRUE,,,,,,,,CLR,,,,,,,,VFR,,,,,,,,,,,,METAR,306.0
CYBX 180700Z 08007KT 15SM OVC020 M03/M06 A3007 RMK SC8 SLP184,CYBX,2014-12-18T07:00:00Z,51.45,-57.17,-3.0,-6.0,80,7,,15.0,30.070866,1018.4,,,,,,,,,,OVC,2000,,,,,,,MVFR,,,,,,,,,,,,METAR,35.0
CYMH 180700Z AUTO 36003KT 9SM OVC023 M06/M07 A3013 RMK SLP202,CYMH,2014-12-18T07:00:00Z,52.28,-55.85,-6.0,-7.0,360,3,,9.0,30.129921,1020.2,,TRUE,,,,,,,,OVC,2300,,,,,,,MVFR,,,,,,,,,,,,METAR,11.0
CYUY 180700Z 35007KT 2 1/2SM -SN OVC015 M09/M10 A3000 RMK SN4SC4 SLP181,CYUY,2014-12-18T07:00:00Z,48.2,-78.82,-9.0,-10.0,350,7,,2.5,30.0,1018.1,,,,,,,,,-SN,OVC,1500,,,,,,,IFR,,,,,,,,,,,,METAR,301.0
CYGP 180700Z 00000KT 4SM -SN OVC014 M03/M03 A2982 RMK SC8 SLP100,CYGP,2014-12-18T07:00:00Z,48.77,-64.47,-3.0,-3.0,0,0,,4.0,29.819881,1010.0,,,,,,,,,-SN,OVC,1400,,,,,,,MVFR,,,,,,,,,,,,METAR,33.0
CYHD 180700Z AUTO 07004KT 9SM CLR M22/M24 A3031 RMK SLP309,CYHD,2014-12-18T07:00:00Z,49.82,-92.75,-22.0,-24.0,70,4,,9.0,30.31004,1030.9,,TRUE,,,,,,,,CLR,,,,,,,,VFR,,,,,,,,,,,,METAR,413.0
CYMO 180700Z AUTO 31007KT 9SM CLR M17/M19 A3026 RMK SLP246,CYMO,2014-12-18T07:00:00Z,51.28,-80.62,-17.0,-19.0,310,7,,9.0,30.259842,1024.6,,TRUE,,,,,,,,CLR,,,,,,,,VFR,,,,,,,,,,,,METAR,10.0
CYNA 180700Z AUTO 07013KT 9SM FEW011 OVC023 M03/M03 A2996 RMK SLP145,CYNA,2014-12-18T07:00:00Z,50.17,-61.82,-3.0,-3.0,70,13,,9.0,29.958662,1014.5,,TRUE,,,,,,,,FEW,1100,OVC,2300,,,,,MVFR,,,,,,,,,,,,METAR,11.0
CYTL 180700Z AUTO 24005KT 9SM CLR M20/M21 A3025 RMK SLP269,CYTL,2014-12-18T07:00:00Z,53.82,-89.88,-20.0,-21.0,240,5,,9.0,30.250984,1026.9,,TRUE,,,,,,,,CLR,,,,,,,,VFR,,,,,,,,,,,,METAR,224.0
CYTS 180700Z 32008KT 6SM -SN OVC010 M16/M17 A3014 RMK SC8 SLP233,CYTS,2014-12-18T07:00:00Z,48.57,-81.37,-16.0,-17.0,320,8,,6.0,30.138779,1023.3,,,,,,,,,-SN,OVC,1000,,,,,,,MVFR,,,,,,,,,,,,METAR,295.0
CYTZ 180700Z AUTO 28012G19KT 9SM SCT034 BKN043 00/M04 A3001 RMK SLP164,CYTZ,2014-12-18T07:00:00Z,43.63,-79.4,0.0,-4.0,280,12,19,9.0,30.008858,1016.4,,TRUE,,,,,,,,SCT,3400,BKN,4300,,,,,VFR,,,,,,,,,,,,METAR,77.0
CYVP 180700Z 19005KT 15SM SKC M21/M26 A3009 RMK SLP196,CYVP,2014-12-18T07:00:00Z,58.12,-68.42,-21.0,-26.0,190,5,,15.0,30.088583,1019.6,,,,,,,,,,SKC,,,,,,,,VFR,,,,,,,,,,,,METAR,60.0
CYVV 180700Z 32006KT 15SM -SN OVC012 M03/M05 A3002 RMK ST8 SLP177,CYVV,2014-12-18T07:00:00Z,44.75,-81.08,-3.0,-5.0,320,6,,15.0,30.02067,1017.7,,,,,,,,,-SN,OVC,1200,,,,,,,MVFR,,,,,,,,,,,,METAR,222.0
OEYN 180700Z 03012KT CAVOK 27/10 Q1016 NOSIG,OEYN,2014-12-18T07:00:00Z,24.13,38.07,27.0,10.0,30,12,,6.21,30.0,,,,,,TRUE,,,,,CAVOK,,,,,,,,VFR,,,,,,,,,,,,METAR,8.0
OEWJ 180700Z 05003KT CAVOK 26/11 Q1018 NOSIG,OEWJ,2014-12-18T07:00:00Z,26.18,36.47,26.0,11.0,50,3,,6.21,30.059055,,,,,,TRUE,,,,,CAVOK,,,,,,,,VFR,,,,,,,,,,,,METAR,16.0
OETR 180700Z 15012KT CAVOK 09/06 Q1023 NOSIG,OETR,2014-12-18T07:00:00Z,31.7,38.73,9.0,6.0,150,12,,6.21,30.206694,,,,,,TRUE,,,,,CAVOK,,,,,,,,VFR,,,,,,,,,,,,METAR,855.0
OETF 180700Z 12010KT CAVOK 19/05 Q1024 NOSIG,OETF,2014-12-18T07:00:00Z,21.47,40.53,19.0,5.0,120,10,,6.21,30.236221,,,,,,TRUE,,,,,CAVOK,,,,,,,,VFR,,,,,,,,,,,,METAR,1449.0
OETB 180700Z 15004KT 9999 FEW040 13/04 Q1022 NOSIG,OETB,2014-12-18T07:00:00Z,28.37,36.62,13.0,4.0,150,4,,6.21,30.177166,,,,,,TRUE,,,,,FEW,4000,,,,,,,VFR,,,,,,,,,,,,METAR,770.0
OESK 180700Z 14007KT CAVOK 13/04 Q1025 NOSIG,OESK,2014-12-18T07:00:00Z,29.77,40.1,13.0,4.0,140,7,,6.21,30.265747,,,,,,TRUE,,,,,CAVOK,,,,,,,,VFR,,,,,,,,,,,,METAR,684.0
OESH 180700Z 07013KT CAVOK 21/07 Q1024 NOSIG,OESH,2014-12-18T07:00:00Z,17.47,47.12,21.0,7.0,70,13,,6.21,30.236221,,,,,,TRUE,,,,,CAVOK,,,,,,,,VFR,,,,,,,,,,,,METAR,722.0
OERR 180700Z 19007KT CAVOK 11/10 Q1025 NOSIG,OERR,2014-12-18T07:00:00Z,30.88,41.12,11.0,10.0,190,7,,6.21,30.265747,,,,,,TRUE,,,,,CAVOK,,,,,,,,VFR,,,,,,,,,,,,METAR,552.0
OERF 180700Z 21003KT CAVOK 13/06 Q1026,OERF,2014-12-18T07:00:00Z,29.62,43.47,13.0,6.0,210,3,,6.21,30.295275,,,,,,,,,,,CAVOK,,,,,,,,VFR,,,,,,,,,,,,METAR,447.0
NCPY 180700Z AUTO 01002KT //// //// 25/24 Q1009,NCPY,2014-12-18T07:00:00Z,-9.02,-158.07,25.0,24.0,10,2,,,29.793306,,,TRUE,,,,,,,,,,,,,,,,,,,,,,,,,,,,METAR,2.0
NCMH 180700Z AUTO NIL,NCMH,2014-12-18T07:00:00Z,-10.38,-161.0,,,,,,,,,,TRUE,,,,,,,,,,,,,,,,,,,,,,,,,,,,METAR,0.0
NCAI 180700Z AUTO 12012KT //// //// 25/22 Q1012,NCAI,2014-12-18T07:00:00Z,-18.82,-159.77,25.0,22.0,120,12,,,29.88189,,,TRUE,,,,,,,,,,,,,,,,,,,,,,,,,,,,METAR,6.0
NCRG 180700Z 12014KT 9999 BKN021 25/19 Q1014 RMK SUSPECT WIND SHEAR ON APPROACH,NCRG,2014-12-18T07:00:00Z,-21.2,-159.82,25.0,19.0,120,14,,6.21,29.940945,,,,,,,,,,,BKN,2100,,,,,,,MVFR,,,,,,,,,,,,METAR,7.0
SPIM 180700Z 16010KT 9999 FEW008 OVC024 20/17 Q1015 NOSIG RMK P P000,SPIM,2014-12-18T07:00:00Z,-12.02,-77.12,20.0,17.0,160,10,,6.21,29.970472,,,,,,TRUE,,,,,FEW,800,OVC,2400,,,,,MVFR,,,,,,,,,,,,METAR,13.0
CYWA 180700Z AUTO 30008KT 9SM OVC014 M02/M04 A2988 RMK SLP127,CYWA,2014-12-18T07:00:00Z,45.95,-77.32,-2.0,-4.0,300,8,,9.0,29.878937,1012.7,,TRUE,,,,,,,,OVC,1400,,,,,,,MVFR,,,,,,,,,,,,METAR,130.0
WBGB 180700Z 12002KT 9999 FEW014 BKN150 30/25 Q1008,WBGB,2014-12-18T07:00:00Z,3.12,113.02,30.0,25.0,120,2,,6.21,29.763779,,,,,,,,,,,FEW,1400,BKN,15000,,,,,VFR,,,,,,,,,,,,METAR,5.0
LFBY 180700Z 26005KT 230V290 7000 -DZ SCT006 OVC023 BKN040 12/11 Q1028,LFBY,2014-12-18T07:00:00Z,43.67,-1.07,12.0,11.0,260,5,,4.35,30.35433,,,,,,,,,,-DZ,SCT,600,OVC,2300,BKN,4000,,,MVFR,,,,,,,,,,,,METAR,32.0
CYZE 180700Z AUTO 01009KT 9SM BKN017 M06/M09 A3009 RMK ICG SLP202,CYZE,2014-12-18T07:00:00Z,45.87,-82.57,-6.0,-9.0,10,9,,9.0,30.088583,1020.2,,TRUE,,,,,,,,BKN,1700,,,,,,,MVFR,,,,,,,,,,,,METAR,193.0
CYYY 180700Z 05016G22KT 1 1/2SM -SHSN DRSN OVC008 M02/M02 A2982 RMK SF8 SLP100,CYYY,2014-12-18T07:00:00Z,48.6,-68.22,-2.0,-2.0,50,16,22,1.5,29.819881,1010.0,,,,,,,,,-SHSN DRSN,OVC,800,,,,,,,IFR,,,,,,,,,,,,METAR,52.0
WBGR 180700Z 27005KT 9999 SCT014 SCT150 BKN300 31/25 Q1008,WBGR,2014-12-18T07:00:00Z,4.32,113.97,31.0,25.0,270,5,,6.21,29.763779,,,,,,,,,,,SCT,1400,SCT,15000,BKN,30000,,,VFR,,,,,,,,,,,,METAR,18.0
WBGS 180700Z 26004KT 9999 SCT018 SCT150 BKN300 33/23 Q1007,WBGS,2014-12-18T07:00:00Z,2.27,111.98,33.0,23.0,260,4,,6.21,29.734253,,,,,,,,,,,SCT,1800,SCT,15000,BKN,30000,,,VFR,,,,,,,,,,,,METAR,8.0
WBGY 180700Z 30002KT 9999 BKN023 SCT150 BKN300 33/26 Q1006,WBGY,2014-12-18T07:00:00Z,1.22,111.43,33.0,26.0,300,2,,6.21,29.704725,,,,,,,,,,,BKN,2300,SCT,15000,BKN,30000,,,MVFR,,,,,,,,,,,,METAR,34.0
SASJ 180700Z 29004KT 9000 NSC 19/17 Q1015,SASJ,2014-12-18T07:00:00Z,-24.37,-65.1,19.0,17.0,290,4,,5.59,29.970472,,,,,,,,,,,,,,,,,,,,,,,,,,,,,,,SPECI,1167.0
SARP 180700Z 16004KT 9999 21/20 Q1011,SARP,2014-12-18T07:00:00Z,-27.38,-55.97,21.0,20.0,160,4,,6.21,29.852362,,,,,,,,,,,,,,,,,,,,,,,,,,,,,,,METAR,125.0
SAME 180700Z 00000KT 9999 VCTS SCT040 FEW045CB 22/08 Q1014,SAME,2014-12-18T07:00:00Z,-32.82,-68.77,22.0,8.0,0,0,,6.21,29.940945,,,,,,,,,,VCTS,SCT,4000,FEW,4500,,,,,VFR,,,,,,,,,,,,METAR,704.0
WMKN 180700Z 06014KT 010V110 9999 -RA FEW006 SCT020 BKN180 28/25 Q1010,WMKN,2014-12-18T07:00:00Z,5.37,103.08,28.0,25.0,60,14,,6.21,29.822834,,,,,,,,,,-RA,FEW,600,SCT,2000,BKN,18000,,,VFR,,,,,,,,,,,,METAR,6.0
WMKM 180700Z 03010KT 330V070 9999 FEW021 SCT140 BKN270 31/25 Q1009,WMKM,2014-12-18T07:00:00Z,2.27,102.25,31.0,25.0,30,10,,6.21,29.793306,,,,,,,,,,,FEW,2100,SCT,14000,BKN,27000,,,VFR,,,,,,,,,,,,METAR,9.0
WMKL 180700Z 04006KT 9999 SCT020 SCT140 BKN270 29/25 Q1009,WMKL,2014-12-18T07:00:00Z,6.32,99.72,29.0,25.0,40,6,,6.21,29.793306,,,,,,,,,,,SCT,2000,SCT,14000,BKN,27000,,,VFR,,,,,,,,,,,,METAR,7.0
WMKI 180700Z 03005KT 010V070 9999 FEW010 BKN140 BKN280 28/25 Q1009,WMKI,2014-12-18T07:00:00Z,4.57,101.08,28.0,25.0,30,5,,6.21,29.793306,,,,,,,,,,,FEW,1000,BKN,14000,BKN,28000,,,VFR,,,,,,,,,,,,METAR,39.0
WMKE 180700Z 04009G21KT 8000 RA FEW005 SCT020 OVC180 27/25 Q1009,WMKE,2014-12-18T07:00:00Z,4.53,103.43,27.0,25.0,40,9,21,4.97,29.793306,,,,,,,,,,RA,FEW,500,SCT,2000,OVC,18000,,,MVFR,,,,,,,,,,,,METAR,5.0
WMKD 180700Z 33005KT 0300 +TSRA FEW000 FEW017CB SCT023 OVC140 25/23 Q1009 NOSIG,WMKD,2014-12-18T07:00:00Z,3.77,103.22,25.0,23.0,330,5,,0.19,29.793306,,,,,,TRUE,,,,+TSRA,FEW,0,FEW,1700,SCT,2300,OVC,14000,LIFR,,,,,,,,,,,,METAR,16.0
WMKC 180700Z 06015KT 9000 FEW010 SCT018 BKN220 28/24 Q1010,WMKC,2014-12-18T07:00:00Z,6.17,102.27,28.0,24.0,60,15,,5.59,29.822834,,,,,,,,,,,FEW,1000,SCT,1800,BKN,22000,,,VFR,,,,,,,,,,,,METAR,5.0
WMKB 180700Z 02005KT 9999 FEW018 SCT140 BKN260 29/24 Q1008 TEMPO 05010KT 7000 RA,WMKB,2014-12-18T07:00:00Z,5.47,100.37,29.0,24.0,20,5,,6.21,29.763779,,,,,,,,,,,FEW,1800,SCT,14000,BKN,26000,,,VFR,,,,,,,,,,,,METAR,4.0
WMKA 180700Z 08006KT 030V140 9999 FEW017CB SCT140 BKN260 28/24 Q1009,WMKA,2014-12-18T07:00:00Z,6.2,100.4,28.0,24.0,80,6,,6.21,29.793306,,,,,,,,,,,FEW,1700,SCT,14000,BKN,26000,,,VFR,,,,,,,,,,,,METAR,5.0
WMBA 180700Z 16003KT 9999 FEW017CB SCT025 BKN280 30/24 Q1008,WMBA,2014-12-18T07:00:00Z,4.22,100.7,30.0,24.0,160,3,,6.21,29.763779,,,,,,,,,,,FEW,1700,SCT,2500,BKN,28000,,,VFR,,,,,,,,,,,,METAR,8.0
WMAU 180700Z 03006KT 9999 FEW017CB SCT140 BKN280 31/26 Q//// QFF1008,WMAU,2014-12-18T07:00:00Z,2.38,103.88,31.0,26.0,30,6,,6.21,,,,,,,,,,,,FEW,1700,SCT,14000,BKN,28000,,,VFR,,,,,,,,,,,,METAR,45.0
WMSA 180700Z 34002KT 9999 SCT018 SCT140 BKN280 32/24 Q1008,WMSA,2014-12-18T07:00:00Z,3.13,101.55,32.0,24.0,340,2,,6.21,29.763779,,,,,,,,,,,SCT,1800,SCT,14000,BKN,28000,,,VFR,,,,,,,,,,,,METAR,27.0
WMKJ 180700Z 02007KT 320V070 9999 SCT018 BKN280 32/26 Q1007,WMKJ,2014-12-18T07:00:00Z,1.62,103.67,32.0,26.0,20,7,,6.21,29.734253,,,,,,,,,,,SCT,1800,BKN,28000,,,,,VFR,,,,,,,,,,,,METAR,40.0
WBKW 180700Z 15005KT 9999 SCT017 BKN140 30/26 Q1008,WBKW,2014-12-18T07:00:00Z,4.32,118.12,30.0,26.0,150,5,,6.21,29.763779,,,,,,,,,,,SCT,1700,BKN,14000,,,,,VFR,,,,,,,,,,,,METAR,20.0
WBKT 180700Z 09002KT 4000 -RA FEW006 SCT013 OVC140 25/24 Q1009,WBKT,2014-12-18T07:00:00Z,6.92,116.82,25.0,24.0,90,2,,2.49,29.793306,,,,,,,,,,-RA,FEW,600,SCT,1300,OVC,14000,,,IFR,,,,,,,,,,,,METAR,5.0
WBKS 180700Z 03003KT 9999 SCT014 FEW016CB SCT140 OVC250 27/25 Q1009,WBKS,2014-12-18T07:00:00Z,5.9,118.07,27.0,25.0,30,3,,6.21,29.793306,,,,,,,,,,,SCT,1400,FEW,1600,SCT,14000,OVC,25000,VFR,,,,,,,,,,,,METAR,13.0
WBKL 180700Z 26002KT 9999 FEW010 SCT140 BKN280 29/25 Q1008,WBKL,2014-12-18T07:00:00Z,5.28,115.25,29.0,25.0,260,2,,6.21,29.763779,,,,,,,,,,,FEW,1000,SCT,14000,BKN,28000,,,VFR,,,,,,,,,,,,METAR,30.0
SAVC 180700Z 27034G52KT CAVOK 16/02 Q1000,SAVC,2014-12-18T07:00:00Z,-45.77,-67.47,16.0,2.0,270,34,52,6.21,29.52756,,,,,,,,,,,CAVOK,,,,,,,,VFR,,,,,,,,,,,,METAR,46.0
AYWK 180700Z 36008KT 9999 SCT016 FEW020CB 30/25 Q1007 RMKS: CB TO S/W,AYWK,2014-12-18T07:00:00Z,-3.58,143.67,30.0,25.0,360,8,,6.21,29.734253,,,,,,,,,,,SCT,1600,FEW,2000,,,,,VFR,,,,,,,,,,,,METAR,6.0
AYPY 180700Z 16014KT 9999 FEW020CB SCT020 31/24 Q1007 RMKS/ CB TO NW,AYPY,2014-12-18T07:00:00Z,-9.42,147.22,31.0,24.0,160,14,,6.21,29.734253,,,,,,,,,,,FEW,2000,SCT,2000,,,,,VFR,,,,,,,,,,,,SPECI,47.0
UAKD 180700Z 04003MPS 7000 NSC M17/M11 Q1029 R04/82//50 NOSIG RMK QFE738/0984,UAKD,2014-12-18T07:00:00Z,47.7,67.73,-17.0,-11.0,40,6,,4.35,30.383858,,,,,,TRUE,,,,,,,,,,,,,,,,,,,,,,,,,SPECI,381.0
LKKU 180700Z 23007KT 9999 FEW021 05/04 Q1014,LKKU,2014-12-18T07:00:00Z,49.05,17.45,5.0,4.0,230,7,,6.21,29.940945,,,,,,,,,,,FEW,2100,,,,,,,VFR,,,,,,,,,,,,METAR,177.0
LOWZ 180700Z VRB02KT 15KM FEW005SC SCT010SC BKN070SC 01/01 Q1018 RMK BKN,LOWZ,2014-12-18T07:00:00Z,47.3,12.78,1.0,1.0,0,2,,9.32,30.059055,,,,,,,,,,,,,,,,,,,,,,,,,,,,,,,SPECI,754.0
LOAN 180700Z 00000KT 16KM FEW020CU SCT030SC BKN040SC RMK BKN,LOAN,2014-12-18T07:00:00Z,47.85,16.25,,,0,0,,9.94,,,,,,,,,,,,FEW,2000,,,,,,,VFR,,,,,,,,,,,,SPECI,272.0
FYWW 180700Z AUTO 26002KT //// // ////// 23/03 Q1022,FYWW,2014-12-18T07:00:00Z,-22.57,17.1,23.0,3.0,260,2,,,30.177166,,,TRUE,,,,,,,,,,,,,,,,,,,,,,,,,,,,SPECI,1725.0
FYWH 180700Z 07004KT CAVOK 24/04 Q1022,FYWH,2014-12-18T07:00:00Z,-22.47,17.47,24.0,4.0,70,4,,6.21,30.177166,,,,,,,,,,,CAVOK,,,,,,,,VFR,,,,,,,,,,,,METAR,1700.0
FYWE 180700Z 00000KT CAVOK 23/05 Q1022,FYWE,2014-12-18T07:00:00Z,-22.62,17.08,23.0,5.0,0,0,,6.21,30.177166,,,,,,,,,,,CAVOK,,,,,,,,VFR,,,,,,,,,,,,METAR,1700.0
FYWB 180700Z 03005KT 9999 OVC019 16/12 Q1016,FYWB,2014-12-18T07:00:00Z,-22.98,14.65,16.0,12.0,30,5,,6.21,30.0,,,,,,,,,,,OVC,1900,,,,,,,MVFR,,,,,,,,,,,,METAR,46.0
FYRN 180700Z 19006KT CAVOK 24/11 Q1016,FYRN,2014-12-18T07:00:00Z,,,24.0,11.0,190,6,,6.21,30.0,,,,,,,,,,,CAVOK,,,,,,,,VFR,,,,,,,,,,,,METAR,
FYOW 180700Z AUTO 21007KT //// // ////// 27/12 Q1018,FYOW,2014-12-18T07:00:00Z,-20.43,16.67,27.0,12.0,210,7,,,30.059055,,,TRUE,,,,,,,,,,,,,,,,,,,,,,,,,,,,SPECI,1481.0
FYOO 180700Z AUTO 18003KT //// // ////// 27/03 Q1017,FYOO,2014-12-18T07:00:00Z,-19.15,15.92,27.0,3.0,180,3,,,30.029528,,,TRUE,,,,,,,,,,,,,,,,,,,,,,,,,,,,METAR,1192.0
FYOA 180700Z 20005KT CAVOK 25/04 Q1016,FYOA,2014-12-18T07:00:00Z,-17.88,15.97,25.0,4.0,200,5,,6.21,30.0,,,,,,,,,,,CAVOK,,,,,,,,VFR,,,,,,,,,,,,METAR,1095.0
FYML 180700Z AUTO 16002KT //// // ////// 32/02 Q1018,FYML,2014-12-18T07:00:00Z,-24.6,17.93,32.0,2.0,160,2,,,30.059055,,,TRUE,,,,,,,,,,,,,,,,,,,,,,,,,,,,SPECI,1113.0
FYKT 180700Z 00000KT CAVOK 29/12 Q1016,FYKT,2014-12-18T07:00:00Z,-26.52,18.12,29.0,12.0,0,0,,6.21,30.0,,,,,,,,,,,CAVOK,,,,,,,,VFR,,,,,,,,,,,,METAR,1061.0
FYKM 180700Z 14004KT 9999 BKN020 24/21 Q1018,FYKM,2014-12-18T07:00:00Z,-17.63,24.18,24.0,21.0,140,4,,6.21,30.059055,,,,,,,,,,,BKN,2000,,,,,,,MVFR,,,,,,,,,,,,METAR,958.0
FYGF 180700Z 21003KT 9999 FEW300 25/M01 Q1021,FYGF,2014-12-18T07:00:00Z,-19.6,18.12,25.0,-1.0,210,3,,6.21,30.147638,,,,,,,,,,,FEW,30000,,,,,,,VFR,,,,,,,,,,,,METAR,1400.0
FYGB 180700Z AUTO 01003KT //// // ////// 25/11 Q1020,FYGB,2014-12-18T07:00:00Z,-22.5,18.97,25.0,11.0,10,3,,,30.11811,,,TRUE,,,,,,,,,,,,,,,,,,,,,,,,,,,,METAR,1442.0
SAZS 180700Z 29017KT CAVOK 11/06 Q1017,SAZS,2014-12-18T07:00:00Z,-41.13,-71.17,11.0,6.0,290,17,,6.21,30.029528,,,,,,,,,,,CAVOK,,,,,,,,VFR,,,,,,,,,,,,SPECI,840.0
SARF 180700Z 14003KT 9999 BKN008 OVC015 23/22 Q1010,SARF,2014-12-18T07:00:00Z,-26.22,-58.22,23.0,22.0,140,3,,6.21,29.822834,,,,,,,,,,,BKN,800,OVC,1500,,,,,IFR,,,,,,,,,,,,SPECI,60.0
MHTG 180700Z 00000KT 9999 FEW026 14/13 Q1022 A3018 NOSIG,MHTG,2014-12-18T07:00:00Z,14.07,-87.22,14.0,13.0,0,0,,6.21,30.177166,,,,,,TRUE,,,,,FEW,2600,,,,,,,VFR,,,,,,,,,,,,METAR,1004.0
HDAM 180700Z 06004KT 9999 SCT023 29/22 Q1019,HDAM,2014-12-18T07:00:00Z,11.55,43.17,29.0,22.0,60,4,,6.21,30.088583,,,,,,,,,,,SCT,2300,,,,,,,VFR,,,,,,,,,,,,METAR,49.0
DAEF 180700Z 00000KT 9999 FEW040 04/M03 Q1023,DAEF,2014-12-18T07:00:00Z,28.43,7.55,4.0,-3.0,0,0,,6.21,30.206694,,,,,,,,,,,FEW,4000,,,,,,,VFR,,,,,,,,,,,,METAR,472.0
SBCM 180700Z 04002KT 9999 FEW010 BKN020 23/22 Q1009,SBCM,2014-12-18T07:00:00Z,-28.72,-49.42,23.0,22.0,40,2,,6.21,29.793306,,,,,,,,,,,FEW,1000,BKN,2000,,,,,MVFR,,,,,,,,,,,,METAR,28.0
SBCH 180700Z 17004KT CAVOK 21/18 Q1012,SBCH,2014-12-18T07:00:00Z,-27.13,-52.67,21.0,18.0,170,4,,6.21,29.88189,,,,,,,,,,,CAVOK,,,,,,,,VFR,,,,,,,,,,,,METAR,650.0
SBCA 180700Z 12008KT 9999 FEW005 20/17 Q1012,SBCA,2014-12-18T07:00:00Z,-25.0,-53.5,20.0,17.0,120,8,,6.21,29.88189,,,,,,,,,,,FEW,500,,,,,,,VFR,,,,,,,,,,,,METAR,754.0
SAWE 180700Z 34012KT 7000 RA BKNE019 07/06 Q0983,SAWE,2014-12-18T07:00:00Z,-53.78,-67.75,7.0,6.0,340,12,,4.35,29.02559,,,,,,,,,,RA,,,,,,,,,,,,,,,,,,,,,SPECI,22.0
OKBK 180700Z 32006KT 5000 -HZ NSC 15/09 Q1026 NOSIG,OKBK,2014-12-18T07:00:00Z,29.22,47.97,15.0,9.0,320,6,,3.11,30.295275,,,,,,TRUE,,,,-HZ,,,,,,,,,,,,,,,,,,,,,METAR,55.0
OTBD 180700Z 32008KT 280V360 CAVOK 22/14 Q1024 NOSIG,OTBD,2014-12-18T07:00:00Z,25.25,51.57,22.0,14.0,320,8,,6.21,30.236221,,,,,,TRUE,,,,,CAVOK,,,,,,,,VFR,,,,,,,,,,,,METAR,10.0
OBBI 180700Z 30016KT 7000 SKC 20/12 Q1023 NOSIG,OBBI,2014-12-18T07:00:00Z,26.27,50.63,20.0,12.0,300,16,,4.35,30.206694,,,,,,TRUE,,,,,SKC,,,,,,,,MVFR,,,,,,,,,,,,METAR,2.0
SBKG 180700Z 09008KT 9999 FEW006 BKN017 22/21 Q1013,SBKG,2014-12-18T07:00:00Z,-7.27,-35.87,22.0,21.0,90,8,,6.21,29.911417,,,,,,,,,,,FEW,600,BKN,1700,,,,,MVFR,,,,,,,,,,,,METAR,560.0
SBJU 180700Z 00000KT 9999 BKN020 27/23 Q1014,SBJU,2014-12-18T07:00:00Z,-7.22,-39.27,27.0,23.0,0,0,,6.21,29.940945,,,,,,,,,,,BKN,2000,,,,,,,MVFR,,,,,,,,,,,,METAR,409.0
ZYCC 180700Z 14005MPS 5000 BR NSC M18/M25 Q1030 NOSIG,ZYCC,2014-12-18T07:00:00Z,43.98,125.68,-18.0,-25.0,140,10,,3.11,30.413385,,,,,,TRUE,,,,BR,,,,,,,,,,,,,,,,,,,,,METAR,238.0
ZUCK 180700Z 32003MPS 6000 SCT033 07/03 Q1028 NOSIG,ZUCK,2014-12-18T07:00:00Z,29.72,106.63,7.0,3.0,320,6,,3.73,30.35433,,,,,,TRUE,,,,,SCT,3300,,,,,,,MVFR,,,,,,,,,,,,METAR,351.0
ZSOF 180700Z 14004MPS CAVOK 09/M10 Q1030 NOSIG,ZSOF,2014-12-18T07:00:00Z,31.78,117.3,9.0,-10.0,140,8,,6.21,30.413385,,,,,,TRUE,,,,,CAVOK,,,,,,,,VFR,,,,,,,,,,,,METAR,33.0
ZSNJ 180700Z 11004MPS CAVOK 10/M11 Q1031 NOSIG,ZSNJ,2014-12-18T07:00:00Z,31.75,118.87,10.0,-11.0,110,8,,6.21,30.442913,,,,,,TRUE,,,,,CAVOK,,,,,,,,VFR,,,,,,,,,,,,METAR,33.0
ZLLL 180700Z 17002MPS 100V240 CAVOK 01/M20 Q1023 NOSIG,ZLLL,2014-12-18T07:00:00Z,36.52,103.62,1.0,-20.0,170,4,,6.21,30.206694,,,,,,TRUE,,,,,CAVOK,,,,,,,,VFR,,,,,,,,,,,,METAR,1947.0
ZJSY 180700Z 05004MPS 360V090 9999 BKN050 23/13 Q1019 NOSIG,ZJSY,2014-12-18T07:00:00Z,18.3,109.42,23.0,13.0,50,8,,6.21,30.088583,,,,,,TRUE,,,,,BKN,5000,,,,,,,VFR,,,,,,,,,,,,METAR,27.0
ZJHK 180700Z 05005MPS 9999 OVC040 16/09 Q1022 NOSIG,ZJHK,2014-12-18T07:00:00Z,19.93,110.47,16.0,9.0,50,10,,6.21,30.177166,,,,,,TRUE,,,,,OVC,4000,,,,,,,VFR,,,,,,,,,,,,METAR,23.0
ZHHH 180700Z 12002MPS 080V170 7000 NSC 08/M05 Q1029 NOSIG,ZHHH,2014-12-18T07:00:00Z,30.78,114.22,8.0,-5.0,120,4,,4.35,30.383858,,,,,,TRUE,,,,,,,,,,,,,,,,,,,,,,,,,METAR,23.0
ZHCC 180700Z 19003MPS 140V220 7000 NSC 11/M08 Q1026 NOSIG,ZHCC,2014-12-18T07:00:00Z,34.52,113.83,11.0,-8.0,190,6,,4.35,30.295275,,,,,,TRUE,,,,,,,,,,,,,,,,,,,,,,,,,METAR,111.0
ZGHA 180700Z 01002MPS 340V070 CAVOK 11/M09 Q1028 NOSIG,ZGHA,2014-12-18T07:00:00Z,28.18,113.22,11.0,-9.0,10,4,,6.21,30.35433,,,,,,TRUE,,,,,CAVOK,,,,,,,,VFR,,,,,,,,,,,,METAR,66.0
ZBHH 180700Z 22006MPS CAVOK M03/M20 Q1020 NOSIG,ZBHH,2014-12-18T07:00:00Z,40.85,111.82,-3.0,-20.0,220,12,,6.21,30.11811,,,,,,TRUE,,,,,CAVOK,,,,,,,,VFR,,,,,,,,,,,,METAR,1065.0
ZYHB 180700Z 14004MPS 2500 FU NSC M20/M26 Q1031 NOSIG,ZYHB,2014-12-18T07:00:00Z,45.62,126.25,-20.0,-26.0,140,8,,1.55,30.442913,,,,,,TRUE,,,,FU,,,,,,,,,,,,,,,,,,,,,METAR,140.0
GQPA 180700Z 00000KT 8000 NSC 13/06 Q1022,GQPA,2014-12-18T07:00:00Z,20.52,-13.07,13.0,6.0,0,0,,4.97,30.177166,,,,,,,,,,,,,,,,,,,,,,,,,,,,,,,METAR,224.0
GOGS 180700Z 02008KT CAVOK 20/10 Q1012,GOGS,2014-12-18T07:00:00Z,12.4,-16.75,20.0,10.0,20,8,,6.21,29.88189,,,,,,,,,,,CAVOK,,,,,,,,VFR,,,,,,,,,,,,METAR,13.0
GQPZ 180700Z 14006KT CAVOK 12/M05 Q1021,GQPZ,2014-12-18T07:00:00Z,22.75,-12.48,12.0,-5.0,140,6,,6.21,30.147638,,,,,,,,,,,CAVOK,,,,,,,,VFR,,,,,,,,,,,,METAR,344.0
GOSS 180700Z 08004KT CAVOK 15/09 Q1014,GOSS,2014-12-18T07:00:00Z,16.05,-16.43,15.0,9.0,80,4,,6.21,29.940945,,,,,,,,,,,CAVOK,,,,,,,,VFR,,,,,,,,,,,,METAR,4.0
GGOV 180700Z 04008KT CQVOK 22/04 Q1011 NOSIG,GGOV,2014-12-18T07:00:00Z,11.87,-15.65,22.0,4.0,40,8,,,29.852362,,,,,,TRUE,,,,,,,,,,,,,,,,,,,,,,,,,METAR,36.0
GOGG 180700Z 04004KT CAVOK 21/10 Q1014,GOGG,2014-12-18T07:00:00Z,12.55,-16.27,21.0,10.0,40,4,,6.21,29.940945,,,,,,,,,,,CAVOK,,,,,,,,VFR,,,,,,,,,,,,METAR,23.0
CPST 180700Z AUTO 26004KT M06/M06 RMK AO1 T10591063,CPST,2014-12-18T07:00:00Z,51.03,-113.28,-5.9,-6.3,260,4,,,,,,TRUE,TRUE,,,,,,,,,,,,,,,,,,,,,,,,,,,METAR,967.0
CPSV 180700Z AUTO 22016KT M05/M05 RMK AO1 PK WND 21020/0653 T10531054,CPSV,2014-12-18T07:00:00Z,49.92,-110.92,-5.3,-5.4,220,16,,,,,,TRUE,TRUE,,,,,,,,,,,,,,,,,,,,,,,,,,,METAR,766.0
CPXL 180700Z AUTO 16007KT M05/M05 RMK AO1 T10461046,CPXL,2014-12-18T07:00:00Z,49.87,-111.38,-4.6,-4.6,160,7,,,,,,TRUE,TRUE,,,,,,,,,,,,,,,,,,,,,,,,,,,METAR,799.0
CWEB 180700Z AUTO 05007KT 05/05 RMK AO1 SLP117 T00500050 55003,CWEB,2014-12-18T07:00:00Z,49.38,-126.55,5.0,5.0,50,7,,,,1011.7,,TRUE,TRUE,,,,,,,,,,,,,,,,-0.3,,,,,,,,,,,METAR,7.0
CXSL 180700Z AUTO 21001KT M07/M07 RMK AO1 T10671072,CXSL,2014-12-18T07:00:00Z,54.28,-112.5,-6.7,-7.2,210,1,,,,,,TRUE,TRUE,,,,,,,,,,,,,,,,,,,,,,,,,,,METAR,680.0
CWFF 180700Z AUTO 20011KT M08/M10 RMK AO1 SOG 07 8006 SLP196 T10751101,CWFF,2014-12-18T07:00:00Z,52.82,-104.58,-7.5,-10.1,200,11,,,,1019.6,,TRUE,TRUE,,,,,,,,,,,,,,,,,,,,,,,,,,,METAR,490.0
CWEW 180700Z AUTO 31003KT M01/M02 RMK AO1 SOG 02 5001 SLP091 T10081015,CWEW,2014-12-18T07:00:00Z,45.82,-73.43,-0.8,-1.5,310,3,,,,1009.1,,TRUE,TRUE,,,,,,,,,,,,,,,,,,,,,,,,,,,METAR,21.0
CWEL 180700Z AUTO 13008KT 07/05 RMK AO1 SLP125 T00700054 50004,CWEL,2014-12-18T07:00:00Z,49.22,-123.78,7.0,5.4,130,8,,,,1012.5,,TRUE,TRUE,,,,,,,,,,,,,,,,0.4,,,,,,,,,,,METAR,5.0
CYGQ 180700Z 26002KT 15SM SKC M22/M24 A3030 RMK SLP299,CYGQ,2014-12-18T07:00:00Z,49.77,-86.92,-22.0,-24.0,260,2,,15.0,30.301182,1029.9,,,,,,,,,,SKC,,,,,,,,VFR,,,,,,,,,,,,METAR,351.0
CYER 180700Z AUTO 22007KT 9SM CLR M15/M16 A3015 RMK SLP211,CYER,2014-12-18T07:00:00Z,56.02,-87.68,-15.0,-16.0,220,7,,9.0,30.15059,1021.1,,TRUE,,,,,,,,CLR,,,,,,,,VFR,,,,,,,,,,,,METAR,16.0
CYCK 180700Z AUTO 27011G17KT 9SM OVC021 M02/M05 A3015 RMK SLP219,CYCK,2014-12-18T07:00:00Z,42.3,-82.08,-2.0,-5.0,270,11,17,9.0,30.15059,1021.9,,TRUE,,,,,,,,OVC,2100,,,,,,,MVFR,,,,,,,,,,,,METAR,198.0
CYBC 180700Z AUTO 05013G20KT 9SM OVC015 M02/M04 A2986 RMK SLP114,CYBC,2014-12-18T07:00:00Z,49.12,-68.2,-2.0,-4.0,50,13,20,9.0,29.861221,1011.4,,TRUE,,,,,,,,OVC,1500,,,,,,,MVFR,,,,,,,,,,,,METAR,22.0
CZBF 180700Z 03011G18KT 1/2SM SN DRSN VV003 M02/M03 A2974 RMK SN8 /SO3/ SLP074,CZBF,2014-12-18T07:00:00Z,47.62,-65.75,-2.0,-3.0,30,11,18,0.5,29.740158,1007.4,,,,,,,,,SN DRSN,OVX,0,,,,,,,LIFR,,,,,,,,,,,300,METAR,59.0
CWZZ 180700Z AUTO 27024G35KT M10/ A2969 RMK SLP100,CWZZ,2014-12-18T07:00:00Z,58.32,-62.57,-10.0,,270,24,35,,29.68996,1010.0,,TRUE,,,,,,,,,,,,,,,,,,,,,,,,,,,,METAR,483.0
CWYK 180700Z AUTO ///// M08/ A2964 RMK SLP098,CWYK,2014-12-18T07:00:00Z,57.12,-61.47,-8.0,,,,,,29.639763,1009.8,,TRUE,,,,,,,,,,,,,,,,,,,,,,,,,,,,METAR,834.0
CWVH 180700Z AUTO 26009KT M18/ A2968 RMK SLP085,CWVH,2014-12-18T07:00:00Z,68.9,-133.93,-18.0,,260,9,,,29.681103,1008.5,,TRUE,,,,,,,,,,,,,,,,,,,,,,,,,,,,METAR,261.0
CWUP 180700Z AUTO ///// M21/ A2958 RMK SLP063,CWUP,2014-12-18T07:00:00Z,68.47,-66.82,-21.0,,,,,,29.58071,1006.3,,TRUE,,,,,,,,,,,,,,,,,,,,,,,,,,,,METAR,390.0
CWRX 180700Z AUTO 31014KT M25/ A2978,CWRX,2014-12-18T07:00:00Z,69.07,-79.02,-25.0,,310,14,,,29.778543,,,TRUE,,,,,,,,,,,,,,,,,,,,,,,,,,,,METAR,41.0
CWPX 180700Z AUTO 05016KT M30/ A3006 RMK SLP216,CWPX,2014-12-18T07:00:00Z,69.02,-107.82,-30.0,,50,16,,,30.059055,1021.6,,TRUE,,,,,,,,,,,,,,,,,,,,,,,,,,,,METAR,165.0
CWOB 180700Z AUTO 31013G19KT -SN M12/ A2945 RMK SLP023,CWOB,2014-12-18T07:00:00Z,63.32,-64.15,-12.0,,310,13,19,,29.450787,1002.3,,TRUE,,,,,,,-SN,,,,,,,,,,,,,,,,,,,,,METAR,367.0
CWLX 180700Z AUTO 07013KT M22/ A2968 RMK SLP074,CWLX,2014-12-18T07:00:00Z,68.9,-75.15,-22.0,,70,13,,,29.681103,1007.4,,TRUE,,,,,,,,,,,,,,,,,,,,,,,,,,,,METAR,162.0
CWLI 180700Z AUTO 29005KT M14/ A2971 RMK SLP078,CWLI,2014-12-18T07:00:00Z,69.58,-130.9,-14.0,,290,5,,,29.71063,1007.8,,TRUE,,,,,,,,,,,,,,,,,,,,,,,,,,,,METAR,102.0
CWKW 180700Z AUTO ///// M13/ A2953 RMK SLP054,CWKW,2014-12-18T07:00:00Z,59.97,-64.17,-13.0,,,,,,29.530512,1005.4,,TRUE,,,,,,,,,,,,,,,,,,,,,,,,,,,,METAR,551.0
CWKM 180700Z AUTO 25010KT M18/ A2984 RMK SLP112,CWKM,2014-12-18T07:00:00Z,69.6,-140.17,-18.0,,250,10,,,29.840551,1011.2,,TRUE,,,,,,,,,,,,,,,,,,,,,,,,,,,,METAR,13.0
CWIL 180700Z AUTO 01010KT M30/ A3010 RMK SLP205,CWIL,2014-12-18T07:00:00Z,68.32,-100.07,-30.0,,10,10,,,30.100393,1020.5,,TRUE,,,,,,,,,,,,,,,,,,,,,,,,,,,,METAR,36.0
CYSJ 180700Z 03011G17KT 3SM -RA BR FEW006 OVC014 01/00 A2944 RMK SF2SC6 SLP972,CYSJ,2014-12-18T07:00:00Z,45.32,-65.87,1.0,0.0,30,11,17,3.0,29.438976,997.2,,,,,,,,,-RA BR,FEW,600,OVC,1400,,,,,MVFR,,,,,,,,,,,,METAR,109.0
CYGW 180700Z AUTO 13007KT 9SM CLR M20/M22 A3021 RMK SLP231,CYGW,2014-12-18T07:00:00Z,55.27,-77.77,-20.0,-22.0,130,7,,9.0,30.209646,1023.1,,TRUE,,,,,,,,CLR,,,,,,,,VFR,,,,,,,,,,,,METAR,12.0
CYDF 180700Z 03008KT 15SM OVC021 M02/M04 A3002 RMK SC8 SLP167,CYDF,2014-12-18T07:00:00Z,49.22,-57.4,-2.0,-4.0,30,8,,15.0,30.02067,1016.7,,,,,,,,,,OVC,2100,,,,,,,MVFR,,,,,,,,,,,,METAR,22.0
CYCX 180700Z 02009G15KT 1SM -SN VV008 M00/M01 A2951 RMK SN8 DA-1140FT SLP998,CYCX,2014-12-18T07:00:00Z,45.82,-66.42,0.0,-1.0,20,9,15,1.0,29.509842,999.8,,,,,,,,,-SN,OVX,0,,,,,,,LIFR,,,,,,,,,,,800,METAR,51.0
CYAY 180700Z AUTO 10003KT 9SM OVC019 M02/M04 A3009 RMK SLP192,CYAY,2014-12-18T07:00:00Z,51.38,-56.07,-2.0,-4.0,100,3,,9.0,30.088583,1019.2,,TRUE,,,,,,,,OVC,1900,,,,,,,MVFR,,,,,,,,,,,,METAR,28.0
CYYH 180700Z CCA 00000KT 15SM FEW020 SCT070 M29/M32 A3010 RMK SC1AS0 FROIN SLP197,CYYH,2014-12-18T07:00:00Z,69.53,-93.57,-29.0,-32.0,0,0,,15.0,30.100393,1019.7,,,,,,,,,,FEW,2000,SCT,7000,,,,,VFR,,,,,,,,,,,,METAR,28.0
CYZX 180700Z 05007KT 6SM -RA BR OVC011 05/05 A2939 RMK SF8 WNDY HILL 11015KT SLP954,CYZX,2014-12-18T07:00:00Z,44.98,-64.92,5.0,5.0,50,7,,6.0,29.388779,995.4,,,,,,,,,-RA BR,OVC,1100,,,,,,,MVFR,,-1.5,,,,,,,,,,METAR,28.0
CYYZ 180700Z 28009G15KT 15SM OVC021 M00/M03 A3000 RMK SC8 SLP165,CYYZ,2014-12-18T07:00:00Z,43.67,-79.62,0.0,-3.0,280,9,15,15.0,30.0,1016.5,,,,,,,,,,OVC,2100,,,,,,,MVFR,,,,,,,,,,,,METAR,173.0
CYYT 180700Z 14012G17KT 15SM -DZ OVC011 01/M00 A3009 RMK SF8 SLP196,CYYT,2014-12-18T07:00:00Z,47.62,-52.72,1.0,0.0,140,12,17,15.0,30.088583,1019.6,,,,,,,,,-DZ,OVC,1100,,,,,,,MVFR,,,,,,,,,,,,METAR,140.0
CYYR 180700Z 00000KT 15SM OVC130 M14/M17 A3014 RMK AC5 SLP211,CYYR,2014-12-18T07:00:00Z,53.32,-60.42,-14.0,-17.0,0,0,,15.0,30.138779,1021.1,,,,,,,,,,OVC,13000,,,,,,,VFR,,,,,,,,,,,,METAR,49.0
CYYJ 180700Z 24002KT 15SM -RA FEW008 SCT015 BKN031 OVC043 06/06 A2991 RMK SC1SC3SC4SC1 SC TR SLP128,CYYJ,2014-12-18T07:00:00Z,48.63,-123.42,6.0,6.0,240,2,,15.0,29.911417,1012.8,,,,,,,,,-RA,FEW,800,SCT,1500,BKN,3100,OVC,4300,VFR,,,,,,,,,,,,METAR,19.0
CYYC 180700Z 00000KT 15SM FEW210 M00/M09 A2980 RMK CI2 SLP136,CYYC,2014-12-18T07:00:00Z,51.12,-114.02,0.0,-9.0,0,0,,15.0,29.799213,1013.6,,,,,,,,,,FEW,21000,,,,,,,VFR,,,,,,,,,,,,METAR,1084.0
CYTR 180700Z 27010KT 7SM -SHSN BKN015 OVC072 01/M01 A2992 RMK SF6AC2 SLP136,CYTR,2014-12-18T07:00:00Z,44.12,-77.52,1.0,-1.0,270,10,,7.0,29.920275,1013.6,,,,,,,,,-SHSN,BKN,1500,OVC,7200,,,,,MVFR,,,,,,,,,,,,METAR,86.0
CYQQ 180700Z 00000KT 20SM FEW012 BKN025 05/05 A2990 RMK SF2SC6 SLP126,CYQQ,2014-12-18T07:00:00Z,49.72,-124.9,5.0,5.0,0,0,,20.0,29.899607,1012.6,,,,,,,,,,FEW,1200,BKN,2500,,,,,MVFR,,,,,,,,,,,,METAR,24.0
CYQG 180700Z 27014G19KT 15SM BKN023 M02/M06 A3018 RMK SC7 SLP226,CYQG,2014-12-18T07:00:00Z,42.27,-82.97,-2.0,-6.0,270,14,19,15.0,30.180119,1022.6,,,,,,,,,,BKN,2300,,,,,,,MVFR,,,,,,,,,,,,METAR,190.0
CYQB 180700Z 07004KT 050V110 5SM -SN OVC007 M01/M02 A2975 RMK SN1SF7 SLP078,CYQB,2014-12-18T07:00:00Z,46.78,-71.37,-1.0,-2.0,70,4,,5.0,29.749016,1007.8,,,,,,,,,-SN,OVC,700,,,,,,,IFR,,,,,,,,,,,,METAR,73.0
CYJT 180700Z 09012KT 15SM BKN022 01/M03 A2995 RMK SC7 SLP143,CYJT,2014-12-18T07:00:00Z,48.55,-58.57,1.0,-3.0,90,12,,15.0,29.949802,1014.3,,,,,,,,,,BKN,2200,,,,,,,MVFR,,,,,,,,,,,,METAR,26.0
CYEG 180700Z 18004KT 1/4SM R02/2800V5500FT/N R12/5000FT/U FZFG VV001 M09/M10 A2983 RMK FG8 FROIN SLP147,CYEG,2014-12-18T07:00:00Z,53.28,-113.57,-9.0,-10.0,180,4,,0.25,29.828741,1014.7,,,,,,,,,FZFG,OVX,0,,,,,,,LIFR,,,,,,,,,,,100,METAR,723.0
CYBG 180700Z 02002KT 8SM -SN FEW006 BKN030 OVC050 M02/M04 A2981 RMK SF2SC3SC3 SLP105,CYBG,2014-12-18T07:00:00Z,48.33,-70.98,-2.0,-4.0,20,2,,8.0,29.811024,1010.5,,,,,,,,,-SN,FEW,600,BKN,3000,OVC,5000,,,MVFR,,,,,,,,,,,,METAR,159.0
CYZP 180700Z AUTO 17007KT 9SM SCT240 05/04 A2959 RMK SLP021,CYZP,2014-12-18T07:00:00Z,53.25,-131.82,5.0,4.0,170,7,,9.0,29.589567,1002.1,,TRUE,,,,,,,,SCT,24000,,,,,,,VFR,,,,,,,,,,,,METAR,6.0
CYXE 180700Z 17009KT 15SM OVC005 M07/M08 A2997 RMK ST8 SLP184,CYXE,2014-12-18T07:00:00Z,52.17,-106.7,-7.0,-8.0,170,9,,15.0,29.970472,1018.4,,,,,,,,,,OVC,500,,,,,,,IFR,,,,,,,,,,,,METAR,504.0
CYQD 180700Z CCA 14005KT 15SM OVC018 M17/M19 A3009 RMK SC8 SLP215,CYQD,2014-12-18T07:00:00Z,53.97,-101.08,-17.0,-19.0,140,5,,15.0,30.088583,1021.5,,,,,,,,,,OVC,1800,,,,,,,MVFR,,,,,,,,,,,,SPECI,271.0
CYPR 180700Z AUTO 10009KT 9SM SCT060 OVC150 06/M00 A2968 RMK SLP053,CYPR,2014-12-18T07:00:00Z,54.28,-130.42,6.0,0.0,100,9,,9.0,29.681103,1005.3,,TRUE,,,,,,,,SCT,6000,OVC,15000,,,,,VFR,,,,,,,,,,,,METAR,34.0
CYIV 180700Z 17003KT 15SM SKC M19/M22 A3025 RMK SLP271,CYIV,2014-12-18T07:00:00Z,53.85,-94.65,-19.0,-22.0,170,3,,15.0,30.250984,1027.1,,,,,,,,,,SKC,,,,,,,,VFR,,,,,,,,,,,,METAR,237.0
CYHE 180700Z AUTO 09006KT 9SM -RA SCT045 OVC055 03/02 A2994 RMK SLP140,CYHE,2014-12-18T07:00:00Z,49.37,-121.5,3.0,2.0,90,6,,9.0,29.940945,1014.0,,TRUE,,,,,,,-RA,SCT,4500,OVC,5500,,,,,VFR,,,,,,,,,,,,METAR,39.0
CYDQ 180700Z AUTO 04004KT 9SM OVC075 M10/M12 A2976 RMK SLP131,CYDQ,2014-12-18T07:00:00Z,55.75,-120.17,-10.0,-12.0,40,4,,9.0,29.760826,1013.1,,TRUE,,,,,,,,OVC,7500,,,,,,,VFR,,,,,,,,,,,,METAR,655.0
CYDB 180700Z AUTO 28002KT 9SM CLR M23/M25 A2963 RMK SLP113,CYDB,2014-12-18T07:00:00Z,61.37,-139.05,-23.0,-25.0,280,2,,9.0,29.630905,1011.3,,TRUE,,,,,,,,CLR,,,,,,,,VFR,,,,,,,,,,,,METAR,801.0
CZUM 180700Z AUTO 26003KT 200V290 9SM OVC060 M19/M22 A3003 RMK SLP219,CZUM,2014-12-18T07:00:00Z,53.53,-64.08,-19.0,-22.0,260,3,,9.0,30.029528,1021.9,,TRUE,,,,,,,,OVC,6000,,,,,,,VFR,,,,,,,,,,,,METAR,440.0
CZPC 180700Z AUTO 27012G18KT 9SM FEW110 BKN160 OVC190 01/M03 A2985 RMK SLP140,CZPC,2014-12-18T07:00:00Z,49.52,-114.0,1.0,-3.0,270,12,18,9.0,29.84941,1014.0,,TRUE,,,,,,,,FEW,11000,BKN,16000,OVC,19000,,,VFR,,,,,,,,,,,,METAR,1190.0
CWYM 180700Z AUTO 30012KT M16/ A2931 RMK SLP993,CWYM,2014-12-18T07:00:00Z,64.95,-63.57,-16.0,,300,12,,,29.309055,999.3,,TRUE,,,,,,,,,,,,,,,,,,,,,,,,,,,,METAR,583.0
CWXR 180700Z AUTO 11021KT M20/ A2990 RMK SLP140,CWXR,2014-12-18T07:00:00Z,69.27,-119.22,-20.0,,110,21,,,29.899607,1014.0,,TRUE,,,,,,,,,,,,,,,,,,,,,,,,,,,,METAR,69.0
CWTU 180700Z AUTO 25016KT M13/ A2988 RMK SLP175,CWTU,2014-12-18T07:00:00Z,54.72,-58.35,-13.0,,250,16,,,29.878937,1017.5,,TRUE,,,,,,,,,,,,,,,,,,,,,,,,,,,,METAR,683.0
CWRH 180700Z AUTO ///// M12/ A2960 RMK SLP065,CWRH,2014-12-18T07:00:00Z,61.57,-64.65,-12.0,,,,,,29.601377,1006.5,,TRUE,,,,,,,,,,,,,,,,,,,,,,,,,,,,METAR,369.0
CWKP 180700Z AUTO 11032KT M20/ A2970 RMK SLP105,CWKP,2014-12-18T07:00:00Z,69.67,-121.67,-20.0,,110,32,,,29.698818,1010.5,,TRUE,,,,,,,,,,,,,,,,,,,,,,,,,,,,METAR,330.0
CWEU 180700Z 06003KT 10SM OVC110 M33/M37 A3007 RMK AC8 SLP185,CWEU,2014-12-18T07:00:00Z,80.0,-85.92,-33.0,-37.0,60,3,,10.0,30.070866,1018.5,,,,,,,,,,OVC,11000,,,,,,,VFR,,,,,,,,,,,,METAR,10.0
CYTE 180700Z AUTO 34007KT 9SM SCT070 OVC150 M15/M18 A2973 RMK SLP072,CYTE,2014-12-18T07:00:00Z,64.22,-76.52,-15.0,-18.0,340,7,,9.0,29.731298,1007.2,,TRUE,,,,,,,,SCT,7000,OVC,15000,,,,,VFR,,,,,,,,,,,,METAR,47.0
CYHY 180700Z 22003KT 15SM SCT040 M10/M12 A2968 RMK SC4 SLP068,CYHY,2014-12-18T07:00:00Z,60.82,-115.77,-10.0,-12.0,220,3,,15.0,29.681103,1006.8,,,,,,,,,,SCT,4000,,,,,,,VFR,,,,,,,,,,,,METAR,166.0
CYHK 180700Z AUTO 02009KT 9SM CLR M31/M35 A3010 RMK SLP201,CYHK,2014-12-18T07:00:00Z,68.62,-95.83,-31.0,-35.0,20,9,,9.0,30.100393,1020.1,,TRUE,,,,,,,,CLR,,,,,,,,VFR,,,,,,,,,,,,METAR,46.0
CYFS 180700Z 32002KT 15SM SKC M25/M29 A2969 RMK SLP079,CYFS,2014-12-18T07:00:00Z,61.75,-121.22,-25.0,-29.0,320,2,,15.0,29.68996,1007.9,,,,,,,,,,SKC,,,,,,,,VFR,,,,,,,,,,,,METAR,169.0
CYCB 180700Z 04016KT 12SM DRSN FEW110 M32/M36 A3018 RMK AC1 SLP227,CYCB,2014-12-18T07:00:00Z,69.08,-105.12,-32.0,-36.0,40,16,,12.0,30.180119,1022.7,,,,,,,,,DRSN,FEW,11000,,,,,,,VFR,,,,,,,,,,,,METAR,27.0
CYXH 180700Z AUTO 22016KT 9SM CLR M05/M06 A2987 RMK SLP150,CYXH,2014-12-18T07:00:00Z,50.02,-110.72,-5.0,-6.0,220,16,,9.0,29.870079,1015.0,,TRUE,,,,,,,,CLR,,,,,,,,VFR,,,,,,,,,,,,METAR,716.0
CYUS 180700Z AUTO 32006KT 9SM CLR M30/ A3009 RMK SLP197,CYUS,2014-12-18T07:00:00Z,68.82,-93.42,-30.0,,320,6,,9.0,30.088583,1019.7,,TRUE,,,,,,,,CLR,,,,,,,,VFR,,,,,,,,,,,,METAR,42.0
CYTH 180700Z 20007KT 15SM -SN OVC008 M13/M15 A3010 RMK ST8 SLP216,CYTH,2014-12-18T07:00:00Z,55.78,-97.87,-13.0,-15.0,200,7,,15.0,30.100393,1021.6,,,,,,,,,-SN,OVC,800,,,,,,,IFR,,,,,,,,,,,,METAR,218.0
CYSM 180700Z 13005KT 15SM FEW020 SCT220 M10/M11 A2973 RMK SC1CI3 FROIN SLP087,CYSM,2014-12-18T07:00:00Z,60.03,-111.97,-10.0,-11.0,130,5,,15.0,29.731298,1008.7,,,,,,,,,,FEW,2000,SCT,22000,,,,,VFR,,,,,,,,,,,,METAR,203.0
CYSF 180700Z AUTO 12003KT 9SM -SN OVC010 M16/M18 A2991 RMK SLP158,CYSF,2014-12-18T07:00:00Z,59.25,-105.82,-16.0,-18.0,120,3,,9.0,29.911417,1015.8,,TRUE,,,,,,,-SN,OVC,1000,,,,,,,MVFR,,,,,,,,,,,,METAR,250.0
CYOD 180700Z 19004KT 10SM OVC008 M07/M08 A2989 RMK ST8 SLP159,CYOD,2014-12-18T07:00:00Z,54.4,-110.28,-7.0,-8.0,190,4,,10.0,29.890747,1015.9,,,,,,,,,,OVC,800,,,,,,,IFR,,,,,,,,,,,,METAR,544.0
CYIO 180700Z AUTO 20006KT 9SM CLR M29/M32 A2987 RMK SLP125,CYIO,2014-12-18T07:00:00Z,72.67,-77.97,-29.0,-32.0,200,6,,9.0,29.870079,1012.5,,TRUE,,,,,,,,CLR,,,,,,,,VFR,,,,,,,,,,,,METAR,57.0
CYEK 180700Z AUTO 29010KT 9SM CLR M19/M21 A2992 RMK SLP133,CYEK,2014-12-18T07:00:00Z,61.1,-94.07,-19.0,-21.0,290,10,,9.0,29.920275,1013.3,,TRUE,,,,,,,,CLR,,,,,,,,VFR,,,,,,,,,,,,METAR,10.0
CWGL 180700Z AUTO 31011KT M03/M04 RMK AO1 SLP140 T10251043 53013,CWGL,2014-12-18T07:00:00Z,44.52,-79.22,-2.5,-4.3,310,11,,,,1014.0,,TRUE,TRUE,,,,,,,,,,,,,,,,1.3,,,,,,,,,,,METAR,221.0
CMFM 180700Z AUTO 05003KT M03/M04 RMK AO1 SOG 32 5007 SLP061 T10251041,CMFM,2014-12-18T07:00:00Z,47.32,-71.15,-2.5,-4.1,50,3,,,,1006.1,,TRUE,TRUE,,,,,,,,,,,,,,,,,,,,,,,,,,,SPECI,672.0
CWNP 180700Z AUTO 11001KT M01/M02 RMK AO1 2PAST HR 5000 SLP176 P0001 T10111021 50002,CWNP,2014-12-18T07:00:00Z,50.27,-117.82,-1.1,-2.1,110,1,,,,1017.6,,TRUE,TRUE,,,,,,,,,,,,,,,,0.2,,,,,0.01,,,,,,METAR,524.0
CWNM 180700Z AUTO 09002KT 01/M00 RMK AO1 SLP173 T00121003 52001,CWNM,2014-12-18T07:00:00Z,49.5,-117.28,1.2,-0.3,90,2,,,,1017.3,,TRUE,TRUE,,,,,,,,,,,,,,,,0.1,,,,,,,,,,,METAR,535.0
CWNQ 180700Z AUTO 03004KT M01/M01 RMK AO1 SLP072 T10061011 53001,CWNQ,2014-12-18T07:00:00Z,46.22,-72.65,-0.6,-1.1,30,4,,,,1007.2,,TRUE,TRUE,,,,,,,,,,,,,,,,0.1,,,,,,,,,,,METAR,10.0
CWOC 180700Z AUTO 04007KT M02/M03 RMK AO1 0PAST HR 6030 SLP074 P0008 T10151029 50020,CWOC,2014-12-18T07:00:00Z,48.02,-65.32,-1.5,-2.9,40,7,,,,1007.4,,TRUE,TRUE,,,,,,,,,,,,,,,,2.0,,,,,0.08,,,,,,METAR,47.0
CWGB 180700Z AUTO 12011KT 07/05 RMK AO1 SLP122 T00710053 52005,CWGB,2014-12-18T07:00:00Z,49.35,-124.17,7.1,5.3,120,11,,,,1012.2,,TRUE,TRUE,,,,,,,,,,,,,,,,0.5,,,,,,,,,,,METAR,5.0
CWPD 180700Z AUTO 01003KT M05/M05 RMK AO1 SLP062 T10491051 55008,CWPD,2014-12-18T07:00:00Z,47.57,-71.22,-4.9,-5.1,10,3,,,,1006.2,,TRUE,TRUE,,,,,,,,,,,,,,,,-0.8,,,,,,,,,,,METAR,803.0
CWPE 180700Z AUTO 01008G16KT 01/01 RMK AO1 1PAST HR M22 0612Z 6025 SLP969 P0004 T00050010 50011,CWPE,2014-12-18T07:00:00Z,45.07,-66.47,0.5,1.0,10,8,16,,,996.9,,TRUE,TRUE,,,,,,,,,,,,,,,,1.1,,,,,0.04,,,,,,METAR,1.0
CWPR 180700Z AUTO 00000KT M01/M02 RMK AO1 SOG 21 3001 SLP149 T10141020,CWPR,2014-12-18T07:00:00Z,49.47,-120.52,-1.4,-2.0,0,0,,,,1014.9,,TRUE,TRUE,,,,,,,,,,,,,,,,,,,,,,,,,,,METAR,700.0
CWPZ 180700Z AUTO 17002KT M04/M04 RMK AO1 SOG 14 1005 SLP123 T10381035,CWPZ,2014-12-18T07:00:00Z,54.38,-125.97,-3.8,-3.5,170,2,,,,1012.3,,TRUE,TRUE,,,,,,,,,,,,,,,,,,,,,,,,,,,METAR,713.0
CWGR 180700Z AUTO 10014KT 01/01 RMK AO1 PK WND 11018/0614 SLP063 T00130005 58039,CWGR,2014-12-18T07:00:00Z,47.42,-61.8,1.3,0.5,100,14,,,,1006.3,,TRUE,TRUE,,,,,,,,,,,,,,,,-3.9,,,,,,,,,,,METAR,60.0
CWGT 180700Z AUTO 13014KT 07/06 RMK AO1 SLP121 T00650057 51003,CWGT,2014-12-18T07:00:00Z,49.48,-124.43,6.5,5.7,130,14,,,,1012.1,,TRUE,TRUE,,,,,,,,,,,,,,,,0.3,,,,,,,,,,,METAR,5.0
CWGW 180700Z AUTO 00000KT M04/M05 RMK AO1 SOG 05 1001 SLP186 T10391051,CWGW,2014-12-18T07:00:00Z,49.75,-114.9,-3.9,-5.1,0,0,,,,1018.6,,TRUE,TRUE,,,,,,,,,,,,,,,,,,,,,,,,,,,METAR,1137.0
CWGY 180700Z AUTO 00000KT M06/M07 RMK AO1 SLP154 T10621073 58004,CWGY,2014-12-18T07:00:00Z,51.67,-110.2,-6.2,-7.3,0,0,,,,1015.4,,TRUE,TRUE,,,,,,,,,,,,,,,,-0.4,,,,,,,,,,,METAR,707.0
CWHL 180700Z AUTO 09013G23KT 07/M00 RMK AO1 PK WND 10025/0616 SLP049 T00651002 56015,CWHL,2014-12-18T07:00:00Z,54.17,-130.35,6.5,-0.2,90,13,23,,,1004.9,,TRUE,TRUE,,,,,,,,,,,,,,,,-1.5,,,,,,,,,,,METAR,5.0
CWHM 180700Z AUTO 32005KT M00/M00 RMK AO1 T10011004,CWHM,2014-12-18T07:00:00Z,45.72,-73.37,-0.1,-0.4,320,5,,,,,,TRUE,TRUE,,,,,,,,,,,,,,,,,,,,,,,,,,,METAR,192.0
CWHQ 180700Z AUTO 11002KT M01/M01 RMK AO1 T10111012,CWHQ,2014-12-18T07:00:00Z,46.68,-71.97,-1.1,-1.2,110,2,,,,,,TRUE,TRUE,,,,,,,,,,,,,,,,,,,,,,,,,,,METAR,55.0
CWHT 180700Z AUTO 00000KT M22/M24 RMK AO1 SOG 14 1004 SLP108 T12181239,CWHT,2014-12-18T07:00:00Z,60.77,-137.58,-21.8,-23.9,0,0,,,,1010.8,,TRUE,TRUE,,,,,,,,,,,,,,,,,,,,,,,,,,,METAR,599.0
CWHV 180700Z AUTO 31004KT M01/M02 RMK AO1 0PAST HR 5004 SLP054 P0004 T10141015 50010,CWHV,2014-12-18T07:00:00Z,46.2,-70.77,-1.4,-1.5,310,4,,,,1005.4,,TRUE,TRUE,,,,,,,,,,,,,,,,1.0,,,,,0.04,,,,,,METAR,229.0
CWIS 180700Z AUTO 03004KT M06/M06 RMK AO1 7PAST HR SOG 46 5009 SLP070 P0003 T10571060 50007,CWIS,2014-12-18T07:00:00Z,47.28,-70.63,-5.7,-6.0,30,4,,,,1007.0,,TRUE,TRUE,,,,,,,,,,,,,,,,0.7,,,,,0.03,,,,,,METAR,719.0
CWIP 180700Z AUTO 01008KT M03/ RMK AO1 T1026,CWIP,2014-12-18T07:00:00Z,50.17,-66.43,-2.6,,10,8,,,,,,TRUE,TRUE,,,,,,,,,,,,,,,,,,,,,,,,,,,METAR,25.0
CWII 180700Z AUTO 14002KT M15/M17 RMK AO1 T11521170,CWII,2014-12-18T07:00:00Z,50.7,-96.57,-15.2,-17.0,140,2,,,,,,TRUE,TRUE,,,,,,,,,,,,,,,,,,,,,,,,,,,METAR,220.0
CWIG 180700Z AUTO 03017G22KT RMK AO1 PK WND 04026/0600,CWIG,2014-12-18T07:00:00Z,47.07,-70.53,,,30,17,22,,,,,TRUE,TRUE,,,,,,,,,,,,,,,,,,,,,,,,,,,METAR,18.0
CWIT 180700Z AUTO 28005KT 01/01 RMK AO1 2PAST HR SOG 12 5001 SLP073 P0001 T00050005 50002,CWIT,2014-12-18T07:00:00Z,45.17,-73.67,0.5,0.5,280,5,,,,1007.3,,TRUE,TRUE,,,,,,,,,,,,,,,,0.2,,,,,0.01,,,,,,METAR,52.0
FDMS 180700Z 00000KT 9999 SCT030 23/19 Q1016 NOSIG,FDMS,2014-12-18T07:00:00Z,-26.52,31.3,23.0,19.0,0,0,,6.21,30.0,,,,,,TRUE,,,,,SCT,3000,,,,,,,VFR,,,,,,,,,,,,METAR,641.0
CWIW 180700Z AUTO 18013KT M08/M10 RMK AO1 SOG 04 6004 PK WND 18019/0600 SLP194 T10841096,CWIW,2014-12-18T07:00:00Z,51.67,-105.4,-8.4,-9.6,180,13,,,,1019.4,,TRUE,TRUE,,,,,,,,,,,,,,,,,,,,,,,,,,,METAR,526.0
CWIZ 180700Z AUTO 31003KT M00/M00 RMK AO1 T10011001,CWIZ,2014-12-18T07:00:00Z,45.28,-73.33,-0.1,-0.1,310,3,,,,,,TRUE,TRUE,,,,,,,,,,,,,,,,,,,,,,,,,,,METAR,45.0
CWJB 180700Z AUTO 07009G15KT M01/M01 RMK AO1 SOG 16 PK WND 08017/0606 T10141014,CWJB,2014-12-18T07:00:00Z,46.78,-71.27,-1.4,-1.4,70,9,15,,,,,TRUE,TRUE,,,,,,,,,,,,,,,,,,,,,,,,,,,METAR,91.0
CWAJ 180700Z AUTO 26009G15KT M01/M06 RMK AO1 PK WND 23017/0600 SLP214 T10051055 51012,CWAJ,2014-12-18T07:00:00Z,42.25,-81.9,-0.5,-5.5,260,9,15,,,1021.4,,TRUE,TRUE,,,,,,,,,,,,,,,,1.2,,,,,,,,,,,METAR,178.0
CWJH 180700Z AUTO 22003KT M09/M10 RMK AO1 SOG 17 8004 SLP182 T10851104,CWJH,2014-12-18T07:00:00Z,56.32,-103.27,-8.5,-10.4,220,3,,,,1018.2,,TRUE,TRUE,,,,,,,,,,,,,,,,,,,,,,,,,,,METAR,344.0
CWBE 180700Z AUTO 36010G18KT M07/M10 RMK AO1 PK WND 35018/0650 SLP192 T10691102 51009,CWBE,2014-12-18T07:00:00Z,45.98,-81.48,-6.9,-10.2,360,10,18,,,1019.2,,TRUE,TRUE,,,,,,,,,,,,,,,,0.9,,,,,,,,,,,METAR,196.0
MKJS 180700Z 10003KT 9999 FEW022 25/25 Q1014,MKJS,2014-12-18T07:00:00Z,18.5,-77.92,25.0,25.0,100,3,,6.21,29.940945,,,,,,,,,,,FEW,2200,,,,,,,VFR,,,,,,,,,,,,METAR,1.0
CZMU 180700Z AUTO 25001KT M07/M07 RMK AO1 SOG 00 T10661072,CZMU,2014-12-18T07:00:00Z,53.57,-112.3,-6.6,-7.2,250,1,,,,,,TRUE,TRUE,,,,,,,,,,,,,,,,,,,,,,,,,,,METAR,683.0
CWMZ 180700Z AUTO 35018KT M03/M06 RMK AO1 PK WND 35023/0611 SLP161 T10331059 51014,CWMZ,2014-12-18T07:00:00Z,45.02,-80.37,-3.3,-5.9,350,18,,,,1016.1,,TRUE,TRUE,,,,,,,,,,,,,,,,1.4,,,,,,,,,,,METAR,191.0
CWCI 180700Z AUTO 05009KT M06/M08 RMK AO1 SLP253 T10611077 51013,CWCI,2014-12-18T07:00:00Z,47.32,-85.82,-6.1,-7.7,50,9,,,,1025.3,,TRUE,TRUE,,,,,,,,,,,,,,,,1.3,,,,,,,,,,,METAR,187.0
CWPS 180700Z AUTO M01/M06 RMK AO1 SLP191 T10131055 53012,CWPS,2014-12-18T07:00:00Z,42.57,-80.03,-1.3,-5.5,,,,,,1019.1,,TRUE,TRUE,,,,,,,,,,,,,,,,1.2,,,,,,,,,,,METAR,175.0
CWNL 180700Z AUTO 01004KT M06/M08 RMK AO1 SLP204 T10551079 52015,CWNL,2014-12-18T07:00:00Z,45.62,-82.97,-5.5,-7.9,10,4,,,,1020.4,,TRUE,TRUE,,,,,,,,,,,,,,,,1.5,,,,,,,,,,,METAR,183.0
CWKK 180700Z AUTO 36007KT M08/M14 RMK AO1 SOG 10 3001 SLP290 T10831135,CWKK,2014-12-18T07:00:00Z,49.72,-88.33,-8.3,-13.5,360,7,,,,1029.0,,TRUE,TRUE,,,,,,,,,,,,,,,,,,,,,,,,,,,METAR,260.0
CXVW 180700Z AUTO 16012KT M09/M10 RMK AO1 T10861095,CXVW,2014-12-18T07:00:00Z,55.1,-117.2,-8.6,-9.5,160,12,,,,,,TRUE,TRUE,,,,,,,,,,,,,,,,,,,,,,,,,,,METAR,698.0
CWZN 180700Z AUTO 10016KT 01/01 RMK AO1 SLP163 T00100006,CWZN,2014-12-18T07:00:00Z,47.37,-55.8,1.0,0.6,100,16,,,,1016.3,,TRUE,TRUE,,,,,,,,,,,,,,,,,,,,,,,,,,,METAR,64.0
CWDA 180700Z AUTO 14010G19KT M02/M03 RMK AO1 PK WND 15019/0652 SLP180 T10221033 55010,CWDA,2014-12-18T07:00:00Z,50.72,-56.12,-2.2,-3.3,140,10,19,,,1018.0,,TRUE,TRUE,,,,,,,,,,,,,,,,-1.0,,,,,,,,,,,METAR,29.0
CWEF 180700Z AUTO 12032G39KT 03/03 RMK AO1 PK WND 12039/0654 SLP072 T00310026 58038,CWEF,2014-12-18T07:00:00Z,47.22,-60.12,3.1,2.6,120,32,39,,,1007.2,,TRUE,TRUE,,,,,,,,,,,,,,,,-3.8,,,,,,,,,,,METAR,26.0
SANT 180700Z 32002KT 9999 FEW040 SCT100 21/20 Q1014,SANT,2014-12-18T07:00:00Z,-26.85,-65.08,21.0,20.0,320,2,,6.21,29.940945,,,,,,,,,,,FEW,4000,SCT,10000,,,,,VFR,,,,,,,,,,,,METAR,450.0
CWWS 180700Z AUTO 17014KT M17/M19 RMK AO1 SOG 41 8006 PK WND 17017/0657 SLP262 T11661190,CWWS,2014-12-18T07:00:00Z,52.82,-97.62,-16.6,-19.0,170,14,,,,1026.2,,TRUE,TRUE,,,,,,,,,,,,,,,,,,,,,,,,,,,METAR,223.0
CXWB 180700Z AUTO 02013KT M21/M24 RMK AO1 PK WND 04018/0600 T12071238,CXWB,2014-12-18T07:00:00Z,65.88,-89.45,-20.7,-23.8,20,13,,,,,,TRUE,TRUE,,,,,,,,,,,,,,,,,,,,,,,,,,,METAR,18.0
CXAT 180700Z AUTO 12003KT M28/M31 RMK AO1 SOG 00 1011 SLP141 T12781311,CXAT,2014-12-18T07:00:00Z,73.0,-85.03,-27.8,-31.1,120,3,,,,1014.1,,TRUE,TRUE,,,,,,,,,,,,,,,,,,,,,,,,,,,METAR,19.0
CZFS 180700Z AUTO 00000KT M25/M27 RMK AO1 SOG 15 3007 SLP077 T12481273,CZFS,2014-12-18T07:00:00Z,61.77,-121.23,-24.8,-27.3,0,0,,,,1007.7,,TRUE,TRUE,,,,,,,,,,,,,,,,,,,,,,,,,,,SPECI,168.0
CXHP 180700Z AUTO 32001KT M15/M16 RMK AO1 T11491164,CXHP,2014-12-18T07:00:00Z,55.4,-116.48,-14.9,-16.4,320,1,,,,,,TRUE,TRUE,,,,,,,,,,,,,,,,,,,,,,,,,,,METAR,602.0
HEMA 180700Z 32011KT CAVOK 23/14 Q1020 NOSIG,HEMA,2014-12-18T07:00:00Z,25.55,34.58,23.0,14.0,320,11,,6.21,30.11811,,,,,,TRUE,,,,,CAVOK,,,,,,,,VFR,,,,,,,,,,,,METAR,77.0
HESG 180700Z 25002KT CAVOK 16/08 Q1019 NOSIG,HESG,2014-12-18T07:00:00Z,26.33,31.75,16.0,8.0,250,2,,6.21,30.088583,,,,,,TRUE,,,,,CAVOK,,,,,,,,VFR,,,,,,,,,,,,METAR,70.0
HESC 180700Z 00000KT CAVOK 12/M08 Q1024 NOSIG,HESC,2014-12-18T07:00:00Z,28.68,34.07,12.0,-8.0,0,0,,6.21,30.236221,,,,,,TRUE,,,,,CAVOK,,,,,,,,VFR,,,,,,,,,,,,METAR,1332.0
HEBL 180700Z 33004KT CAVOK 20/08 Q1019 NOSIG,HEBL,2014-12-18T07:00:00Z,22.38,31.62,20.0,8.0,330,4,,6.21,30.088583,,,,,,TRUE,,,,,CAVOK,,,,,,,,VFR,,,,,,,,,,,,METAR,188.0
HEBA 180700Z 19005KT 9999 FEW020 BKN100 14/09 Q1019 NOSIG,HEBA,2014-12-18T07:00:00Z,30.92,29.7,14.0,9.0,190,5,,6.21,30.088583,,,,,,TRUE,,,,,FEW,2000,BKN,10000,,,,,VFR,,,,,,,,,,,,METAR,54.0
HEAT 180700Z 33004KT CAVOK 12/04 Q1021 NOSIG,HEAT,2014-12-18T07:00:00Z,27.05,31.02,12.0,4.0,330,4,,6.21,30.147638,,,,,,TRUE,,,,,CAVOK,,,,,,,,VFR,,,,,,,,,,,,METAR,70.0
HESH 180700Z 01010KT CAVOK 23/11 Q1019 NOSIG,HESH,2014-12-18T07:00:00Z,27.97,34.38,23.0,11.0,10,10,,6.21,30.088583,,,,,,TRUE,,,,,CAVOK,,,,,,,,VFR,,,,,,,,,,,,METAR,50.0
HEPS 180700Z 17005KT CAVOK 15/12 Q1018 NOSIG,HEPS,2014-12-18T07:00:00Z,31.28,32.25,15.0,12.0,170,5,,6.21,30.059055,,,,,,TRUE,,,,,CAVOK,,,,,,,,VFR,,,,,,,,,,,,METAR,6.0
HEGN 180700Z 28004KT CAVOK 22/13 Q1019 NOSIG,HEGN,2014-12-18T07:00:00Z,27.18,33.8,22.0,13.0,280,4,,6.21,30.088583,,,,,,TRUE,,,,,CAVOK,,,,,,,,VFR,,,,,,,,,,,,METAR,14.0
HESN 180700Z 01007KT CAVOK 18/12 Q1019 NOSIG,HESN,2014-12-18T07:00:00Z,23.97,32.82,18.0,12.0,10,7,,6.21,30.088583,,,,,,TRUE,,,,,CAVOK,,,,,,,,VFR,,,,,,,,,,,,METAR,194.0
HELX 180700Z 05002KT 8000 NSC 17/13 Q1020 NOSIG,HELX,2014-12-18T07:00:00Z,25.67,32.7,17.0,13.0,50,2,,4.97,30.11811,,,,,,TRUE,,,,,,,,,,,,,,,,,,,,,,,,,SPECI,88.0
HEAX 180700Z 19002KT 6000 NSC 15/11 Q1018 NOSIG,HEAX,2014-12-18T07:00:00Z,31.18,29.93,15.0,11.0,190,2,,3.73,30.059055,,,,,,TRUE,,,,,,,,,,,,,,,,,,,,,,,,,SPECI,7.0
HEMM 180700Z 24007KT CAVOK 14/09 Q1019 NOSIG,HEMM,2014-12-18T07:00:00Z,31.32,27.22,14.0,9.0,240,7,,6.21,30.088583,,,,,,TRUE,,,,,CAVOK,,,,,,,,VFR,,,,,,,,,,,,METAR,30.0
OYHD 180700Z 20010KT 150V230 9000 FEW030 SCT060 28/21 Q1017,OYHD,2014-12-18T07:00:00Z,14.75,42.97,28.0,21.0,200,10,,5.59,30.029528,,,,,,,,,,,FEW,3000,SCT,6000,,,,,VFR,,,,,,,,,,,,METAR,115.0
FNUE 180700Z 00000KT 9999 BKN020 Q1021,FNUE,2014-12-18T07:00:00Z,-11.77,19.9,,,0,0,,6.21,30.147638,,,,,,,,,,,BKN,2000,,,,,,,MVFR,,,,,,,,,,,,METAR,1329.0
FNGI 180700Z 19005KT CAVOK 24/08 Q1018,FNGI,2014-12-18T07:00:00Z,-17.05,15.68,24.0,8.0,190,5,,6.21,30.059055,,,,,,,,,,,CAVOK,,,,,,,,VFR,,,,,,,,,,,,METAR,1087.0
FNMA 180700Z 20004KT 9999 OVC007 18/17 Q1020,FNMA,2014-12-18T07:00:00Z,-9.55,16.32,18.0,17.0,200,4,,6.21,30.11811,,,,,,,,,,,OVC,700,,,,,,,IFR,,,,,,,,,,,,METAR,1173.0
FNUB 180700Z VRB02KT 9999 FEW027 20/// Q1024,FNUB,2014-12-18T07:00:00Z,-14.93,13.57,,,0,2,,6.21,30.236221,,,,,,,,,,,FEW,2700,,,,,,,VFR,,,,,,,,,,,,METAR,1761.0
OYHJ 180700Z 16004KT 9999 FEW020 17/13 Q////,OYHJ,2014-12-18T07:00:00Z,15.7,43.6,17.0,13.0,160,4,,6.21,,,,,,,,,,,,FEW,2000,,,,,,,VFR,,,,,,,,,,,,METAR,1760.0
OYTZ 180700Z 12005KT 9999 FEW020 20/10 Q1024,OYTZ,2014-12-18T07:00:00Z,13.67,44.12,20.0,10.0,120,5,,6.21,30.236221,,,,,,,,,,,FEW,2000,,,,,,,VFR,,,,,,,,,,,,METAR,1385.0
OYSY 180700Z 06009KT 030V130 CAVOK 22/04 Q1023,OYSY,2014-12-18T07:00:00Z,15.97,48.78,22.0,4.0,60,9,,6.21,30.206694,,,,,,,,,,,CAVOK,,,,,,,,VFR,,,,,,,,,,,,METAR,701.0
OYSH 180700Z 15006KT CAVOK 14/04 Q1030,OYSH,2014-12-18T07:00:00Z,16.97,43.72,14.0,4.0,150,6,,6.21,30.413385,,,,,,,,,,,CAVOK,,,,,,,,VFR,,,,,,,,,,,,METAR,1890.0
OYSD 180700Z 13004KT CAVOK 17/M02 Q////,OYSD,2014-12-18T07:00:00Z,,,17.0,-2.0,130,4,,6.21,,,,,,,,,,,,CAVOK,,,,,,,,VFR,,,,,,,,,,,,METAR,
OYRN 180700Z 16006KT 110V200 9999 FEW020 28/19 Q1018,OYRN,2014-12-18T07:00:00Z,14.67,49.38,28.0,19.0,160,6,,6.21,30.059055,,,,,,,,,,,FEW,2000,,,,,,,VFR,,,,,,,,,,,,METAR,17.0
OYMT 180700Z VRB02KT CAVOK 20/07 Q////,OYMT,2014-12-18T07:00:00Z,,,20.0,7.0,0,2,,6.21,,,,,,,,,,,,CAVOK,,,,,,,,VFR,,,,,,,,,,,,METAR,
OYMK 180700Z 17006KT CAVOK 18/21 Q////,OYMK,2014-12-18T07:00:00Z,13.32,43.27,18.0,21.0,170,6,,6.21,,,,,,,,,,,,CAVOK,,,,,,,,VFR,,,,,,,,,,,,METAR,3.0
OYIB 180700Z 20007KT CAVOK 19/09 Q1023,OYIB,2014-12-18T07:00:00Z,13.97,44.17,19.0,9.0,200,7,,6.21,30.206694,,,,,,,,,,,CAVOK,,,,,,,,VFR,,,,,,,,,,,,METAR,1920.0
OYGD 180700Z 36008KT CAVOK 27/07 Q1019,OYGD,2014-12-18T07:00:00Z,16.18,52.17,27.0,7.0,360,8,,6.21,30.088583,,,,,,,,,,,CAVOK,,,,,,,,VFR,,,,,,,,,,,,METAR,41.0
OYDM 180700Z 08005KT CAVOK 15/06 Q////,OYDM,2014-12-18T07:00:00Z,14.53,44.43,15.0,6.0,80,5,,6.21,,,,,,,,,,,,CAVOK,,,,,,,,VFR,,,,,,,,,,,,METAR,2425.0
OYAT 180700Z 33010KT CAVOK 18/08 Q1026,OYAT,2014-12-18T07:00:00Z,14.55,46.83,18.0,8.0,330,10,,6.21,30.295275,,,,,,,,,,,CAVOK,,,,,,,,VFR,,,,,,,,,,,,METAR,1039.0
OYAR 180700Z 00000KT CAVOK 16/01 Q////,OYAR,2014-12-18T07:00:00Z,14.58,49.25,16.0,1.0,0,0,,6.21,,,,,,,,,,,,CAVOK,,,,,,,,VFR,,,,,,,,,,,,METAR,25.0
FKKR 180700Z 03001KT CAVOK 23/07 Q1014 NOSIG,FKKR,2014-12-18T07:00:00Z,9.32,13.37,23.0,7.0,30,1,,6.21,29.940945,,,,,,TRUE,,,,,CAVOK,,,,,,,,VFR,,,,,,,,,,,,METAR,244.0
FKKD 180700Z 00000KT 1300 BR FEW013 FEW016CB 26/25 Q1012 NOSIG,FKKD,2014-12-18T07:00:00Z,4.0,9.72,26.0,25.0,0,0,,0.81,29.88189,,,,,,TRUE,,,,BR,FEW,1300,FEW,1600,,,,,LIFR,,,,,,,,,,,,METAR,9.0
LERI 180700Z 24002KT CAVOK 06/05 Q1024 NOSIG,LERI,2014-12-18T07:00:00Z,37.95,-1.22,6.0,5.0,240,2,,6.21,30.236221,,,,,,TRUE,,,,,CAVOK,,,,,,,,VFR,,,,,,,,,,,,METAR,75.0
LEGT 180700Z 00000KT CAVOK 02/02 Q1028,LEGT,2014-12-18T07:00:00Z,40.28,-3.72,2.0,2.0,0,0,,6.21,30.35433,,,,,,,,,,,CAVOK,,,,,,,,VFR,,,,,,,,,,,,METAR,612.0
LEGA 180700Z 18004KT CAVOK 08/01 Q1026,LEGA,2014-12-18T07:00:00Z,37.12,-3.62,8.0,1.0,180,4,,6.21,30.295275,,,,,,,,,,,CAVOK,,,,,,,,VFR,,,,,,,,,,,,METAR,686.0
FAGC 180700Z AUTO 34003KT //// // ////// 19/14 Q1021,FAGC,2014-12-18T07:00:00Z,-25.98,28.13,19.0,14.0,340,3,,,30.147638,,,TRUE,,,,,,,,,,,,,,,,,,,,,,,,,,,,METAR,1623.0
WABP 180700Z 00000KT 8000 BKN013 SCT014CB 29/25 Q1009,WABP,2014-12-18T07:00:00Z,-4.52,136.88,29.0,25.0,0,0,,4.97,29.793306,,,,,,,,,,,BKN,1300,SCT,1400,,,,,MVFR,,,,,,,,,,,,METAR,31.0
GMTN 180700Z 20006KT CAVOK 12/08 Q1025 NOSIG,GMTN,2014-12-18T07:00:00Z,35.57,-5.32,12.0,8.0,200,6,,6.21,30.265747,,,,,,TRUE,,,,,CAVOK,,,,,,,,VFR,,,,,,,,,,,,METAR,10.0
CZSP 180700Z AUTO 07009G15KT 02/01 RMK AO1 PRESFR SLP032 T00160007 58046,CZSP,2014-12-18T07:00:00Z,46.45,-62.58,1.6,0.7,70,9,15,,,1003.2,,TRUE,TRUE,,,,,,,,,,,,,,,,-4.6,,,,,,,,,,,METAR,30.0
CWXI 180700Z AUTO 07008KT M03/M04 RMK AO1 SLP173 T10261044 56012,CWXI,2014-12-18T07:00:00Z,51.02,-57.1,-2.6,-4.4,70,8,,,,1017.3,,TRUE,TRUE,,,,,,,,,,,,,,,,-1.2,,,,,,,,,,,METAR,6.0
CWBK 180700Z AUTO 09026G31KT 04/03 RMK AO1 3PAST HR PRESFR 8070 PK WND 08031/0657 SLP982 P0013 T00370030 50033,CWBK,2014-12-18T07:00:00Z,45.77,-62.67,3.7,3.0,90,26,31,,,998.2,,TRUE,TRUE,,,,,,,,,,,,,,,,3.3,,,,,0.13,,,,,,METAR,2.0
CXBK 180700Z AUTO 17012KT M08/M09 RMK AO1 SOG 17 7006 PK WND 17018/0615 SLP186 T10771088,CXBK,2014-12-18T07:00:00Z,50.2,-104.7,-7.7,-8.8,170,12,,,,1018.6,,TRUE,TRUE,,,,,,,,,,,,,,,,,,,,,,,,,,,METAR,580.0
CXZU 180700Z AUTO M15/M16 RMK AO1 SLP152 T11461163 56002,CXZU,2014-12-18T07:00:00Z,54.15,-115.78,-14.6,-16.3,,,,,,1015.2,,TRUE,TRUE,,,,,,,,,,,,,,,,-0.2,,,,,,,,,,,METAR,785.0
CXSH 180700Z AUTO 33005KT M01/M02 RMK AO1 SLP073 T10061018 55004,CXSH,2014-12-18T07:00:00Z,46.58,-72.73,-0.6,-1.8,330,5,,,,1007.3,,TRUE,TRUE,,,,,,,,,,,,,,,,-0.4,,,,,,,,,,,METAR,110.0
CXOX 180700Z AUTO 21005KT M09/M10 RMK AO1 SOG 29 8004 SLP180 T10851095,CXOX,2014-12-18T07:00:00Z,55.15,-105.27,-8.5,-9.5,210,5,,,,1018.0,,TRUE,TRUE,,,,,,,,,,,,,,,,,,,,,,,,,,,METAR,379.0
CXNM 180700Z AUTO 12010G23KT RMK AO1 6PAST HR SOG 02 M PK WND 14023/0657 P0002 50006,CXNM,2014-12-18T07:00:00Z,46.82,-60.67,,,120,10,23,,,,,TRUE,TRUE,,,,,,,,,,,,,,,,0.6,,,,,0.02,,,,,,METAR,439.0
CXMM 180700Z AUTO 19004KT M06/M07 RMK AO1 SOG 15 8006 SLP129 T10591072,CXMM,2014-12-18T07:00:00Z,56.65,-111.22,-5.9,-7.2,190,4,,,,1012.9,,TRUE,TRUE,,,,,,,,,,,,,,,,,,,,,,,,,,,METAR,369.0
CXMI 180700Z AUTO 10010KT 07/07 RMK AO1 PK WND 10024/0607 SLP961 T00700068 56034,CXMI,2014-12-18T07:00:00Z,44.6,-63.53,7.0,6.8,100,10,,,,996.1,,TRUE,TRUE,,,,,,,,,,,,,,,,-3.4,,,,,,,,,,,METAR,15.0
CXIB 180700Z AUTO 11002KT 03/02 RMK AO1 5PAST HR 8033 SLP084 P0002 T00340023 50005,CXIB,2014-12-18T07:00:00Z,46.67,-60.38,3.4,2.3,110,2,,,,1008.4,,TRUE,TRUE,,,,,,,,,,,,,,,,0.5,,,,,0.02,,,,,,METAR,8.0
CXHF 180700Z AUTO 00/ RMK AO1 T0000,CXHF,2014-12-18T07:00:00Z,45.83,-75.65,0.0,,,,,,,,,TRUE,TRUE,,,,,,,,,,,,,,,,,,,,,,,,,,,METAR,190.0
CXGH 180700Z AUTO 15004KT M15/M16 RMK AO1 T11461160,CXGH,2014-12-18T07:00:00Z,50.63,-97.0,-14.6,-16.0,150,4,,,,,,TRUE,TRUE,,,,,,,,,,,,,,,,,,,,,,,,,,,METAR,217.0
CXEA 180700Z AUTO 12001KT M20/M21 RMK AO1 SOG 22 0000 SLP304 T11971214,CXEA,2014-12-18T07:00:00Z,50.63,-93.22,-19.7,-21.4,120,1,,,,1030.4,,TRUE,TRUE,,,,,,,,,,,,,,,,,,,,,,,,,,,METAR,355.0
CXDW 180700Z AUTO 15001KT M17/M19 RMK AO1 T11731187,CXDW,2014-12-18T07:00:00Z,49.4,-98.32,-17.3,-18.7,150,1,,,,,,TRUE,TRUE,,,,,,,,,,,,,,,,,,,,,,,,,,,METAR,341.0
CXCK 180700Z AUTO 00000KT M19/M21 RMK AO1 SOG 17 3005 SLP118 T11931214,CXCK,2014-12-18T07:00:00Z,62.12,-136.2,-19.3,-21.4,0,0,,,,1011.8,,TRUE,TRUE,,,,,,,,,,,,,,,,,,,,,,,,,,,METAR,540.0
CXCA 180700Z AUTO 31002KT M15/M16 RMK AO1 SLP305 T11471159 50001,CXCA,2014-12-18T07:00:00Z,49.15,-88.35,-14.7,-15.9,310,2,,,,1030.5,,TRUE,TRUE,,,,,,,,,,,,,,,,0.1,,,,,,,,,,,METAR,228.0
CXBO 180700Z AUTO 08016KT RMK AO1 PK WND 08019/0659,CXBO,2014-12-18T07:00:00Z,46.83,-71.2,,,80,16,,,,,,TRUE,TRUE,,,,,,,,,,,,,,,,,,,,,,,,,,,METAR,100.0
CWVT 180700Z AUTO 19004KT M08/M09 RMK AO1 SOG 14 0000 SLP174 T10821094,CWVT,2014-12-18T07:00:00Z,55.82,-108.42,-8.2,-9.4,190,4,,,,1017.4,,TRUE,TRUE,,,,,,,,,,,,,,,,,,,,,,,,,,,METAR,434.0
CWOY 180700Z AUTO 20011KT M10/M12 RMK AO1 SOG 02 7005 SLP203 T10951118,CWOY,2014-12-18T07:00:00Z,51.77,-104.2,-9.5,-11.8,200,11,,,,1020.3,,TRUE,TRUE,,,,,,,,,,,,,,,,,,,,,,,,,,,METAR,560.0
CWKO 180700Z AUTO 17003KT M07/M08 RMK AO1 SOG 02 8003 SLP189 T10731078,CWKO,2014-12-18T07:00:00Z,49.17,-105.97,-7.3,-7.8,170,3,,,,1018.9,,TRUE,TRUE,,,,,,,,,,,,,,,,,,,,,,,,,,,METAR,917.0
CWEH 180700Z AUTO 24002KT M05/M05 RMK AO1 SOG 08 8003 SLP157 T10491049,CWEH,2014-12-18T07:00:00Z,49.42,-108.97,-4.9,-4.9,240,2,,,,1015.7,,TRUE,TRUE,,,,,,,,,,,,,,,,,,,,,,,,,,,METAR,1078.0
CWDC 180700Z AUTO 15004KT M10/M11 RMK AO1 SOG 14 8007 SLP131 T11011114,CWDC,2014-12-18T07:00:00Z,59.57,-108.47,-10.1,-11.4,150,4,,,,1013.1,,TRUE,TRUE,,,,,,,,,,,,,,,,,,,,,,,,,,,METAR,318.0
CWRM 180700Z AUTO 11001KT M16/M17 RMK AO1 SOG 14 3002 SLP159 T11611174,CWRM,2014-12-18T07:00:00Z,52.42,-114.92,-16.1,-17.4,110,1,,,,1015.9,,TRUE,TRUE,,,,,,,,,,,,,,,,,,,,,,,,,,,METAR,988.0
CWCT 180700Z AUTO 00000KT M09/M10 RMK AO1 SLP146 T10871095 58001,CWCT,2014-12-18T07:00:00Z,52.07,-111.47,-8.7,-9.5,0,0,,,,1014.6,,TRUE,TRUE,,,,,,,,,,,,,,,,-0.1,,,,,,,,,,,METAR,791.0
CWZG 180700Z AUTO 24004KT M07/M09 RMK AO1 SOG 13 8001 SLP172 T10701086,CWZG,2014-12-18T07:00:00Z,51.2,-115.53,-7.0,-8.6,240,4,,,,1017.2,,TRUE,TRUE,,,,,,,,,,,,,,,,,,,,,,,,,,,METAR,1397.0
CWRO 180700Z AUTO 13035G43KT 07/05 RMK AO1 8PAST HR 7016 PK WND 13043/0651 SLP030 P0007 T00660048 50018,CWRO,2014-12-18T07:00:00Z,54.17,-131.67,6.6,4.8,130,35,43,,,1003.0,,TRUE,TRUE,,,,,,,,,,,,,,,,1.8,,,,,0.07,,,,,,METAR,7.0
CWLP 180700Z AUTO 15016KT 07/05 RMK AO1 PK WND 15020/0649 SLP099 T00660052 55001,CWLP,2014-12-18T07:00:00Z,50.93,-127.63,6.6,5.2,150,16,,,,1009.9,,TRUE,TRUE,,,,,,,,,,,,,,,,-0.1,,,,,,,,,,,METAR,17.0
CWJD 180700Z AUTO 20003KT M23/M25 RMK AO1 SOG 27 8004 SLP247 T12311254,CWJD,2014-12-18T07:00:00Z,53.17,-99.27,-23.1,-25.4,200,3,,,,1024.7,,TRUE,TRUE,,,,,,,,,,,,,,,,,,,,,,,,,,,METAR,223.0
CWMQ 180700Z AUTO 31001KT M06/M08 RMK AO1 SOG 05 0004 SLP151 T10551077,CWMQ,2014-12-18T07:00:00Z,49.9,-109.47,-5.5,-7.7,310,1,,,,1015.1,,TRUE,TRUE,,,,,,,,,,,,,,,,,,,,,,,,,,,METAR,767.0
CWMM 180700Z AUTO 00000KT 06/06 RMK AO1 3PAST HR 2005 SLP131 P0001 T00590057 50003,CWMM,2014-12-18T07:00:00Z,49.22,-122.68,5.9,5.7,0,0,,,,1013.1,,TRUE,TRUE,,,,,,,,,,,,,,,,0.3,,,,,0.01,,,,,,METAR,5.0
CWMJ 180700Z AUTO 34004KT M01/M01 RMK AO1 SOG 20 3012 SLP100 T10071013,CWMJ,2014-12-18T07:00:00Z,46.27,-76.0,-0.7,-1.3,340,4,,,,1010.0,,TRUE,TRUE,,,,,,,,,,,,,,,,,,,,,,,,,,,METAR,200.0
CWLM 180700Z AUTO 03005KT 06/06 RMK AO1 SLP124 T00640059 51003,CWLM,2014-12-18T07:00:00Z,48.42,-123.32,6.4,5.9,30,5,,,,1012.4,,TRUE,TRUE,,,,,,,,,,,,,,,,0.3,,,,,,,,,,,METAR,70.0
CWLE 180700Z AUTO 20006KT M05/M06 RMK AO1 SLP167 T10451059 58005,CWLE,2014-12-18T07:00:00Z,50.95,-107.15,-4.5,-5.9,200,6,,,,1016.7,,TRUE,TRUE,,,,,,,,,,,,,,,,-0.5,,,,,,,,,,,METAR,665.0
CWLC 180700Z AUTO 12018KT 07/02 RMK AO1 PK WND 12022/0621 T00680017,CWLC,2014-12-18T07:00:00Z,54.3,-130.62,6.8,1.7,120,18,,,,,,TRUE,TRUE,,,,,,,,,,,,,,,,,,,,,,,,,,,METAR,27.0
CWKX 180700Z AUTO 06002KT M14/M16 RMK AO1 SOG 22 8003 SLP152 T11441159,CWKX,2014-12-18T07:00:00Z,58.43,-130.02,-14.4,-15.9,60,2,,,,1015.2,,TRUE,TRUE,,,,,,,,,,,,,,,,,,,,,,,,,,,METAR,793.0
CWKH 180700Z AUTO 05/04 RMK AO1 SLP114 T00470038 51004,CWKH,2014-12-18T07:00:00Z,48.57,-123.55,4.7,3.8,,,,,,1011.4,,TRUE,TRUE,,,,,,,,,,,,,,,,0.4,,,,,,,,,,,METAR,366.0
CWKG 180700Z AUTO 17007KT 07/06 RMK AO1 2PAST HR SOG 00 6023 SLP953 P0001 T00680064 50002,CWKG,2014-12-18T07:00:00Z,44.43,-65.2,6.8,6.4,170,7,,,,995.3,,TRUE,TRUE,,,,,,,,,,,,,,,,0.2,,,,,0.01,,,,,,METAR,165.0
CWJX 180700Z AUTO 19003KT M14/M16 RMK AO1 SOG 01 0000 SLP162 T11381157,CWJX,2014-12-18T07:00:00Z,50.88,-109.5,-13.8,-15.7,190,3,,,,1016.2,,TRUE,TRUE,,,,,,,,,,,,,,,,,,,,,,,,,,,METAR,672.0
CWJV 180700Z AUTO 16005KT M00/M02 RMK AO1 SLP157 T10031015 55001,CWJV,2014-12-18T07:00:00Z,50.22,-119.18,-0.3,-1.5,160,5,,,,1015.7,,TRUE,TRUE,,,,,,,,,,,,,,,,-0.1,,,,,,,,,,,METAR,556.0
CWJT 180700Z AUTO 00000KT 00/M00 RMK AO1 0PAST HR 3001 SLP083 P0004 T00001002 50010,CWJT,2014-12-18T07:00:00Z,46.07,-74.57,0.0,-0.2,0,0,,,,1008.3,,TRUE,TRUE,,,,,,,,,,,,,,,,1.0,,,,,0.04,,,,,,METAR,239.0
CWJR 180700Z AUTO 15002KT M00/M01 RMK AO1 SOG 00 3001 SLP183 T10011006,CWJR,2014-12-18T07:00:00Z,49.07,-116.5,-0.1,-0.6,150,2,,,,1018.3,,TRUE,TRUE,,,,,,,,,,,,,,,,,,,,,,,,,,,METAR,646.0
CWJO 180700Z AUTO 02002KT M03/M03 RMK AO1 0PAST HR 5004 SLP111 P0004 T10291033 50010,CWJO,2014-12-18T07:00:00Z,48.43,-71.15,-2.9,-3.3,20,2,,,,1011.1,,TRUE,TRUE,,,,,,,,,,,,,,,,1.0,,,,,0.04,,,,,,METAR,133.0
CWJI 180700Z AUTO 18006KT M06/M07 RMK AO1 SOG 02 8006 SLP182 T10601070,CWJI,2014-12-18T07:00:00Z,49.72,-105.92,-6.0,-7.0,180,6,,,,1018.2,,TRUE,TRUE,,,,,,,,,,,,,,,,,,,,,,,,,,,METAR,724.0
CZTB 180700Z AUTO 24004KT M19/M21 RMK AO1 SOG 08 1002 SLP301 T11861207,CZTB,2014-12-18T07:00:00Z,48.37,-89.32,-18.6,-20.7,240,4,,,,1030.1,,TRUE,TRUE,,,,,,,,,,,,,,,,,,,,,,,,,,,METAR,199.0
CZMJ 180700Z AUTO 20012KT M06/M08 RMK AO1 SOG 01 8006 SLP198 T10591077,CZMJ,2014-12-18T07:00:00Z,50.33,-105.57,-5.9,-7.7,200,12,,,,1019.8,,TRUE,TRUE,,,,,,,,,,,,,,,,,,,,,,,,,,,METAR,577.0
CXZV 180700Z AUTO 02006KT M04/M08 RMK AO1 SOG 14 6017 SLP133 T10401076,CXZV,2014-12-18T07:00:00Z,50.22,-66.25,-4.0,-7.6,20,6,,,,1013.3,,TRUE,TRUE,,,,,,,,,,,,,,,,,,,,,,,,,,,METAR,52.0
CXTD 180700Z AUTO 09011G18KT 05/04 RMK AO1 1PAST HR PRESFR 8063 PK WND 11025/0648 SLP016 P0016 T00460043 50041,CXTD,2014-12-18T07:00:00Z,45.62,-61.68,4.6,4.3,90,11,18,,,1001.6,,TRUE,TRUE,,,,,,,,,,,,,,,,4.1,,,,,0.16,,,,,,METAR,68.0
CXLB 180700Z AUTO 22019KT 06/06 RMK AO1 PK WND 22022/0650 SLP956 T00640061 56023,CXLB,2014-12-18T07:00:00Z,44.37,-64.3,6.4,6.1,220,19,,,,995.6,,TRUE,TRUE,,,,,,,,,,,,,,,,-2.3,,,,,,,,,,,METAR,4.0
CXCP 180700Z AUTO 31003KT M08/M09 RMK AO1 T10771086,CXCP,2014-12-18T07:00:00Z,50.28,-113.35,-7.7,-8.6,310,3,,,,,,TRUE,TRUE,,,,,,,,,,,,,,,,,,,,,,,,,,,METAR,1006.0
CWDZ 180700Z AUTO 27003KT M11/M12 RMK AO1 SLP153 T11091119 52001,CWDZ,2014-12-18T07:00:00Z,51.42,-112.67,-10.9,-11.9,270,3,,,,1015.3,,TRUE,TRUE,,,,,,,,,,,,,,,,0.1,,,,,,,,,,,METAR,678.0
CWDK 180700Z AUTO 35002KT M04/M06 RMK AO1 SOG 01 2002 SLP141 T10401064,CWDK,2014-12-18T07:00:00Z,50.02,-113.62,-4.0,-6.4,350,2,,,,1014.1,,TRUE,TRUE,,,,,,,,,,,,,,,,,,,,,,,,,,,METAR,1012.0
CWDJ 180700Z AUTO 20012KT M08/M09 RMK AO1 SOG 01 7006 PK WND 19018/0620 SLP200 T10751094,CWDJ,2014-12-18T07:00:00Z,50.4,-104.58,-7.5,-9.4,200,12,,,,1020.0,,TRUE,TRUE,,,,,,,,,,,,,,,,,,,,,,,,,,,METAR,573.0
CWBZ 180700Z AUTO 25007KT 01/M00 RMK AO1 2PAST HR 3002 SLP089 P0005 T00061004 50012,CWBZ,2014-12-18T07:00:00Z,45.12,-74.27,0.6,-0.4,250,7,,,,1008.9,,TRUE,TRUE,,,,,,,,,,,,,,,,1.2,,,,,0.05,,,,,,METAR,49.0
CWBT 180700Z AUTO 03005KT M03/M05 RMK AO1 SLP136 T10331047 56017,CWBT,2014-12-18T07:00:00Z,50.27,-64.23,-3.3,-4.7,30,5,,,,1013.6,,TRUE,TRUE,,,,,,,,,,,,,,,,-1.7,,,,,,,,,,,METAR,11.0
CWBS 180700Z AUTO 03008KT M00/M01 RMK AO1 T10031006,CWBS,2014-12-18T07:00:00Z,46.18,-72.92,-0.3,-0.6,30,8,,,,,,TRUE,TRUE,,,,,,,,,,,,,,,,,,,,,,,,,,,METAR,16.0
CWBO 180700Z AUTO 13001KT M15/M16 RMK AO1 SOG 09 0001 SLP148 T11461155,CWBO,2014-12-18T07:00:00Z,50.53,-111.83,-14.6,-15.5,130,1,,,,1014.8,,TRUE,TRUE,,,,,,,,,,,,,,,,,,,,,,,,,,,METAR,747.0
CWBA 180700Z AUTO 33010KT M06/M07 RMK AO1 SOG 14 PK WND 33017/0629 T10561067,CWBA,2014-12-18T07:00:00Z,46.72,-79.1,-5.6,-6.7,330,10,,,,,,TRUE,TRUE,,,,,,,,,,,,,,,,,,,,,,,,,,,METAR,181.0
CWAV 180700Z AUTO 27003KT M13/M15 RMK AO1 SLP154 T11301149 50002,CWAV,2014-12-18T07:00:00Z,51.77,-114.67,-13.0,-14.9,270,3,,,,1015.4,,TRUE,TRUE,,,,,,,,,,,,,,,,0.2,,,,,,,,,,,METAR,1114.0
CWAQ 180700Z AUTO 18007KT M07/M08 RMK AO1 SOG 00 8004 SLP186 T10701078,CWAQ,2014-12-18T07:00:00Z,49.05,-105.48,-7.0,-7.8,180,7,,,,1018.6,,TRUE,TRUE,,,,,,,,,,,,,,,,,,,,,,,,,,,METAR,756.0
CWAF 180700Z AUTO 00004KT M01/M01 RMK AO1 T10061013,CWAF,2014-12-18T07:00:00Z,48.07,-69.53,-0.6,-1.3,0,4,,,,,,TRUE,TRUE,,,,,,,,,,,,,,,,,,,,,,,,,,,METAR,5.0
CWIK 180700Z AUTO 19009KT M10/M11 RMK AO1 SOG 04 8007 SLP219 T10961114,CWIK,2014-12-18T07:00:00Z,50.37,-102.58,-9.6,-11.4,190,9,,,,1021.9,,TRUE,TRUE,,,,,,,,,,,,,,,,,,,,,,,,,,,SPECI,602.0
CWBU 180700Z AUTO 21009KT M09/M11 RMK AO1 SOG 15 8005 PK WND 22017/0621 SLP197 T10851109,CWBU,2014-12-18T07:00:00Z,53.33,-104.02,-8.5,-10.9,210,9,,,,1019.7,,TRUE,TRUE,,,,,,,,,,,,,,,,,,,,,,,,,,,SPECI,373.0
CXKE 180700Z AUTO 27006KT M00/M00 RMK AO1 2PAST HR SOG 04 3007 SLP096 P0001 T10041004 50002,CXKE,2014-12-18T07:00:00Z,45.0,-75.63,-0.4,-0.4,270,6,,,,1009.6,,TRUE,TRUE,,,,,,,,,,,,,,,,0.2,,,,,0.01,,,,,,METAR,99.0
CXHM 180700Z AUTO 25006KT M01/M03 RMK AO1 SLP170 T10071028 53011,CXHM,2014-12-18T07:00:00Z,43.28,-79.9,-0.7,-2.8,250,6,,,,1017.0,,TRUE,TRUE,,,,,,,,,,,,,,,,1.1,,,,,,,,,,,METAR,107.0
CWZS 180700Z AUTO 35004KT M03/M03 RMK AO1 SLP085 T10291033 56019,CWZS,2014-12-18T07:00:00Z,48.47,-67.43,-2.9,-3.3,350,4,,,,1008.5,,TRUE,TRUE,,,,,,,,,,,,,,,,-1.9,,,,,,,,,,,METAR,166.0
CWZO 180700Z AUTO 06005KT RMK AO1,CWZO,2014-12-18T07:00:00Z,48.55,-123.23,,,60,5,,,,,,TRUE,TRUE,,,,,,,,,,,,,,,,,,,,,,,,,,,METAR,1.0
CWZA 180700Z AUTO 18001KT 04/03 RMK AO1 2PAST HR 3003 SLP135 P0001 T00420033 50002,CWZA,2014-12-18T07:00:00Z,49.25,-121.77,4.2,3.3,180,1,,,,1013.5,,TRUE,TRUE,,,,,,,,,,,,,,,,0.2,,,,,0.01,,,,,,METAR,15.0
CWYY 180700Z AUTO 30001KT 02/02 RMK AO1 SLP164 T00200016 52001,CWYY,2014-12-18T07:00:00Z,49.03,-119.43,2.0,1.6,300,1,,,,1016.4,,TRUE,TRUE,,,,,,,,,,,,,,,,0.1,,,,,,,,,,,METAR,283.0
CWYL 180700Z AUTO 25001KT M09/M09 RMK AO1 SOG 40 7006 SLP166 T10861092,CWYL,2014-12-18T07:00:00Z,51.45,-116.32,-8.6,-9.2,250,1,,,,1016.6,,TRUE,TRUE,,,,,,,,,,,,,,,,,,,,,,,,,,,METAR,1615.0
CWYJ 180700Z AUTO 01003KT 07/06 RMK AO1 SLP127 T00690059 53004,CWYJ,2014-12-18T07:00:00Z,48.45,-123.3,6.9,5.9,10,3,,,,1012.7,,TRUE,TRUE,,,,,,,,,,,,,,,,0.4,,,,,,,,,,,METAR,39.0
CWXL 180700Z AUTO 17010KT M05/M06 RMK AO1 T10511061,CWXL,2014-12-18T07:00:00Z,49.73,-111.45,-5.1,-6.1,170,10,,,,,,TRUE,TRUE,,,,,,,,,,,,,,,,,,,,,,,,,,,METAR,817.0
CZEL 180700Z AUTO 28010KT M02/M03 RMK AO1 PK WND 28018/0603 SLP168 T10221033 53011,CZEL,2014-12-18T07:00:00Z,43.65,-80.42,-2.2,-3.3,280,10,,,,1016.8,,TRUE,TRUE,,,,,,,,,,,,,,,,1.1,,,,,,,,,,,METAR,376.0
CXBI 180700Z AUTO 32008KT M03/M04 RMK AO1 SLP153 T10271043 53014,CXBI,2014-12-18T07:00:00Z,44.48,-79.55,-2.7,-4.3,320,8,,,,1015.3,,TRUE,TRUE,,,,,,,,,,,,,,,,1.4,,,,,,,,,,,METAR,289.0
CTRA 180700Z AUTO 19003KT M15/M18 RMK AO1 SLP303 T11471176 50002,CTRA,2014-12-18T07:00:00Z,49.67,-93.73,-14.7,-17.6,190,3,,,,1030.3,,TRUE,TRUE,,,,,,,,,,,,,,,,0.2,,,,,,,,,,,METAR,435.0
CWDM 180700Z AUTO 03007KT M03/M05 RMK AO1 SLP164 T10291046 56013,CWDM,2014-12-18T07:00:00Z,50.47,-59.62,-2.9,-4.6,30,7,,,,1016.4,,TRUE,TRUE,,,,,,,,,,,,,,,,-1.3,,,,,,,,,,,METAR,6.0
CWSS 180700Z AUTO 35005KT 00/M01 RMK AO1 2PAST HR SOG 00 6014 SLP991 P0001 T00001008 50002,CWSS,2014-12-18T07:00:00Z,45.2,-67.25,0.0,-0.8,350,5,,,,999.1,,TRUE,TRUE,,,,,,,,,,,,,,,,0.2,,,,,0.01,,,,,,METAR,26.0
CWRN 180700Z AUTO 10023G31KT 06/ RMK AO1 PK WND 09031/0655 T0057,CWRN,2014-12-18T07:00:00Z,45.35,-60.98,5.7,,100,23,31,,,,,TRUE,TRUE,,,,,,,,,,,,,,,,,,,,,,,,,,,METAR,8.0
CWBV 180700Z AUTO 12027KT 07/07 RMK AO1 PK WND 12035/0649 SLP966 T00710066 56070,CWBV,2014-12-18T07:00:00Z,44.82,-62.32,7.1,6.6,120,27,,,,996.6,,TRUE,TRUE,,,,,,,,,,,,,,,,-7.0,,,,,,,,,,,METAR,10.0
CWNH 180700Z AUTO 03007KT M03/M03 RMK AO1 5PAST HR SOG 24 5011 SLP090 P0002 T10261030 50005,CWNH,2014-12-18T07:00:00Z,47.78,-69.53,-2.6,-3.0,30,7,,,,1009.0,,TRUE,TRUE,,,,,,,,,,,,,,,,0.5,,,,,0.02,,,,,,METAR,148.0
CWSF 180700Z AUTO 05018KT M02/M02 RMK AO1 9PAST HR 6022 PK WND 05023/0643 SLP106 P0004 T10151016 50009,CWSF,2014-12-18T07:00:00Z,49.25,-65.32,-1.5,-1.6,50,18,,,,1010.6,,TRUE,TRUE,,,,,,,,,,,,,,,,0.9,,,,,0.04,,,,,,METAR,29.0
CWBY 180700Z AUTO 06009KT M02/ RMK AO1 SOG 00 6022 SLP116 T1023,CWBY,2014-12-18T07:00:00Z,49.82,-64.28,-2.3,,60,9,,,,1011.6,,TRUE,TRUE,,,,,,,,,,,,,,,,,,,,,,,,,,,METAR,53.0
CWER 180700Z AUTO 06020KT RMK AO1 PK WND 07025/0630,CWER,2014-12-18T07:00:00Z,47.0,-70.82,,,60,20,,,,,,TRUE,TRUE,,,,,,,,,,,,,,,,,,,,,,,,,,,METAR,5.0
CWEP 180700Z AUTO 09017KT 03/02 RMK AO1 PRESFR PK WND 10023/0644 SLP035 T00320016 58041,CWEP,2014-12-18T07:00:00Z,46.45,-61.97,3.2,1.6,90,17,,,,1003.5,,TRUE,TRUE,,,,,,,,,,,,,,,,-4.1,,,,,,,,,,,METAR,11.0
CWPK 180700Z AUTO 36002KT M05/M06 RMK AO1 6PAST HR SOG 16 3005 SLP108 P0002 T10461059 50006,CWPK,2014-12-18T07:00:00Z,47.92,-74.62,-4.6,-5.9,360,2,,,,1010.8,,TRUE,TRUE,,,,,,,,,,,,,,,,0.6,,,,,0.02,,,,,,METAR,442.0
CWMT 180700Z AUTO 06001KT M17/M19 RMK AO1 SLP068 T11721189 54000,CWMT,2014-12-18T07:00:00Z,63.13,-117.25,-17.2,-18.9,60,1,,,,1006.8,,TRUE,TRUE,,,,,,,,,,,,,,,,,,,,,,,,,,,SPECI,271.0
CWST 180700Z AUTO 03011G16KT M02/M02 RMK AO1 6PAST HR SOG 03 6010 PK WND 04017/0623 SLP076 P0002 T10151020 50006,CWST,2014-12-18T07:00:00Z,47.35,-70.02,-1.5,-2.0,30,11,16,,,1007.6,,TRUE,TRUE,,,,,,,,,,,,,,,,0.6,,,,,0.02,,,,,,METAR,31.0
CWSR 180700Z AUTO 19005KT M09/M10 RMK AO1 SOG 02 6004 SLP160 T10921100,CWSR,2014-12-18T07:00:00Z,53.37,-107.53,-9.2,-10.0,190,5,,,,1016.0,,TRUE,TRUE,,,,,,,,,,,,,,,,,,,,,,,,,,,METAR,584.0
CWSP 180700Z AUTO 06001KT 08/06 RMK AO1 SLP127 T00810055 53004,CWSP,2014-12-18T07:00:00Z,48.38,-123.92,8.1,5.5,60,1,,,,1012.7,,TRUE,TRUE,,,,,,,,,,,,,,,,0.4,,,,,,,,,,,METAR,21.0
CWSL 180700Z AUTO 22001KT 01/M01 RMK AO1 SOG 00 3001 SLP158 T00071006,CWSL,2014-12-18T07:00:00Z,50.7,-119.27,0.7,-0.6,220,1,,,,1015.8,,TRUE,TRUE,,,,,,,,,,,,,,,,,,,,,,,,,,,METAR,351.0
CWSK 180700Z AUTO 31001KT 04/04 RMK AO1 2PAST HR 1007 SLP130 P0001 T00370037 50002,CWSK,2014-12-18T07:00:00Z,49.78,-123.17,3.7,3.7,310,1,,,,1013.0,,TRUE,TRUE,,,,,,,,,,,,,,,,0.2,,,,,0.01,,,,,,METAR,60.0
CWSG 180700Z AUTO 05018G24KT M01/M02 RMK AO1 PK WND 06025/0618 SLP103 T10121024 56013,CWSG,2014-12-18T07:00:00Z,49.12,-66.65,-1.2,-2.4,50,18,24,,,1010.3,,TRUE,TRUE,,,,,,,,,,,,,,,,-1.3,,,,,,,,,,,METAR,5.0
CWSD 180700Z AUTO 07019KT 02/M00 RMK AO1 3PAST HR 8050 PK WND 08024/0623 SLP006 P0001 T00211001 50003,CWSD,2014-12-18T07:00:00Z,46.42,-63.85,2.1,-0.1,70,19,,,,1000.6,,TRUE,TRUE,,,,,,,,,,,,,,,,0.3,,,,,0.01,,,,,,METAR,24.0
CWRZ 180700Z AUTO 05020KT M02/M02 RMK AO1 0PAST HR 6026 PK WND 05023/0658 SLP086 P0004 T10171020 50010,CWRZ,2014-12-18T07:00:00Z,48.42,-64.32,-1.7,-2.0,50,20,,,,1008.6,,TRUE,TRUE,,,,,,,,,,,,,,,,1.0,,,,,0.04,,,,,,METAR,16.0
CWRJ 180700Z AUTO 17006KT M05/M06 RMK AO1 SOG 12 8009 SLP154 T10511055,CWRJ,2014-12-18T07:00:00Z,51.57,-107.92,-5.1,-5.5,170,6,,,,1015.4,,TRUE,TRUE,,,,,,,,,,,,,,,,,,,,,,,,,,,METAR,586.0
CWQV 180700Z AUTO 07002KT M01/M02 RMK AO1 T10121017,CWQV,2014-12-18T07:00:00Z,48.27,-70.12,-1.2,-1.7,70,2,,,,,,TRUE,TRUE,,,,,,,,,,,,,,,,,,,,,,,,,,,METAR,1.0
CWQR 180700Z AUTO 04019G24KT M03/ RMK AO1 PK WND 03024/0633 T1026,CWQR,2014-12-18T07:00:00Z,50.22,-64.22,-2.6,,40,19,24,,,,,TRUE,TRUE,,,,,,,,,,,,,,,,,,,,,,,,,,,METAR,9.0
CWQP 180700Z AUTO 29028G34KT 02/M02 RMK AO1 PK WND 28034/0642 SLP135 T00201017 53012,CWQP,2014-12-18T07:00:00Z,43.83,-77.15,2.0,-1.7,290,28,34,,,1013.5,,TRUE,TRUE,,,,,,,,,,,,,,,,1.2,,,,,,,,,,,METAR,79.0
CWQO 180700Z AUTO 06014G20KT M01/M02 RMK AO1 PK WND 06020/0659 T10061019,CWQO,2014-12-18T07:00:00Z,48.42,-68.9,-0.6,-1.9,60,14,20,,,,,TRUE,TRUE,,,,,,,,,,,,,,,,,,,,,,,,,,,METAR,1.0
CWQK 180700Z AUTO 01007KT 08/06 RMK AO1 SLP125 T00790060 51005,CWQK,2014-12-18T07:00:00Z,48.3,-123.53,7.9,6.0,10,7,,,,1012.5,,TRUE,TRUE,,,,,,,,,,,,,,,,0.5,,,,,,,,,,,METAR,5.0
CWQH 180700Z AUTO 00000KT M00/M00 RMK AO1 SOG 10 T10031001,CWQH,2014-12-18T07:00:00Z,45.37,-71.82,-0.3,-0.1,0,0,,,,,,TRUE,TRUE,,,,,,,,,,,,,,,,,,,,,,,,,,,METAR,181.0
CWXA 180700Z AUTO 26009G16KT M03/M08 RMK AO1 SLP130 T10281078 56001,CWXA,2014-12-18T07:00:00Z,51.07,-115.07,-2.8,-7.8,260,9,16,,,1013.0,,TRUE,TRUE,,,,,,,,,,,,,,,,-0.1,,,,,,,,,,,METAR,1298.0
CWWF 180700Z AUTO 19009KT M08/M09 RMK AO1 SOG 02 8006 SLP210 T10811094,CWWF,2014-12-18T07:00:00Z,49.7,-103.8,-8.1,-9.4,190,9,,,,1021.0,,TRUE,TRUE,,,,,,,,,,,,,,,,,,,,,,,,,,,METAR,589.0
CWWA 180700Z AUTO 05001KT 06/05 RMK AO1 SLP125 T00640048 51005,CWWA,2014-12-18T07:00:00Z,49.35,-123.17,6.4,4.8,50,1,,,,1012.5,,TRUE,TRUE,,,,,,,,,,,,,,,,0.5,,,,,,,,,,,METAR,178.0
CWVU 180700Z AUTO 02001KT 07/07 RMK AO1 SLP967 T00690066 56020,CWVU,2014-12-18T07:00:00Z,44.28,-66.33,6.9,6.6,20,1,,,,996.7,,TRUE,TRUE,,,,,,,,,,,,,,,,-2.0,,,,,,,,,,,METAR,16.0
CWVQ 180700Z AUTO 30001KT 00/01 RMK AO1 2PAST HR SOG 14 3002 SLP084 P0001 T00000005 50002,CWVQ,2014-12-18T07:00:00Z,45.42,-73.92,0.0,0.5,300,1,,,,1008.4,,TRUE,TRUE,,,,,,,,,,,,,,,,0.2,,,,,0.01,,,,,,METAR,39.0
CWVP 180700Z AUTO 00000KT M08/M09 RMK AO1 SOG 04 8003 SLP149 T10751089,CWVP,2014-12-18T07:00:00Z,49.63,-109.52,-7.5,-8.9,0,0,,,,1014.9,,TRUE,TRUE,,,,,,,,,,,,,,,,,,,,,,,,,,,METAR,1271.0
CWVN 180700Z AUTO 19004KT M05/M05 RMK AO1 SLP176 T10481052 58003,CWVN,2014-12-18T07:00:00Z,49.07,-107.57,-4.8,-5.2,190,4,,,,1017.6,,TRUE,TRUE,,,,,,,,,,,,,,,,-0.3,,,,,,,,,,,METAR,785.0
CWVI 180700Z AUTO 15003KT M06/M06 RMK AO1 SOG 14 8003 SLP146 T10631055,CWVI,2014-12-18T07:00:00Z,53.52,-112.1,-6.3,-5.5,150,3,,,,1014.6,,TRUE,TRUE,,,,,,,,,,,,,,,,,,,,,,,,,,,METAR,639.0
CWVF 180700Z AUTO 13005KT 06/06 RMK AO1 T00550060,CWVF,2014-12-18T07:00:00Z,49.1,-123.3,5.5,6.0,130,5,,,,,,TRUE,TRUE,,,,,,,,,,,,,,,,,,,,,,,,,,,METAR,1.0
CWUX 180700Z AUTO 04001KT M03/M03 RMK AO1 SLP101 T10271027 55005,CWUX,2014-12-18T07:00:00Z,48.3,-70.93,-2.7,-2.7,40,1,,,,1010.1,,TRUE,TRUE,,,,,,,,,,,,,,,,-0.5,,,,,,,,,,,METAR,135.0
CWUS 180700Z AUTO 29003KT 01/M00 RMK AO1 2PAST HR 5000 SLP161 P0001 T00091002 50002,CWUS,2014-12-18T07:00:00Z,49.57,-119.65,0.9,-0.2,290,3,,,,1016.1,,TRUE,TRUE,,,,,,,,,,,,,,,,0.2,,,,,0.01,,,,,,METAR,454.0
CWTY 180700Z AUTO 02006KT M01/M01 RMK AO1 SLP078 T10061006 55000,CWTY,2014-12-18T07:00:00Z,46.35,-72.52,-0.6,-0.6,20,6,,,,1007.8,,TRUE,TRUE,,,,,,,,,,,,,,,,0.0,,,,,,,,,,,METAR,6.0
CWTN 180700Z AUTO 05002KT 00/M02 RMK AO1 SLP081 T00001021 55006,CWTN,2014-12-18T07:00:00Z,47.07,-70.78,0.0,-2.1,50,2,,,,1008.1,,TRUE,TRUE,,,,,,,,,,,,,,,,-0.6,,,,,,,,,,,METAR,6.0
CWTG 180700Z AUTO 05023G30KT M02/M02 RMK AO1 PK WND 05030/0653 SLP112 T10191023 56014,CWTG,2014-12-18T07:00:00Z,49.32,-67.37,-1.9,-2.3,50,23,30,,,1011.2,,TRUE,TRUE,,,,,,,,,,,,,,,,-1.4,,,,,,,,,,,METAR,5.0
CWTA 180700Z AUTO 28001KT M00/01 RMK AO1 SLP077 T10030005 55000,CWTA,2014-12-18T07:00:00Z,45.5,-73.58,-0.3,0.5,280,1,,,,1007.7,,TRUE,TRUE,,,,,,,,,,,,,,,,0.0,,,,,,,,,,,METAR,63.0
CWWB 180700Z AUTO 24007KT M00/M03 RMK AO1 SLP175 T10011026 53011,CWWB,2014-12-18T07:00:00Z,43.3,-79.78,-0.1,-2.6,240,7,,,,1017.5,,TRUE,TRUE,,,,,,,,,,,,,,,,1.1,,,,,,,,,,,METAR,76.0
CWWZ 180700Z AUTO 27022G27KT 01/M02 RMK AO1 SOG 00 3011 PK WND 27027/0644 SLP171 T00081022,CWWZ,2014-12-18T07:00:00Z,43.25,-79.22,0.8,-2.2,270,22,27,,,1017.1,,TRUE,TRUE,,,,,,,,,,,,,,,,,,,,,,,,,,,METAR,79.0
CWPO 180700Z AUTO 14005KT M19/M20 RMK AO1 SOG 02 8008 SLP279 T11881195,CWPO,2014-12-18T07:00:00Z,49.2,-98.9,-18.8,-19.5,140,5,,,,1027.9,,TRUE,TRUE,,,,,,,,,,,,,,,,,,,,,,,,,,,METAR,470.0
CWDQ 180700Z AUTO 35005KT M03/M03 RMK AO1 SOG 19 5002 SLP091 T10291031,CWDQ,2014-12-18T07:00:00Z,47.42,-72.78,-2.9,-3.1,350,5,,,,1009.1,,TRUE,TRUE,,,,,,,,,,,,,,,,,,,,,,,,,,,METAR,169.0
CWPC 180700Z AUTO 28021KT M00/M04 RMK AO1 PK WND 29027/0608 SLP182 T10031041 53011,CWPC,2014-12-18T07:00:00Z,42.87,-79.25,-0.3,-4.1,280,21,,,,1018.2,,TRUE,TRUE,,,,,,,,,,,,,,,,1.1,,,,,,,,,,,METAR,184.0
CWLS 180700Z AUTO 31005KT M03/M03 RMK AO1 SOG 02 3010 SLP167 T10281030,CWLS,2014-12-18T07:00:00Z,43.97,-80.75,-2.8,-3.0,310,5,,,,1016.7,,TRUE,TRUE,,,,,,,,,,,,,,,,,,,,,,,,,,,METAR,415.0
DNAA 180700Z 08004KT 1200 HZ NSC 21/15 Q1015 NOSIG,DNAA,2014-12-18T07:00:00Z,9.0,7.27,21.0,15.0,80,4,,0.75,29.970472,,,,,,TRUE,,,,HZ,,,,,,,,,,,,,,,,,,,,,SPECI,344.0
FKYS 180700Z VRB02KT 4000 BR FEW003 BKN006 23/20 Q1017 BECMG 6000 BKN010,FKYS,2014-12-18T07:00:00Z,3.82,11.52,23.0,20.0,0,2,,2.49,30.029528,,,,,,,,,,BR,FEW,300,BKN,600,,,,,IFR,,,,,,,,,,,,METAR,760.0
DNMM 180700Z 34003KT 1800 HZ FEW008 25/25 Q1013 TEMPO 3000,DNMM,2014-12-18T07:00:00Z,6.57,3.32,25.0,25.0,340,3,,1.12,29.911417,,,,,,,,,,HZ,FEW,800,,,,,,,IFR,,,,,,,,,,,,METAR,38.0
DNBE 180700Z 36005KT 1500 BR NSC 24/23 Q1014,DNBE,2014-12-18T07:00:00Z,6.32,5.58,24.0,23.0,360,5,,0.93,29.940945,,,,,,,,,,BR,,,,,,,,,,,,,,,,,,,,,METAR,79.0
DRRM 180700Z 10004KT CAVOK 18/M00 Q1016,DRRM,2014-12-18T07:00:00Z,13.5,7.12,18.0,0.0,100,4,,6.21,30.0,,,,,,,,,,,CAVOK,,,,,,,,VFR,,,,,,,,,,,,METAR,373.0
DRRN 180700Z 01002KT 4000 DU NSC 21/02 Q1014 NOSIG,DRRN,2014-12-18T07:00:00Z,13.47,2.17,21.0,2.0,10,2,,2.49,29.940945,,,,,,TRUE,,,,DU,,,,,,,,,,,,,,,,,,,,,METAR,227.0
DRRT 180700Z 10008KT CAVOK 23/M06 Q1014,DRRT,2014-12-18T07:00:00Z,14.9,5.25,23.0,-6.0,100,8,,6.21,29.940945,,,,,,,,,,,CAVOK,,,,,,,,VFR,,,,,,,,,,,,METAR,391.0
DRZA 180700Z 10006KT CAVOK 17/M02 Q1018,DRZA,2014-12-18T07:00:00Z,16.97,8.0,17.0,-2.0,100,6,,6.21,30.059055,,,,,,,,,,,CAVOK,,,,,,,,VFR,,,,,,,,,,,,METAR,502.0
DRZR 180700Z 06006KT CAVOK 20/M03 Q1016,DRZR,2014-12-18T07:00:00Z,13.77,8.97,20.0,-3.0,60,6,,6.21,30.0,,,,,,,,,,,CAVOK,,,,,,,,VFR,,,,,,,,,,,,METAR,453.0
DNPO 180700Z 00000KT 7000 NSC 24/23 Q1012 NOSIG,DNPO,2014-12-18T07:00:00Z,4.83,7.02,24.0,23.0,0,0,,4.35,29.88189,,,,,,TRUE,,,,,,,,,,,,,,,,,,,,,,,,,METAR,18.0
DXXX 180700Z 00000KT 2500 BR FEW010 25/24 Q1012 BECMG 3500 BR,DXXX,2014-12-18T07:00:00Z,6.17,1.25,25.0,24.0,0,0,,1.55,29.88189,,,,,,,,,,BR,FEW,1000,,,,,,,IFR,,,,,,,,,,,,SPECI,25.0
DBBB 180700Z VRB02KT 3500 BR FEW011 26/26 Q1011 TEMPO 2000 BR,DBBB,2014-12-18T07:00:00Z,6.33,2.37,26.0,26.0,0,2,,2.17,29.852362,,,,,,,,,,BR,FEW,1100,,,,,,,IFR,,,,,,,,,,,,METAR,9.0
FTTJ 180700Z /////KT 6000 NSC 21/08 Q1015 NOSIG,FTTJ,2014-12-18T07:00:00Z,12.12,15.02,21.0,8.0,,,,3.73,29.970472,,,,,,TRUE,,,,,,,,,,,,,,,,,,,,,,,,,METAR,295.0
FTTA 180700Z 00000KT CAVOK 23/10 Q1016,FTTA,2014-12-18T07:00:00Z,9.15,18.37,23.0,10.0,0,0,,6.21,30.0,,,,,,,,,,,CAVOK,,,,,,,,VFR,,,,,,,,,,,,METAR,365.0
DFOO 180700Z 36006KT 8000 NSC 19/05 Q1014,DFOO,2014-12-18T07:00:00Z,11.17,-4.32,19.0,5.0,360,6,,4.97,29.940945,,,,,,,,,,,,,,,,,,,,,,,,,,,,,,,METAR,460.0
DFFD 180700Z 01006KT 8000 NSC 21/00 Q1014 BECMG 4000 HZ,DFFD,2014-12-18T07:00:00Z,12.33,-1.52,21.0,0.0,10,6,,4.97,29.940945,,,,,,,,,,,,,,,,,,,,,,,,,,,,,,,METAR,306.0
DNIB 180700Z 36005KT 1000 BR BKN010 24/23 Q1013,DNIB,2014-12-18T07:00:00Z,7.37,3.98,24.0,23.0,360,5,,0.62,29.911417,,,,,,,,,,BR,BKN,1000,,,,,,,LIFR,,,,,,,,,,,,METAR,228.0
DNIM 180700Z 00000KT 3000 BR BKN010 26/25 Q1013,DNIM,2014-12-18T07:00:00Z,5.43,7.2,26.0,25.0,0,0,,1.86,29.911417,,,,,,,,,,BR,BKN,1000,,,,,,,IFR,,,,,,,,,,,,METAR,114.0
DAAS 180700Z 28006KT 9999 -RA FEW010 BKN026 BKN100 05/03 Q1024,DAAS,2014-12-18T07:00:00Z,36.18,5.33,5.0,3.0,280,6,,6.21,30.236221,,,,,,,,,,-RA,FEW,1000,BKN,2600,BKN,10000,,,MVFR,,,,,,,,,,,,METAR,1038.0
DAUB 180700Z /////KT 9999 -RA SCT040 BKN100 11/05 Q1022,DAUB,2014-12-18T07:00:00Z,34.78,5.72,11.0,5.0,,,,6.21,30.177166,,,,,,,,,,-RA,SCT,4000,BKN,10000,,,,,VFR,,,,,,,,,,,,METAR,87.0
DAUG 180700Z 33010KT CAVOK 07/03 Q1025,DAUG,2014-12-18T07:00:00Z,32.37,3.82,7.0,3.0,330,10,,6.21,30.265747,,,,,,,,,,,CAVOK,,,,,,,,VFR,,,,,,,,,,,,METAR,450.0
KQGA 180700Z AUTO 02009G13KT 6000 HZ CLR 18/M06 A2999 RMK CDP03659 CLR,KQGA,2014-12-18T07:00:00Z,100.65,-1000.65,18.0,-6.0,20,9,13,3.73,29.991142,,,TRUE,,,,,,,HZ,CLR,,,,,,,,MVFR,,,,,,,,,,,,METAR,999.0
GOTT 180700Z 01004KT CAVOK 21/08 Q1013,GOTT,2014-12-18T07:00:00Z,13.73,-13.65,21.0,8.0,10,4,,6.21,29.911417,,,,,,,,,,,CAVOK,,,,,,,,VFR,,,,,,,,,,,,METAR,50.0
GOOK 180700Z 00000KT CAVOK 18/11 Q1014,GOOK,2014-12-18T07:00:00Z,14.15,-16.07,18.0,11.0,0,0,,6.21,29.940945,,,,,,,,,,,CAVOK,,,,,,,,VFR,,,,,,,,,,,,METAR,7.0
DAUZ 180700Z 00000KT CAVOK 04/M03 Q1022,DAUZ,2014-12-18T07:00:00Z,28.05,9.62,4.0,-3.0,0,0,,6.21,30.177166,,,,,,,,,,,CAVOK,,,,,,,,VFR,,,,,,,,,,,,METAR,562.0
DAUU 180700Z 00000KT CAVOK 05/01 Q1024,DAUU,2014-12-18T07:00:00Z,31.92,5.4,5.0,1.0,0,0,,6.21,30.236221,,,,,,,,,,,CAVOK,,,,,,,,VFR,,,,,,,,,,,,METAR,141.0
DAFH 180700Z /////KT CAVOK 03/01 Q1025,DAFH,2014-12-18T07:00:00Z,32.93,3.32,3.0,1.0,,,,6.21,30.265747,,,,,,,,,,,CAVOK,,,,,,,,VFR,,,,,,,,,,,,METAR,774.0
DAEN 180700Z 00000KT CAVOK 06/M00 Q1023,DAEN,2014-12-18T07:00:00Z,29.73,6.72,6.0,0.0,0,0,,6.21,30.206694,,,,,,,,,,,CAVOK,,,,,,,,VFR,,,,,,,,,,,,METAR,252.0
DABT 180700Z 00000KT 9999 FEW010 BKN023 06/05 Q1023,DABT,2014-12-18T07:00:00Z,35.75,6.32,6.0,5.0,0,0,,6.21,30.206694,,,,,,,,,,,FEW,1000,BKN,2300,,,,,MVFR,,,,,,,,,,,,METAR,1052.0
DAAD 180700Z 30014KT CAVOK 11/04 Q1024,DAAD,2014-12-18T07:00:00Z,35.32,4.2,11.0,4.0,300,14,,6.21,30.236221,,,,,,,,,,,CAVOK,,,,,,,,VFR,,,,,,,,,,,,METAR,461.0
DAMH 180700Z 00000KT CAVOK 05/M02 Q1024,DAMH,2014-12-18T07:00:00Z,29.23,6.5,5.0,-2.0,0,0,,6.21,30.236221,,,,,,,,,,,CAVOK,,,,,,,,VFR,,,,,,,,,,,,METAR,294.0
DAUO 180700Z 280//KT CAVOK 05/04 Q1023,DAUO,2014-12-18T07:00:00Z,33.5,6.78,5.0,4.0,,,,6.21,30.206694,,,,,,,,,,,CAVOK,,,,,,,,VFR,,,,,,,,,,,,METAR,63.0
DAUK 180700Z 00000KT CAVOK 04/00 Q1023,DAUK,2014-12-18T07:00:00Z,33.08,6.12,4.0,0.0,0,0,,6.21,30.206694,,,,,,,,,,,CAVOK,,,,,,,,VFR,,,,,,,,,,,,METAR,85.0
DAUI 180700Z 33010KT CAVOK 10/03 Q1023,DAUI,2014-12-18T07:00:00Z,27.25,2.52,10.0,3.0,330,10,,6.21,30.206694,,,,,,,,,,,CAVOK,,,,,,,,VFR,,,,,,,,,,,,METAR,269.0
DAUE 180700Z /////KT CAVOK 04/02 Q1025,DAUE,2014-12-18T07:00:00Z,30.57,2.87,4.0,2.0,,,,6.21,30.265747,,,,,,,,,,,CAVOK,,,,,,,,VFR,,,,,,,,,,,,METAR,397.0
DAAV 180700Z 18003KT 9999 SCT016 BKN030 12/10 Q1022,DAAV,2014-12-18T07:00:00Z,36.8,5.88,12.0,10.0,180,3,,6.21,30.177166,,,,,,,,,,,SCT,1600,BKN,3000,,,,,MVFR,,,,,,,,,,,,METAR,11.0
CWOE 180700Z AUTO 16001KT M04/M05 RMK AO1 SOG 00 8001 SLP162 T10431047,CWOE,2014-12-18T07:00:00Z,49.12,-110.47,-4.3,-4.7,160,1,,,,1016.2,,TRUE,TRUE,,,,,,,,,,,,,,,,,,,,,,,,,,,METAR,935.0
CWOD 180700Z AUTO 34007KT M03/M04 RMK AO1 SOG 09 6004 SLP098 T10331038,CWOD,2014-12-18T07:00:00Z,48.85,-72.55,-3.3,-3.8,340,7,,,,1009.8,,TRUE,TRUE,,,,,,,,,,,,,,,,,,,,,,,,,,,METAR,137.0
DNKN 180700Z 09008KT 8000 NSC 15/05 Q1017 NOSIG,DNKN,2014-12-18T07:00:00Z,12.05,8.52,15.0,5.0,90,8,,4.97,30.029528,,,,,,TRUE,,,,,,,,,,,,,,,,,,,,,,,,,METAR,481.0
TTPP 180700Z 00000KT 9999 FEW014 23/22 Q1012 NOSIG,TTPP,2014-12-18T07:00:00Z,10.58,-61.35,23.0,22.0,0,0,,6.21,29.88189,,,,,,TRUE,,,,,FEW,1400,,,,,,,VFR,,,,,,,,,,,,METAR,15.0
UHMA 180700Z 01005MPS 9999 -SN FEW010 OVC080 M19/M20 Q1006 NOSIG RMK QFE750/1001,UHMA,2014-12-18T07:00:00Z,64.73,177.73,-19.0,-20.0,10,10,,6.21,29.704725,,,,,,TRUE,,,,-SN,FEW,1000,OVC,8000,,,,,VFR,,,,,,,,,,,,SPECI,62.0
DAAE 180700Z 24005KT 9999 FEW020 SCT090 11/10 Q1024,DAAE,2014-12-18T07:00:00Z,36.72,5.07,11.0,10.0,240,5,,6.21,30.236221,,,,,,,,,,,FEW,2000,SCT,9000,,,,,VFR,,,,,,,,,,,,METAR,2.0
BIVM 180700Z 20010KT 3500 SN FEW008 SCT025 00/M01 Q0965 R03/890225 RMK BRAUTARHREINSUN I GANGI,BIVM,2014-12-18T07:00:00Z,63.42,-20.27,0.0,-1.0,200,10,,2.17,28.494095,,,,,,,,,,SN,FEW,800,SCT,2500,,,,,IFR,,,,,,,,,,,,METAR,124.0
MYNN 180700Z 00000KT CAVOK 17/11 A3016,MYNN,2014-12-18T07:00:00Z,25.03,-77.47,17.0,11.0,0,0,,6.21,30.159449,,,,,,,,,,,CAVOK,,,,,,,,VFR,,,,,,,,,,,,METAR,3.0
VTCH 180700Z VRB02KT 9999 FEW028 27/13 Q1015 A2998 INFO: H,VTCH,2014-12-18T07:00:00Z,19.3,97.98,27.0,13.0,0,2,,6.21,29.970472,,,,,,,,,,,FEW,2800,,,,,,,VFR,,,,,,,,,,,,SPECI,269.0
SBGR 180700Z 12002KT CAVOK 18/17 Q1013,SBGR,2014-12-18T07:00:00Z,-23.42,-46.47,18.0,17.0,120,2,,6.21,29.911417,,,,,,,,,,,CAVOK,,,,,,,,VFR,,,,,,,,,,,,METAR,750.0
SBNT 180700Z 10006KT 9999 BKN020 26/21 Q1011,SBNT,2014-12-18T07:00:00Z,-5.92,-35.25,26.0,21.0,100,6,,6.21,29.852362,,,,,,,,,,,BKN,2000,,,,,,,MVFR,,,,,,,,,,,,METAR,49.0
FDSK 180700Z 04004KT 9999 SCT035 25/19 Q1014 NOSIG,FDSK,2014-12-18T07:00:00Z,-26.35,31.72,25.0,19.0,40,4,,6.21,29.940945,,,,,,TRUE,,,,,SCT,3500,,,,,,,VFR,,,,,,,,,,,,METAR,324.0
OPPS 180700Z 00000KT 1200 HZ FEW250 14/06 Q1020.5,OPPS,2014-12-18T07:00:00Z,34.02,71.52,14.0,6.0,0,0,,0.75,30.132874,,,,,,,,,,HZ,FEW,25000,,,,,,,LIFR,,,,,,,,,,,,METAR,360.0
SBPV 180700Z 35001KT 9999 FEW020 SCT100 24/23 Q1009,SBPV,2014-12-18T07:00:00Z,-8.72,-63.9,24.0,23.0,350,1,,6.21,29.793306,,,,,,,,,,,FEW,2000,SCT,10000,,,,,VFR,,,,,,,,,,,,METAR,88.0
UWLW 180700Z 18009G12MPS 8000 BKN022 OVC100 M05/M08 Q1015 20820150 TEMPO 2100 -SNRA BR BKN007 RMK QFE756,UWLW,2014-12-18T07:00:00Z,54.4,48.8,-5.0,-8.0,180,17,23,4.97,29.970472,,,,,,,,,,,BKN,2200,OVC,10000,,,,,MVFR,,,0.0,,,,,,,,,SPECI,66.0
UWOR 180700Z VRB01MPS CAVOK M14/M17 Q1030 25420155 NOSIG RMK QFE749/0998,UWOR,2014-12-18T07:00:00Z,51.07,58.6,-14.0,-17.0,0,2,,6.21,30.413385,,,,,,TRUE,,,,,CAVOK,,,,,,,,VFR,,,,,,,,,,,,SPECI,277.0
UUOK 180700Z 29003MPS 9999 SCT013 00/M01 Q1014 NOSIG RMK 30290060,UUOK,2014-12-18T07:00:00Z,51.75,36.28,0.0,-1.0,290,6,,6.21,29.940945,,,,,,TRUE,,,,,SCT,1300,,,,,,,VFR,,,,,,,,,,,,METAR,209.0
UUBP 180700Z 24003MPS 8000 OVC015 00/M01 Q1011 NOSIG RMK QFE740 167902//,UUBP,2014-12-18T07:00:00Z,53.22,34.18,0.0,-1.0,240,6,,4.97,29.852362,,,,,,TRUE,,,,,OVC,1500,,,,,,,MVFR,,,,,,,,,,,,SPECI,202.0
TNCB 180700Z AUTO 05010KT //// ////// 27/23 Q1012 NOSIG,TNCB,2014-12-18T07:00:00Z,12.13,-68.28,27.0,23.0,50,10,,,29.88189,,,TRUE,,,TRUE,,,,,,,,,,,,,,,,,,,,,,,,,METAR,6.0
TNCE 180700Z AUTO 04012KT //// ////// ///// Q1015,TNCE,2014-12-18T07:00:00Z,17.47,-62.97,,,40,12,,,29.970472,,,TRUE,,,,,,,,,,,,,,,,,,,,,,,,,,,,METAR,39.0
TNCC 180700Z 08009KT 9999 FEW014 27/24 Q1013 NOSIG,TNCC,2014-12-18T07:00:00Z,12.2,-68.97,27.0,24.0,80,9,,6.21,29.911417,,,,,,TRUE,,,,,FEW,1400,,,,,,,VFR,,,,,,,,,,,,METAR,9.0
TLPL 180700Z 04003KT 9999 FEW020 SCT280 25/22 Q1013 NOSIG,TLPL,2014-12-18T07:00:00Z,13.75,-60.95,25.0,22.0,40,3,,6.21,29.911417,,,,,,TRUE,,,,,FEW,2000,SCT,28000,,,,,VFR,,,,,,,,,,,,METAR,3.0
URWI 180700Z 14004MPS 0150 FZFG VV002 M01/M01 Q1019 NOSIG RMK QBB060 OBST OBSC,URWI,2014-12-18T07:00:00Z,46.37,44.33,-1.0,-1.0,140,8,,0.09,30.088583,,,,,,TRUE,,,,FZFG,OVX,0,,,,,,,LIFR,,,,,,,,,,,200,METAR,150.0
OEAB 180700Z 33003KT CAVOK 15/05 Q1028 NOSIG,OEAB,2014-12-18T07:00:00Z,18.22,42.63,15.0,5.0,330,3,,6.21,30.35433,,,,,,TRUE,,,,,CAVOK,,,,,,,,VFR,,,,,,,,,,,,METAR,2084.0
OEAH 180700Z 34014KT 8000 SKC 17/05 Q1025 NOSIG,OEAH,2014-12-18T07:00:00Z,25.27,49.47,17.0,5.0,340,14,,4.97,30.265747,,,,,,TRUE,,,,,SKC,,,,,,,,MVFR,,,,,,,,,,,,METAR,172.0
OEBA 180700Z 12006KT CAVOK 15/08 Q1026 NOSIG,OEBA,2014-12-18T07:00:00Z,20.3,41.62,15.0,8.0,120,6,,6.21,30.295275,,,,,,TRUE,,,,,CAVOK,,,,,,,,VFR,,,,,,,,,,,,METAR,1656.0
OEBH 180700Z 12010KT CAVOK 18/06 Q1025 NOSIG,OEBH,2014-12-18T07:00:00Z,19.97,42.62,18.0,6.0,120,10,,6.21,30.265747,,,,,,TRUE,,,,,CAVOK,,,,,,,,VFR,,,,,,,,,,,,METAR,1157.0
OEDM 180700Z 11009KT CAVOK 16/07 Q1025,OEDM,2014-12-18T07:00:00Z,24.45,44.12,16.0,7.0,110,9,,6.21,30.265747,,,,,,,,,,,CAVOK,,,,,,,,VFR,,,,,,,,,,,,METAR,922.0
OEGN 180700Z 19007KT 9999 SCT030 30/23 Q1017 NOSIG,OEGN,2014-12-18T07:00:00Z,16.88,42.57,30.0,23.0,190,7,,6.21,30.029528,,,,,,TRUE,,,,,SCT,3000,,,,,,,VFR,,,,,,,,,,,,METAR,3.0
OEGS 180700Z 12004KT CAVOK 15/11 Q1026,OEGS,2014-12-18T07:00:00Z,26.3,43.77,15.0,11.0,120,4,,6.21,30.295275,,,,,,,,,,,CAVOK,,,,,,,,VFR,,,,,,,,,,,,METAR,650.0
OEHL 180700Z 21010KT CAVOK 13/06 Q1026 NOSIG,OEHL,2014-12-18T07:00:00Z,27.42,41.67,13.0,6.0,210,10,,6.21,30.295275,,,,,,TRUE,,,,,CAVOK,,,,,,,,VFR,,,,,,,,,,,,METAR,1013.0
OEGT 180700Z 09006KT CAVOK 09/03 Q1023 NOSIG,OEGT,2014-12-18T07:00:00Z,31.42,37.27,9.0,3.0,90,6,,6.21,30.206694,,,,,,TRUE,,,,,CAVOK,,,,,,,,VFR,,,,,,,,,,,,METAR,499.0
OEKM 180700Z 06006KT CAVOK 20/04 Q1028 NOSIG,OEKM,2014-12-18T07:00:00Z,18.3,42.78,20.0,4.0,60,6,,6.21,30.35433,,,,,,TRUE,,,,,CAVOK,,,,,,,,VFR,,,,,,,,,,,,METAR,2054.0
OEKK 180700Z 32002KT CAVOK 14/11 Q1028 NOSIG,OEKK,2014-12-18T07:00:00Z,27.88,45.52,14.0,11.0,320,2,,6.21,30.35433,,,,,,TRUE,,,,,CAVOK,,,,,,,,VFR,,,,,,,,,,,,METAR,413.0
OEKJ 180700Z 35009KT CAVOK 15/03 Q1027,OEKJ,2014-12-18T07:00:00Z,24.07,47.58,15.0,3.0,350,9,,6.21,30.324802,,,,,,,,,,,CAVOK,,,,,,,,VFR,,,,,,,,,,,,METAR,503.0
OEPA 180700Z 30004KT CAVOK 14/12 Q1026 NOSIG,OEPA,2014-12-18T07:00:00Z,28.32,46.12,14.0,12.0,300,4,,6.21,30.295275,,,,,,TRUE,,,,,CAVOK,,,,,,,,VFR,,,,,,,,,,,,METAR,355.0
OENG 180700Z 08004KT CAVOK 19/04 Q1027 NOSIG,OENG,2014-12-18T07:00:00Z,17.62,44.42,19.0,4.0,80,4,,6.21,30.324802,,,,,,TRUE,,,,,CAVOK,,,,,,,,VFR,,,,,,,,,,,,METAR,1203.0
OEMK 180700Z 00000KT CAVOK 27/16 Q1016,OEMK,2014-12-18T07:00:00Z,21.43,40.0,27.0,16.0,0,0,,6.21,30.0,,,,,,,,,,,CAVOK,,,,,,,,VFR,,,,,,,,,,,,METAR,369.0
WIPP 180700Z 25005KT 9999 BKN013 FEW020CB 32/24 Q1007 NOSIG,WIPP,2014-12-18T07:00:00Z,-2.88,104.7,32.0,24.0,250,5,,6.21,29.734253,,,,,,TRUE,,,,,BKN,1300,FEW,2000,,,,,MVFR,,,,,,,,,,,,METAR,10.0
VTST 180700Z 03008KT 8000 VCSH FEW018 BKN120 BKN300 27/25 Q1009 RWY08 INFO H,VTST,2014-12-18T07:00:00Z,7.52,99.62,27.0,25.0,30,8,,4.97,29.793306,,,,,,,,,,VCSH,FEW,1800,BKN,12000,BKN,30000,,,MVFR,,,,,,,,,,,,SPECI,16.0
SBSM 180700Z 00000KT 9999 FEW007 20/20 Q1010,SBSM,2014-12-18T07:00:00Z,-29.72,-53.7,20.0,20.0,0,0,,6.21,29.822834,,,,,,,,,,,FEW,700,,,,,,,VFR,,,,,,,,,,,,METAR,85.0
SBMG 180700Z 19003KT CAVOK 22/20 Q1010,SBMG,2014-12-18T07:00:00Z,-23.48,-52.02,22.0,20.0,190,3,,6.21,29.822834,,,,,,,,,,,CAVOK,,,,,,,,VFR,,,,,,,,,,,,METAR,542.0
CWFQ 180700Z AUTO 28003KT 01/01 RMK AO1 6PAST HR 5003 SLP069 P0002 T00050005 50006,CWFQ,2014-12-18T07:00:00Z,45.03,-72.82,0.5,0.5,280,3,,,,1006.9,,TRUE,TRUE,,,,,,,,,,,,,,,,0.6,,,,,0.02,,,,,,METAR,152.0
SBMO 180700Z 07007KT 9999 FEW007 SCT020 BKN070 23/22 Q1012,SBMO,2014-12-18T07:00:00Z,-9.52,-35.77,23.0,22.0,70,7,,6.21,29.88189,,,,,,,,,,,FEW,700,SCT,2000,BKN,7000,,,VFR,,,,,,,,,,,,METAR,115.0
KNGU 180659Z 35010KT 10SM CLR 07/M01 A3009 RMK AO2 SLP190 T00721011,KNGU,2014-12-18T06:59:00Z,36.92,-76.27,7.2,-1.1,350,10,,10.0,30.088583,1019.0,,,TRUE,,,,,,,CLR,,,,,,,,VFR,,,,,,,,,,,,METAR,5.0
KQTM 180659Z AUTO 05010KT 9999 CLR 11/M02 A2978 RMK CDP03569 CLR,KQTM,2014-12-18T06:59:00Z,,,11.0,-2.0,50,10,,6.21,29.778543,,,TRUE,,,,,,,,CLR,,,,,,,,VFR,,,,,,,,,,,,METAR,
KBIF 180658Z AUTO VRB01KT 10SM OVC060 06/01 A3013 RMK AO2 LTG DSNT S SLP175 T00640012 401590002 $,KBIF,2014-12-18T06:58:00Z,31.85,-106.38,6.4,1.2,0,1,,10.0,30.129921,1017.5,,TRUE,TRUE,TRUE,,,,,,OVC,6000,,,,,,,VFR,,,,15.9,0.2,,,,,,,METAR,1203.0
KFFO 180658Z 26005KT 10SM SCT018 OVC026 M03/M08 A3026 RMK AO2A SLP260 T10301076,KFFO,2014-12-18T06:58:00Z,39.82,-84.03,-3.0,-7.6,260,5,,10.0,30.259842,1026.0,,,TRUE,,,,,,,SCT,1800,OVC,2600,,,,,MVFR,,,,,,,,,,,,METAR,251.0
LIYW 180658Z AUTO 02005KT 9999 CLR 04/04 A3007 RMK AO2 SLP189 T00370037 $,LIYW,2014-12-18T06:58:00Z,46.02,12.62,3.7,3.7,20,5,,6.21,30.070866,1018.9,,TRUE,TRUE,TRUE,,,,,,CLR,,,,,,,,VFR,,,,,,,,,,,,METAR,126.0
KPSM 180658Z 27008KT 10SM -RA FEW022 OVC048 04/01 A2967 RMK AO2A SLP051 P0000 T00410013,KPSM,2014-12-18T06:58:00Z,43.07,-70.82,4.1,1.3,270,8,,10.0,29.66929,1005.1,,,TRUE,,,,,,-RA,FEW,2200,OVC,4800,,,,,VFR,,,,,,0.0050,,,,,,SPECI,31.0
KQIR 180658Z 33015KT 8000 HZ CLR 21/14 A3022 RMK AO2A SLP235 T02090142 $,KQIR,2014-12-18T06:58:00Z,100.65,-1000.65,20.9,14.2,330,15,,4.97,30.221457,1023.5,,,TRUE,TRUE,,,,,HZ,CLR,,,,,,,,MVFR,,,,,,,,,,,,METAR,999.0
KSUU 180658Z 09003KT 10SM BKN034 11/09 A3009 RMK AO2A SLPNO $,KSUU,2014-12-18T06:58:00Z,38.27,-121.92,11.0,9.0,90,3,,10.0,30.088583,,,,TRUE,TRUE,,,,,,BKN,3400,,,,,,,VFR,,,,,,,,,,,,METAR,19.0
PFSH 180658Z AUTO 36003KT 10SM CLR M08/M09 A2965 RMK AO2 SLP055 T10831094 FZRANO,PFSH,2014-12-18T06:58:00Z,64.37,-161.22,-8.3,-9.4,360,3,,10.0,29.648623,1005.5,,TRUE,TRUE,,,,TRUE,,,CLR,,,,,,,,VFR,,,,,,,,,,,,SPECI,7.0
KSGJ 180658Z AUTO 26004KT 10SM CLR 09/07 A3014 RMK AO2 SLP207 T00940072,KSGJ,2014-12-18T06:58:00Z,29.97,-81.32,9.4,7.2,260,4,,10.0,30.138779,1020.7,,TRUE,TRUE,,,,,,,CLR,,,,,,,,VFR,,,,,,,,,,,,SPECI,3.0
KMRH 180658Z AUTO 00000KT 10SM CLR 07/06 A3007 RMK AO2 SLP182 I1000 T00720061 TSNO,KMRH,2014-12-18T06:58:00Z,34.73,-76.65,7.2,6.1,0,0,,10.0,30.070866,1018.2,,TRUE,TRUE,,,TRUE,,,,CLR,,,,,,,,VFR,,,,,,,,,,,,SPECI,3.0
KMEI 180658Z AUTO 00000KT 10SM CLR 03/03 A3020 RMK AO2 SLP228 T00330028,KMEI,2014-12-18T06:58:00Z,32.33,-88.75,3.3,2.8,0,0,,10.0,30.200787,1022.8,,TRUE,TRUE,,,,,,,CLR,,,,,,,,VFR,,,,,,,,,,,,SPECI,89.0
KVOK 180658Z AUTO 30004KT 10SM OVC019 M07/M08 A3029 RMK AO2 SLP276 T10681076,KVOK,2014-12-18T06:58:00Z,43.92,-90.27,-6.8,-7.6,300,4,,10.0,30.28937,1027.6,,TRUE,TRUE,,,,,,,OVC,1900,,,,,,,MVFR,,,,,,,,,,,,METAR,277.0
RKSO 180658Z 29006KT 7SM CLR M01/M15 A3052 RMK AO2A SLP339 T10101147 $,RKSO,2014-12-18T06:58:00Z,37.07,127.02,-1.0,-14.7,290,6,,7.0,30.519686,1033.9,,,TRUE,TRUE,,,,,,CLR,,,,,,,,VFR,,,,,,,,,,,,METAR,12.0
KWRI 180658Z AUTO 30010G19KT 10SM OVC060 02/M05 A2994 RMK AO2 SLP143 T00231051,KWRI,2014-12-18T06:58:00Z,40.02,-74.58,2.3,-5.1,300,10,19,10.0,29.940945,1014.3,,TRUE,TRUE,,,,,,,OVC,6000,,,,,,,VFR,,,,,,,,,,,,METAR,41.0
KRDR 180658Z AUTO 18003KT 10SM CLR M16/M16 A3029 RMK AO2 SLP285 T11581162,KRDR,2014-12-18T06:58:00Z,47.97,-97.4,-15.8,-16.2,180,3,,10.0,30.28937,1028.5,,TRUE,TRUE,,,,,,,CLR,,,,,,,,VFR,,,,,,,,,,,,METAR,278.0
KOFF 180658Z AUTO 08004KT 10SM OVC080 M02/M06 A3024 RMK AO2 SLP258 T10231061,KOFF,2014-12-18T06:58:00Z,41.12,-95.92,-2.3,-6.1,80,4,,10.0,30.239174,1025.8,,TRUE,TRUE,,,,,,,OVC,8000,,,,,,,VFR,,,,,,,,,,,,METAR,319.0
KMUI 180658Z AUTO 27011G21KT 10SM CLR 01/M08 A3003 RMK AO2 PK WND 27026/02 RAE0620 SLP176 P0000 T00101077,KMUI,2014-12-18T06:58:00Z,40.42,-76.57,1.0,-7.7,270,11,21,10.0,30.029528,1017.6,,TRUE,TRUE,,,,,,,CLR,,,,,,,,VFR,,,,,,0.0050,,,,,,METAR,149.0
KMTC 180658Z AUTO 26011KT 10SM OVC018 M01/M05 A3014 RMK AO2 SLP217 T10131046 $,KMTC,2014-12-18T06:58:00Z,42.62,-82.82,-1.3,-4.6,260,11,,10.0,30.138779,1021.7,,TRUE,TRUE,TRUE,,,,,,OVC,1800,,,,,,,MVFR,,,,,,,,,,,,METAR,177.0
KLFI 180658Z AUTO 34008KT 10SM CLR 05/M02 A3009 RMK AO2 SLP196 T00461022,KLFI,2014-12-18T06:58:00Z,37.07,-76.37,4.6,-2.2,340,8,,10.0,30.088583,1019.6,,TRUE,TRUE,,,,,,,CLR,,,,,,,,VFR,,,,,,,,,,,,METAR,3.0
KGUS 180658Z AUTO 28004KT 10SM OVC026 M04/M05 A3026 RMK AO2 SLP262 T10371050,KGUS,2014-12-18T06:58:00Z,40.63,-86.15,-3.7,-5.0,280,4,,10.0,30.259842,1026.2,,TRUE,TRUE,,,,,,,OVC,2600,,,,,,,MVFR,,,,,,,,,,,,METAR,247.0
KFAF 180658Z AUTO 36008KT 10SM CLR 05/M03 A3007 RMK AO2 SLP186 T00481032 $,KFAF,2014-12-18T06:58:00Z,37.12,-76.62,4.8,-3.2,360,8,,10.0,30.070866,1018.6,,TRUE,TRUE,TRUE,,,,,,CLR,,,,,,,,VFR,,,,,,,,,,,,METAR,4.0
KDOV 180658Z AUTO 27010KT 10SM OVC044 03/M04 A3000 RMK AO2 SLP162 T00271042,KDOV,2014-12-18T06:58:00Z,39.12,-75.47,2.7,-4.2,270,10,,10.0,30.0,1016.2,,TRUE,TRUE,,,,,,,OVC,4400,,,,,,,VFR,,,,,,,,,,,,METAR,9.0
KDAA 180658Z AUTO 31008KT 10SM SCT060 03/M06 A3011 RMK AO2 SLP200 T00301061,KDAA,2014-12-18T06:58:00Z,38.72,-77.17,3.0,-6.1,310,8,,10.0,30.109253,1020.0,,TRUE,TRUE,,,,,,,SCT,6000,,,,,,,VFR,,,,,,,,,,,,METAR,21.0
KCEF 180658Z AUTO 29009KT 10SM BKN031 OVC070 04/M02 A2977 RMK AO2 SLP088 T00351019,KCEF,2014-12-18T06:58:00Z,42.2,-72.52,3.5,-1.9,290,9,,10.0,29.769686,1008.8,,TRUE,TRUE,,,,,,,BKN,3100,OVC,7000,,,,,VFR,,,,,,,,,,,,METAR,75.0
KBLV 180658Z AUTO 06005KT 10SM CLR M01/M03 A3030 RMK AO2 SLP268 T10141033,KBLV,2014-12-18T06:58:00Z,38.53,-89.83,-1.4,-3.3,60,5,,10.0,30.301182,1026.8,,TRUE,TRUE,,,,,,,CLR,,,,,,,,VFR,,,,,,,,,,,,METAR,138.0
KWRB 180658Z AUTO 27005KT 10SM CLR 04/02 A3013 RMK AO2 SLP206 T00390019,KWRB,2014-12-18T06:58:00Z,32.62,-83.58,3.9,1.9,270,5,,10.0,30.129921,1020.6,,TRUE,TRUE,,,,,,,CLR,,,,,,,,VFR,,,,,,,,,,,,METAR,90.0
KSZL 180658Z 01003KT 2 1/2SM R01/5000FT -SN BR OVC015 M01/M02 A3025 RMK AO2A SLP256 P0001 T10151025 $,KSZL,2014-12-18T06:58:00Z,38.72,-93.53,-1.5,-2.5,10,3,,2.5,30.250984,1025.6,,,TRUE,TRUE,,,,,-SN BR,OVC,1500,,,,,,,IFR,,,,,,0.01,,,,,,METAR,265.0
KOZR 180658Z AUTO 34004KT 10SM SCT230 06/04 A3016 RMK AO2 SLP216 T00600035,KOZR,2014-12-18T06:58:00Z,31.28,-85.72,6.0,3.5,340,4,,10.0,30.159449,1021.6,,TRUE,TRUE,,,,,,,SCT,23000,,,,,,,VFR,,,,,,,,,,,,METAR,93.0
PFKT 180658Z AUTO 10010KT 10SM BKN065 M04/M06 A2961 RMK AO2 SLP028 T10441061 FZRANO,PFKT,2014-12-18T06:58:00Z,65.33,-166.47,-4.4,-6.1,100,10,,10.0,29.610237,1002.8,,TRUE,TRUE,,,,TRUE,,,BKN,6500,,,,,,,VFR,,,,,,,,,,,,METAR,9.0
PFEL 180658Z AUTO 34003KT 10SM CLR M04/M06 A2965 RMK AO2 SLP045 T10391061 FZRANO,PFEL,2014-12-18T06:58:00Z,64.62,-162.27,-3.9,-6.1,340,3,,10.0,29.648623,1004.5,,TRUE,TRUE,,,,TRUE,,,CLR,,,,,,,,VFR,,,,,,,,,,,,METAR,49.0
PATE 180658Z AUTO 07010KT 10SM BKN060 M06/M07 A2958 RMK AO2 SLP028 T10611067 FZRANO,PATE,2014-12-18T06:58:00Z,65.23,-166.33,-6.1,-6.7,70,10,,10.0,29.58071,1002.8,,TRUE,TRUE,,,,TRUE,,,BKN,6000,,,,,,,VFR,,,,,,,,,,,,SPECI,90.0
PAIW 180658Z AUTO 05012KT 6SM -SN BR OVC006 M08/M09 A2964 RMK AO2 SNB13 SLP039 P0000 T10781089 FZRANO,PAIW,2014-12-18T06:58:00Z,65.62,-168.1,-7.8,-8.9,50,12,,6.0,29.639763,1003.9,,TRUE,TRUE,,,,TRUE,,-SN BR,OVC,600,,,,,,,IFR,,,,,,0.0050,,,,,,SPECI,7.0
KLSF 180658Z AUTO 00000KT 10SM CLR 03/02 A3015 RMK AO2 SLP213 T00310021,KLSF,2014-12-18T06:58:00Z,32.32,-84.97,3.1,2.1,0,0,,10.0,30.15059,1021.3,,TRUE,TRUE,,,,,,,CLR,,,,,,,,VFR,,,,,,,,,,,,SPECI,71.0
KHUA 180658Z AUTO 03008KT 10SM CLR 02/M01 A3020 RMK AO2 SLP231,KHUA,2014-12-18T06:58:00Z,34.68,-86.68,2.0,-1.0,30,8,,10.0,30.200787,1023.1,,TRUE,TRUE,,,,,,,CLR,,,,,,,,VFR,,,,,,,,,,,,METAR,209.0
KHRT 180658Z AUTO 36006KT 10SM CLR 06/03 A3017 RMK AO2 SLP218 T00550029 $,KHRT,2014-12-18T06:58:00Z,30.42,-86.67,5.5,2.9,360,6,,10.0,30.171259,1021.8,,TRUE,TRUE,TRUE,,,,,,CLR,,,,,,,,VFR,,,,,,,,,,,,METAR,12.0
KFCS 180658Z 32003KT 1SM SN BR OVC034 M03/M03 A2999 RMK AO2A SNE45UPB45E46SNB46 SLP207 P0000 T10301035 400341073,KFCS,2014-12-18T06:58:00Z,38.67,-104.77,-3.0,-3.5,320,3,,1.0,29.991142,1020.7,,,TRUE,,,,,,SN BR,OVC,3400,,,,,,,IFR,,,,3.4,-7.3,0.0050,,,,,,SPECI,1789.0
KFBG 180658Z AUTO 33004KT 10SM CLR 04/03 A3008 RMK AO2 SLP189 T00360028 $,KFBG,2014-12-18T06:58:00Z,35.12,-78.92,3.6,2.8,330,4,,10.0,30.079725,1018.9,,TRUE,TRUE,TRUE,,,,,,CLR,,,,,,,,VFR,,,,,,,,,,,,METAR,74.0
KBKF 180658Z 20004KT 10SM FEW040 BKN070 M02/M04 A2998 RMK AO2A SLP157 T10231036 400481067,KBKF,2014-12-18T06:58:00Z,39.72,-104.75,-2.3,-3.6,200,4,,10.0,29.97933,1015.7,,,TRUE,,,,,,,FEW,4000,BKN,7000,,,,,VFR,,,,4.8,-6.7,,,,,,,SPECI,1726.0
KGSB 180658Z AUTO 00000KT 10SM CLR 06/05 A3007 RMK AO2 SLP186 T00560053 $,KGSB,2014-12-18T06:58:00Z,35.32,-77.97,5.6,5.3,0,0,,10.0,30.070866,1018.6,,TRUE,TRUE,TRUE,,,,,,CLR,,,,,,,,VFR,,,,,,,,,,,,SPECI,33.0
KBIX 180658Z AUTO 06002KT 10SM CLR 09/06 A3018 RMK AO2 SLP223 T00910057,KBIX,2014-12-18T06:58:00Z,30.42,-88.92,9.1,5.7,60,2,,10.0,30.180119,1022.3,,TRUE,TRUE,,,,,,,CLR,,,,,,,,VFR,,,,,,,,,,,,METAR,10.0
KTTS 180658Z AUTO 27003KT 10SM CLR 11/09 A3013 RMK AO2 SLP206 T01080090,KTTS,2014-12-18T06:58:00Z,28.62,-80.72,10.8,9.0,270,3,,10.0,30.129921,1020.6,,TRUE,TRUE,,,,,,,CLR,,,,,,,,VFR,,,,,,,,,,,,SPECI,3.0
KPOB 180658Z AUTO 23002KT 10SM CLR 03/01 A3009 RMK AO2 SLP193 T00260009,KPOB,2014-12-18T06:58:00Z,35.17,-79.02,2.6,0.9,230,2,,10.0,30.088583,1019.3,,TRUE,TRUE,,,,,,,CLR,,,,,,,,VFR,,,,,,,,,,,,METAR,66.0
KPAM 180658Z AUTO 36003KT 10SM CLR 08/06 A3017 RMK AO2 SLP220 T00760059 $,KPAM,2014-12-18T06:58:00Z,30.07,-85.57,7.6,5.9,360,3,,10.0,30.171259,1022.0,,TRUE,TRUE,TRUE,,,,,,CLR,,,,,,,,VFR,,,,,,,,,,,,METAR,5.0
KSVN 180658Z AUTO 26005KT 10SM CLR 04/03 A3011 RMK AO2 SLP199 T00400032,KSVN,2014-12-18T06:58:00Z,32.02,-81.15,4.0,3.2,260,5,,10.0,30.109253,1019.9,,TRUE,TRUE,,,,,,,CLR,,,,,,,,VFR,,,,,,,,,,,,SPECI,13.0
KMCF 180658Z AUTO 01001KT 10SM CLR 09/08 A3016 RMK AO2 SLP216 T00890078 $,KMCF,2014-12-18T06:58:00Z,27.85,-82.52,8.9,7.8,10,1,,10.0,30.159449,1021.6,,TRUE,TRUE,TRUE,,,,,,CLR,,,,,,,,VFR,,,,,,,,,,,,SPECI,4.0
K1J0 180658Z AUTO 00000KT 10SM CLR 06/05 A3018 RMK AO2 SLP204 T00560050 $,K1J0,2014-12-18T06:58:00Z,30.85,-85.6,5.6,5.0,0,0,,10.0,30.180119,1020.4,,TRUE,TRUE,TRUE,,,,,,CLR,,,,,,,,VFR,,,,,,,,,,,,METAR,26.0
KEUF 180658Z AUTO 00000KT 10SM CLR 06/03 A3016 RMK AO2 SLP211 T00560033 $,KEUF,2014-12-18T06:58:00Z,31.95,-85.13,5.6,3.3,0,0,,10.0,30.159449,1021.1,,TRUE,TRUE,TRUE,,,,,,CLR,,,,,,,,VFR,,,,,,,,,,,,METAR,87.0
KSLI 180658Z AUTO 00000KT 10SM CLR 11/09 A3011 RMK AO2 SLP199 T01080087,KSLI,2014-12-18T06:58:00Z,33.77,-118.03,10.8,8.7,0,0,,10.0,30.109253,1019.9,,TRUE,TRUE,,,,,,,CLR,,,,,,,,VFR,,,,,,,,,,,,METAR,11.0
KSKF 180658Z AUTO 02007KT 9SM OVC007 15/14 A3005 RMK AO2 SLP175 T01470137 $,KSKF,2014-12-18T06:58:00Z,29.37,-98.57,14.7,13.7,20,7,,9.0,30.050198,1017.5,,TRUE,TRUE,TRUE,,,,,,OVC,700,,,,,,,IFR,,,,,,,,,,,,METAR,210.0
KLSV 180658Z AUTO 07005KT 10SM BKN060 BKN100 10/08 A3009 RMK AO2 SLP187 T00950077 $,KLSV,2014-12-18T06:58:00Z,36.22,-115.02,9.5,7.7,70,5,,10.0,30.088583,1018.7,,TRUE,TRUE,TRUE,,,,,,BKN,6000,BKN,10000,,,,,VFR,,,,,,,,,,,,METAR,570.0
KHIF 180658Z AUTO 13008KT 10SM SCT065 M01/M02 A3006 RMK AO2 SLP186 T10131018 400451018,KHIF,2014-12-18T06:58:00Z,41.12,-111.97,-1.3,-1.8,130,8,,10.0,30.059055,1018.6,,TRUE,TRUE,,,,,,,SCT,6500,,,,,,,VFR,,,,4.5,-1.8,,,,,,,METAR,1459.0
KEGI 180658Z AUTO 34001KT 10SM SCT230 04/03 A3018 RMK AO2 SLP223 T00440034 $,KEGI,2014-12-18T06:58:00Z,30.63,-86.52,4.4,3.4,340,1,,10.0,30.180119,1022.3,,TRUE,TRUE,TRUE,,,,,,SCT,23000,,,,,,,VFR,,,,,,,,,,,,METAR,59.0
KCOF 180658Z AUTO 29006KT 10SM CLR 14/10 A3013 RMK AO2 SLP207 T01380097,KCOF,2014-12-18T06:58:00Z,28.23,-80.6,13.8,9.7,290,6,,10.0,30.129921,1020.7,,TRUE,TRUE,,,,,,,CLR,,,,,,,,VFR,,,,,,,,,,,,METAR,3.0
KCBM 180658Z AUTO 33006KT 10SM FEW120 03/01 A3025 RMK AO2 SLP247 T00310014 $,KCBM,2014-12-18T06:58:00Z,33.63,-88.45,3.1,1.4,330,6,,10.0,30.250984,1024.7,,TRUE,TRUE,TRUE,,,,,,FEW,12000,,,,,,,VFR,,,,,,,,,,,,SPECI,67.0
KXMR 180658Z AUTO 28005KT 10SM CLR 11/09 A3012 RMK AO2 SLP203 T01100088,KXMR,2014-12-18T06:58:00Z,28.47,-80.57,11.0,8.8,280,5,,10.0,30.121063,1020.3,,TRUE,TRUE,,,,,,,CLR,,,,,,,,VFR,,,,,,,,,,,,SPECI,3.0
KMXF 180658Z AUTO 25002KT 10SM CLR 04/03 A3017 RMK AO2 SLP220 T00360026,KMXF,2014-12-18T06:58:00Z,32.37,-86.37,3.6,2.6,250,2,,10.0,30.171259,1022.0,,TRUE,TRUE,,,,,,,CLR,,,,,,,,VFR,,,,,,,,,,,,SPECI,51.0
KMGE 180658Z AUTO 31009KT 10SM CLR 04/01 A3012 RMK AO2 SLP205 T00370008 $,KMGE,2014-12-18T06:58:00Z,33.92,-84.52,3.7,0.8,310,9,,10.0,30.121063,1020.5,,TRUE,TRUE,TRUE,,,,,,CLR,,,,,,,,VFR,,,,,,,,,,,,SPECI,326.0
KLUF 180658Z AUTO 33005KT 10SM CLR 08/08 A3012 RMK AO2 SLP199 T00810081 401500081 $,KLUF,2014-12-18T06:58:00Z,33.52,-112.37,8.1,8.1,330,5,,10.0,30.121063,1019.9,,TRUE,TRUE,TRUE,,,,,,CLR,,,,,,,,VFR,,,,15.0,8.1,,,,,,,SPECI,332.0
KLRF 180658Z AUTO 10005KT 7SM -RA SCT049 OVC060 02/02 A3025 RMK AO2 SLP249 P0004 T00230016,KLRF,2014-12-18T06:58:00Z,34.92,-92.15,2.3,1.6,100,5,,7.0,30.250984,1024.9,,TRUE,TRUE,,,,,,-RA,SCT,4900,OVC,6000,,,,,VFR,,,,,,0.04,,,,,,SPECI,95.0
KLHW 180658Z AUTO 00000KT 10SM CLR 05/03 A3012 RMK AO2 SLP203 T00450033,KLHW,2014-12-18T06:58:00Z,31.87,-81.57,4.5,3.3,0,0,,10.0,30.121063,1020.3,,TRUE,TRUE,,,,,,,CLR,,,,,,,,VFR,,,,,,,,,,,,SPECI,14.0
KEDW 180658Z AUTO 18005KT 10SM CLR 05/03 A3009 RMK AO2 SLP191 T00490027,KEDW,2014-12-18T06:58:00Z,34.88,-117.87,4.9,2.7,180,5,,10.0,30.088583,1019.1,,TRUE,TRUE,,,,,,,CLR,,,,,,,,VFR,,,,,,,,,,,,SPECI,702.0
KDMA 180658Z AUTO 15002KT 10SM SCT030 08/08 A3013 RMK AO2 SLP191 T00790079 401310075 $,KDMA,2014-12-18T06:58:00Z,32.17,-110.87,7.9,7.9,150,2,,10.0,30.129921,1019.1,,TRUE,TRUE,TRUE,,,,,,SCT,3000,,,,,,,VFR,,,,13.1,7.5,,,,,,,SPECI,824.0
KCVS 180658Z AUTO 27009KT 10SM CLR 04/00 A3001 RMK AO2 SLP154 T00391001 401310006 $,KCVS,2014-12-18T06:58:00Z,34.37,-103.32,3.9,-0.1,270,9,,10.0,30.008858,1015.4,,TRUE,TRUE,TRUE,,,,,,CLR,,,,,,,,VFR,,,,13.1,0.6,,,,,,,SPECI,1309.0
RJTY 180658Z AUTO 33014G19KT 290V350 10SM CLR 07/M14 A3002 RMK AO2 SLP177 T00661142,RJTY,2014-12-18T06:58:00Z,35.75,139.33,6.6,-14.2,330,14,19,10.0,30.02067,1017.7,,TRUE,TRUE,,,,,,,CLR,,,,,,,,VFR,,,,,,,,,,,,METAR,139.0
RODN 180658Z AUTO 02009KT 10SM FEW042 SCT050 BKN065 16/09 A3031 RMK AO2 RAB0622E0644DZB0633E0640 SLP272 P0000 T01560087 $,RODN,2014-12-18T06:58:00Z,26.35,127.77,15.6,8.7,20,9,,10.0,30.31004,1027.2,,TRUE,TRUE,TRUE,,,,,,FEW,4200,SCT,5000,BKN,6500,,,VFR,,,,,,0.0050,,,,,,METAR,45.0
RKJK 180658Z AUTO 14006KT 10SM CLR M02/M09 A3053 RMK AO2 SLP344 T10251091 $,RKJK,2014-12-18T06:58:00Z,35.9,126.62,-2.5,-9.1,140,6,,10.0,30.528543,1034.4,,TRUE,TRUE,TRUE,,,,,,CLR,,,,,,,,VFR,,,,,,,,,,,,METAR,9.0
PWAK 180658Z AUTO 09010KT 9999 FEW016 27/24 A2996 RMK AO2 RAB0600E0609 SLP152 P0000 T02720244,PWAK,2014-12-18T06:58:00Z,19.28,166.65,27.2,24.4,90,10,,6.21,29.958662,1015.2,,TRUE,TRUE,,,,,,,FEW,1600,,,,,,,VFR,,,,,,0.0050,,,,,,METAR,4.0
PHHI 180658Z AUTO 15003KT 10SM CLR 21/17 A3017 RMK AO2 SLP209 T02070174 $,PHHI,2014-12-18T06:58:00Z,21.48,-158.05,20.7,17.4,150,3,,10.0,30.171259,1020.9,,TRUE,TRUE,TRUE,,,,,,CLR,,,,,,,,VFR,,,,,,,,,,,,METAR,255.0
PAED 180658Z AUTO 19005KT 10SM CLR M07/M08 A2958 RMK AO2 SLP015 T10711078,PAED,2014-12-18T06:58:00Z,61.25,-149.8,-7.1,-7.8,190,5,,10.0,29.58071,1001.5,,TRUE,TRUE,,,,,,,CLR,,,,,,,,VFR,,,,,,,,,,,,METAR,59.0
KHST 180658Z AUTO 31004KT 10SM CLR 17/12 A3015 RMK AO2 SLP213 T01670115 $,KHST,2014-12-18T06:58:00Z,25.47,-80.37,16.7,11.5,310,4,,10.0,30.15059,1021.3,,TRUE,TRUE,TRUE,,,,,,CLR,,,,,,,,VFR,,,,,,,,,,,,METAR,2.0
BGTL 180658Z AUTO 09010KT 9999 CLR M29/M32 A2968 RMK AO2 SLP044 T12911322,BGTL,2014-12-18T06:58:00Z,76.53,-68.7,-29.1,-32.2,90,10,,6.21,29.681103,1004.4,,TRUE,TRUE,,,,,,,CLR,,,,,,,,VFR,,,,,,,,,,,,METAR,77.0
ETIC 180658Z AUTO 23005KT 9999 OVC005 07/06 A2996 RMK AO2 SLP161 T00660060 $,ETIC,2014-12-18T06:58:00Z,49.7,11.93,6.6,6.0,230,5,,6.21,29.958662,1016.1,,TRUE,TRUE,TRUE,,,,,,OVC,500,,,,,,,IFR,,,,,,,,,,,,METAR,415.0
RKSG 180658Z AUTO VRB04KT 10SM CLR M02/M14 A3053 RMK AO2 SLP343 T10161144 $,RKSG,2014-12-18T06:58:00Z,36.97,127.02,-1.6,-14.4,0,4,,10.0,30.528543,1034.3,,TRUE,TRUE,TRUE,,,,,,CLR,,,,,,,,VFR,,,,,,,,,,,,METAR,16.0
KPOE 180658Z AUTO 10003KT 10SM OVC024 11/06 A3015 RMK AO2 SLP212 T01090059,KPOE,2014-12-18T06:58:00Z,31.05,-93.2,10.9,5.9,100,3,,10.0,30.15059,1021.2,,TRUE,TRUE,,,,,,,OVC,2400,,,,,,,MVFR,,,,,,,,,,,,METAR,101.0
K0J4 180658Z AUTO 00000KT 10SM CLR 06/04 A3019 RMK AO2 SLP222 T00560044 $,K0J4,2014-12-18T06:58:00Z,31.05,-86.32,5.6,4.4,0,0,,10.0,30.188976,1022.2,,TRUE,TRUE,TRUE,,,,,,CLR,,,,,,,,VFR,,,,,,,,,,,,SPECI,96.0
KNYL 180657Z 00000KT 10SM FEW140 SCT200 12/09 A3010 RMK AO2 SLP193 T01220094,KNYL,2014-12-18T06:57:00Z,32.63,-114.62,12.2,9.4,0,0,,10.0,30.100393,1019.3,,,TRUE,,,,,,,FEW,14000,SCT,20000,,,,,VFR,,,,,,,,,,,,METAR,65.0
KNSI 180657Z AUTO 27010KT 10SM CLR A3014 RMK AO2 SLPNO $,KNSI,2014-12-18T06:57:00Z,33.22,-119.45,,,270,10,,10.0,30.138779,,,TRUE,TRUE,TRUE,,,,,,CLR,,,,,,,,VFR,,,,,,,,,,,,METAR,154.0
MUCF 180657Z AUTO 06008KT 19/17 Q1019,MUCF,2014-12-18T06:57:00Z,22.13,-80.4,19.0,17.0,60,8,,,30.088583,,,TRUE,,,,,,,,,,,,,,,,,,,,,,,,,,,,METAR,39.0
PHNG 180657Z 07010G18KT 10SM SCT021 BKN050 24/19 A3017 RMK AO2 SLP210 T02390194 $,PHNG,2014-12-18T06:57:00Z,21.43,-157.77,23.9,19.4,70,10,18,10.0,30.171259,1021.0,,,TRUE,TRUE,,,,,,SCT,2100,BKN,5000,,,,,VFR,,,,,,,,,,,,SPECI,3.0
PAVA 180657Z AUTO 09015KT 10SM CLR M08/M09 RMK AO2 SLPNO T10831094 FZRANO $,PAVA,2014-12-18T06:57:00Z,61.53,-165.6,-8.3,-9.4,90,15,,10.0,,,,TRUE,TRUE,TRUE,,,TRUE,,,CLR,,,,,,,,VFR,,,,,,,,,,,,METAR,23.0
KROG 180657Z AUTO 11005KT 10SM FEW010 OVC028 02/01 A3017 RMK AO2 SLP223 T00220011 TSNO,KROG,2014-12-18T06:57:00Z,36.37,-94.08,2.2,1.1,110,5,,10.0,30.171259,1022.3,,TRUE,TRUE,,,TRUE,,,,FEW,1000,OVC,2800,,,,,MVFR,,,,,,,,,,,,METAR,415.0
KNJM 180657Z 27003KT CLR 06/04 A3007 RMK AO2 SLP187 T00560044 $,KNJM,2014-12-18T06:57:00Z,34.67,-77.02,5.6,4.4,270,3,,,30.070866,1018.7,,,TRUE,TRUE,,,,,,CLR,,,,,,,,,,,,,,,,,,,,METAR,7.0
KEKQ 180656Z AUTO 00000KT 6SM BR CLR M06/M07 A3028 RMK AO2 T10611066 SLP266,KEKQ,2014-12-18T06:56:00Z,36.85,-84.85,-6.1,-6.6,0,0,,6.0,30.280512,1026.6,,TRUE,TRUE,,,,,,BR,CLR,,,,,,,,VFR,,,,,,,,,,,,SPECI,294.0
PFWS 180656Z AUTO 04010KT 10SM CLR M03/M04 A2941 RMK AO2 SLP965 T10281039 FZRANO,PFWS,2014-12-18T06:56:00Z,58.7,-157.0,-2.8,-3.9,40,10,,10.0,29.409449,996.5,,TRUE,TRUE,,,,TRUE,,,CLR,,,,,,,,VFR,,,,,,,,,,,,METAR,49.0
PAHX 180656Z AUTO 07003KT 4SM BR OVC003 M10/M11 A2962 RMK AO2 SLP034 T11001111 FZRANO,PAHX,2014-12-18T06:56:00Z,62.7,-159.57,-10.0,-11.1,70,3,,4.0,29.619095,1003.4,,TRUE,TRUE,,,,TRUE,,BR,OVC,300,,,,,,,LIFR,,,,,,,,,,,,METAR,24.0
PPIT 180656Z AUTO 05007KT 10SM CLR M09/M10 A2949 RMK AO2 SLP987 T10891100 FZRANO,PPIT,2014-12-18T06:56:00Z,60.9,-162.43,-8.9,-10.0,50,7,,10.0,29.489174,998.7,,TRUE,TRUE,,,,TRUE,,,CLR,,,,,,,,VFR,,,,,,,,,,,,METAR,4.0
PFKW 180656Z AUTO 04005KT 10SM CLR M09/M11 A2949 RMK AO2 SLP985 T10941106 FZRANO,PFKW,2014-12-18T06:56:00Z,60.8,-161.43,-9.4,-10.6,40,5,,10.0,29.489174,998.5,,TRUE,TRUE,,,,TRUE,,,CLR,,,,,,,,VFR,,,,,,,,,,,,METAR,8.0
PFCL 180656Z AUTO 03010KT 10SM OVC005 M04/M05 A2944 RMK AO2 SLP972 T10391050 FZRANO,PFCL,2014-12-18T06:56:00Z,58.83,-158.53,-3.9,-5.0,30,10,,10.0,29.438976,997.2,,TRUE,TRUE,,,,TRUE,,,OVC,500,,,,,,,IFR,,,,,,,,,,,,METAR,24.0
PAVC 180656Z AUTO 00000KT 10SM FEW060 02/00 A2928 RMK AO2 TSNO T00220000 SLP919 $,PAVC,2014-12-18T06:56:00Z,55.12,-162.27,2.2,0.0,0,0,,10.0,29.279528,991.9,,TRUE,TRUE,TRUE,,TRUE,,,,FEW,6000,,,,,,,VFR,,,,,,,,,,,,METAR,47.0
PATQ 180656Z AUTO 08014KT 10SM -SN OVC065 M24/M26 A2988 RMK AO2 TSNO T12381261 P0000 SLP126 $,PATQ,2014-12-18T06:56:00Z,70.47,-157.43,-23.8,-26.1,80,14,,10.0,29.878937,1012.6,,TRUE,TRUE,TRUE,,TRUE,,,-SN,OVC,6500,,,,,,,VFR,,,,,,0.0050,,,,,,METAR,29.0
PARS 180656Z AUTO 04004KT 3SM BR OVC003 M07/M08 A2958 RMK AO2 TSNO T10721077 SLP022 $,PARS,2014-12-18T06:56:00Z,61.77,-161.32,-7.2,-7.7,40,4,,3.0,29.58071,1002.2,,TRUE,TRUE,TRUE,,TRUE,,,BR,OVC,300,,,,,,,LIFR,,,,,,,,,,,,SPECI,16.0
PAQH 180656Z AUTO 07007KT 10SM CLR M06/M08 A2945 RMK AO2 SLP975 T10561083 FZRANO,PAQH,2014-12-18T06:56:00Z,59.75,-161.85,-5.6,-8.3,70,7,,10.0,29.450787,997.5,,TRUE,TRUE,,,,TRUE,,,CLR,,,,,,,,VFR,,,,,,,,,,,,METAR,13.0
PAPM 180656Z AUTO 03010KT 10SM CLR M02/M05 A2944 RMK AO2 TSNO T10161050 SLP970 $,PAPM,2014-12-18T06:56:00Z,59.02,-161.82,-1.6,-5.0,30,10,,10.0,29.438976,997.0,,TRUE,TRUE,TRUE,,TRUE,,,,CLR,,,,,,,,VFR,,,,,,,,,,,,SPECI,5.0
PAOU 180656Z AUTO 07008KT 6SM BR CLR 02/01 A2929 RMK AO2 TSNO T00220005 SLP923 $,PAOU,2014-12-18T06:56:00Z,56.0,-161.17,2.2,0.5,70,8,,6.0,29.291338,992.3,,TRUE,TRUE,TRUE,,TRUE,,,BR,CLR,,,,,,,,VFR,,,,,,,,,,,,SPECI,4.0
PAOH 180656Z AUTO 08009KT 10SM BKN049 03/03 A2970 RMK AO2 TSNO T00330027 SLP057 $,PAOH,2014-12-18T06:56:00Z,58.1,-135.45,3.3,2.7,80,9,,10.0,29.698818,1005.7,,TRUE,TRUE,TRUE,,TRUE,,,,BKN,4900,,,,,,,VFR,,,,,,,,,,,,SPECI,9.0
PANA 180656Z AUTO 05006KT 10SM CLR M08/M10 A2948 RMK AO2 SLP982 T10781100 FZRANO,PANA,2014-12-18T06:56:00Z,60.68,-161.98,-7.8,-10.0,50,6,,10.0,29.480314,998.2,,TRUE,TRUE,,,,TRUE,,,CLR,,,,,,,,VFR,,,,,,,,,,,,METAR,5.0
PAMO 180656Z AUTO 08011KT 10SM CLR M08/M09 A2954 RMK AO2 TSNO T10831094 SLP889 $,PAMO,2014-12-18T06:56:00Z,62.1,-163.68,-8.3,-9.4,80,11,,10.0,29.53937,988.9,,TRUE,TRUE,TRUE,,TRUE,,,,CLR,,,,,,,,VFR,,,,,,,,,,,,SPECI,103.0
PAMK 180656Z AUTO 08013KT 10SM CLR M06/M08 A2959 RMK AO2 TSNO T10611083 SLP026 $,PAMK,2014-12-18T06:56:00Z,63.48,-162.12,-6.1,-8.3,80,13,,10.0,29.589567,1002.6,,TRUE,TRUE,TRUE,,TRUE,,,,CLR,,,,,,,,VFR,,,,,,,,,,,,SPECI,28.0
PALG 180656Z AUTO 09006KT 10SM CLR M05/M07 A2954 RMK AO2 TSNO T10501066 SLP007 $,PALG,2014-12-18T06:56:00Z,61.53,-160.33,-5.0,-6.6,90,6,,10.0,29.53937,1000.7,,TRUE,TRUE,TRUE,,TRUE,,,,CLR,,,,,,,,VFR,,,,,,,,,,,,SPECI,17.0
PAKI 180656Z AUTO 06009KT 10SM BKN050 M07/M09 A2945 RMK AO2 TSNO T10661088 SLP974 $,PAKI,2014-12-18T06:56:00Z,59.93,-164.03,-6.6,-8.8,60,9,,10.0,29.450787,997.4,,TRUE,TRUE,TRUE,,TRUE,,,,BKN,5000,,,,,,,VFR,,,,,,,,,,,,SPECI,4.0
KGFA 180656Z AUTO 22008KT 10SM SCT200 M03/M05 A2992 RMK AO2 SLP173 T10311049 400371062,KGFA,2014-12-18T06:56:00Z,47.5,-111.17,-3.1,-4.9,220,8,,10.0,29.920275,1017.3,,TRUE,TRUE,,,,,,,SCT,20000,,,,,,,VFR,,,,3.7,-6.2,,,,,,,METAR,1075.0
KP53 180656Z AUTO 02016KT M01/M06 A3022 RMK AO1 SLP245 T10111056,KP53,2014-12-18T06:56:00Z,46.42,-86.65,-1.1,-5.6,20,16,,,30.221457,1024.5,,TRUE,TRUE,,,,,,,,,,,,,,,,,,,,,,,,,,,METAR,187.0
KNFE 180656Z AUTO 35008KT 10SM CLR 07/01 A3006 RMK AO2 SLP182 T00720006,KNFE,2014-12-18T06:56:00Z,36.7,-76.13,7.2,0.6,350,8,,10.0,30.059055,1018.2,,TRUE,TRUE,,,,,,,CLR,,,,,,,,VFR,,,,,,,,,,,,METAR,5.0
PAFB 180656Z AUTO 00000KT 10SM OVC013 M07/M10 A2968 RMK SLP059 T10721100 VIA AUTODIAL,PAFB,2014-12-18T06:56:00Z,64.83,-147.62,-7.2,-10.0,0,0,,10.0,29.681103,1005.9,,TRUE,,,,,,,,OVC,1300,,,,,,,MVFR,,,,,,,,,,,,METAR,137.0
PAPN 180656Z AUTO 03010KT 10SM CLR M03/M04 A2935 RMK AO2 PWINO TSNO T10271044 SLP938 $,PAPN,2014-12-18T06:56:00Z,57.58,-157.57,-2.7,-4.4,30,10,,10.0,29.350393,993.8,,TRUE,TRUE,TRUE,,TRUE,,TRUE,,CLR,,,,,,,,VFR,,,,,,,,,,,,METAR,18.0
PANW 180656Z AUTO 36008KT 10SM CLR M06/M08 A2948 RMK AO2 TSNO T10611077 SLP964 $,PANW,2014-12-18T06:56:00Z,59.45,-157.37,-6.1,-7.7,360,8,,10.0,29.480314,996.4,,TRUE,TRUE,TRUE,,TRUE,,,,CLR,,,,,,,,VFR,,,,,,,,,,,,SPECI,92.0
KQHY 180656Z AUTO 02004KT 10SM BKN200 08/05 A3019 RMK AO2 SLP230 T00780046,KQHY,2014-12-18T06:56:00Z,100.65,-1000.65,7.8,4.6,20,4,,10.0,30.188976,1023.0,,TRUE,TRUE,,,,,,,BKN,20000,,,,,,,VFR,,,,,,,,,,,,METAR,999.0
KQBL 180656Z AUTO 35003KT 10SM BKN200 08/05 A3018 RMK AO2 SLP226 T00790049,KQBL,2014-12-18T06:56:00Z,100.65,-1000.65,7.9,4.9,350,3,,10.0,30.180119,1022.6,,TRUE,TRUE,,,,,,,BKN,20000,,,,,,,VFR,,,,,,,,,,,,METAR,999.0
KQBK 180656Z AUTO 04005KT 6000 CLR 15/09 A3035 RMK AO2 SLP106 T01520094,KQBK,2014-12-18T06:56:00Z,,,15.2,9.4,40,5,,3.73,30.351377,1010.6,,TRUE,TRUE,,,,,,,CLR,,,,,,,,MVFR,,,,,,,,,,,,METAR,
KSGH 180656Z AUTO 20005KT 7SM OVC026 M04/M06 A3026 RMK AO2 T10381061 SLP259,KSGH,2014-12-18T06:56:00Z,39.83,-83.83,-3.8,-6.1,200,5,,7.0,30.259842,1025.9,,TRUE,TRUE,,,,,,,OVC,2600,,,,,,,MVFR,,,,,,,,,,,,SPECI,321.0
KSDF 180656Z 03007KT 10SM OVC019 M01/M06 A3029 RMK AO2 SLP261 T10111056,KSDF,2014-12-18T06:56:00Z,38.18,-85.73,-1.1,-5.6,30,7,,10.0,30.28937,1026.1,,,TRUE,,,,,,,OVC,1900,,,,,,,MVFR,,,,,,,,,,,,SPECI,146.0
KOWB 180656Z AUTO 10SM CLR M01/M04 A3032 RMK AO2 TSNO T10051038 SLP269,KOWB,2014-12-18T06:56:00Z,37.72,-87.17,-0.5,-3.8,,,,10.0,30.318897,1026.9,,TRUE,TRUE,,,TRUE,,,,CLR,,,,,,,,VFR,,,,,,,,,,,,METAR,124.0
KEAU 180656Z AUTO 00000KT 10SM OVC015 M07/M10 A3031 RMK AO2 SLP279 T10671100,KEAU,2014-12-18T06:56:00Z,44.87,-91.47,-6.7,-10.0,0,0,,10.0,30.31004,1027.9,,TRUE,TRUE,,,,,,,OVC,1500,,,,,,,MVFR,,,,,,,,,,,,SPECI,276.0
KDAY 180656Z 28007KT 10SM OVC025 M03/M07 A3026 RMK AO2 SLP258 T10281072,KDAY,2014-12-18T06:56:00Z,39.9,-84.22,-2.8,-7.2,280,7,,10.0,30.259842,1025.8,,,TRUE,,,,,,,OVC,2500,,,,,,,MVFR,,,,,,,,,,,,SPECI,305.0
KBED 180656Z AUTO 27010KT 10SM BKN049 BKN075 OVC095 03/M01 A2971 RMK AO2 SLP074 T00331011 TSNO,KBED,2014-12-18T06:56:00Z,42.47,-71.3,3.3,-1.1,270,10,,10.0,29.71063,1007.4,,TRUE,TRUE,,,TRUE,,,,BKN,4900,BKN,7500,OVC,9500,,,VFR,,,,,,,,,,,,SPECI,50.0
KJMS 180656Z AUTO 14005KT 10SM FEW090 M13/M15 A3022 RMK AO2 SLP266 T11331150,KJMS,2014-12-18T06:56:00Z,46.93,-98.67,-13.3,-15.0,140,5,,10.0,30.221457,1026.6,,TRUE,TRUE,,,,,,,FEW,9000,,,,,,,VFR,,,,,,,,,,,,METAR,455.0
KHYA 180656Z 26010G16KT 10SM FEW045 OVC070 05/00 A2971 RMK AO2 SLP061 T00500000,KHYA,2014-12-18T06:56:00Z,41.67,-70.27,5.0,0.0,260,10,16,10.0,29.71063,1006.1,,,TRUE,,,,,,,FEW,4500,OVC,7000,,,,,VFR,,,,,,,,,,,,METAR,22.0
KGON 180656Z AUTO 29009KT 9SM OVC075 03/00 A2980 RMK AO2 SLP090 T00280000,KGON,2014-12-18T06:56:00Z,41.33,-72.05,2.8,0.0,290,9,,9.0,29.799213,1009.0,,TRUE,TRUE,,,,,,,OVC,7500,,,,,,,VFR,,,,,,,,,,,,METAR,3.0
KFSD 180656Z AUTO 05003KT 10SM OVC070 M09/M12 A3026 RMK AO2 SLP275 T10941117,KFSD,2014-12-18T06:56:00Z,43.58,-96.75,-9.4,-11.7,50,3,,10.0,30.259842,1027.5,,TRUE,TRUE,,,,,,,OVC,7000,,,,,,,VFR,,,,,,,,,,,,METAR,436.0
KHPN 180656Z 30016G20KT 10SM SCT036 OVC046 04/M03 A2984 RMK AO2 SLP111 T00391033,KHPN,2014-12-18T06:56:00Z,41.07,-73.7,3.9,-3.3,300,16,20,10.0,29.840551,1011.1,,,TRUE,,,,,,,SCT,3600,OVC,4600,,,,,VFR,,,,,,,,,,,,METAR,121.0
KGRD 180656Z AUTO 00000KT 7SM CLR 02/01 A3010 RMK AO2 SLP193 T00170006,KGRD,2014-12-18T06:56:00Z,34.25,-82.15,1.7,0.6,0,0,,7.0,30.100393,1019.3,,TRUE,TRUE,,,,,,,CLR,,,,,,,,VFR,,,,,,,,,,,,METAR,185.0
KEKO 180656Z AUTO 00000KT 4SM BR OVC002 M03/M04 A3006 RMK AO2 SLP209 T10281039,KEKO,2014-12-18T06:56:00Z,40.82,-115.78,-2.8,-3.9,0,0,,4.0,30.059055,1020.9,,TRUE,TRUE,,,,,,BR,OVC,200,,,,,,,LIFR,,,,,,,,,,,,METAR,1547.0
KRDM 180656Z AUTO 06003KT 10SM FEW090 M01/M02 A2995 RMK AO2 SLP162 T10111017,KRDM,2014-12-18T06:56:00Z,44.25,-121.15,-1.1,-1.7,60,3,,10.0,29.949802,1016.2,,TRUE,TRUE,,,,,,,FEW,9000,,,,,,,VFR,,,,,,,,,,,,METAR,938.0
KOFK 180656Z AUTO 12005KT 10SM OVC085 M04/M08 A3021 RMK AO2 SLP252 T10391078,KOFK,2014-12-18T06:56:00Z,41.98,-97.43,-3.9,-7.8,120,5,,10.0,30.209646,1025.2,,TRUE,TRUE,,,,,,,OVC,8500,,,,,,,VFR,,,,,,,,,,,,METAR,470.0
KNUQ 180656Z AUTO 13006KT 10SM OVC050 11/09 A3007 RMK AO2 SLP186 T01110089 TSNO,KNUQ,2014-12-18T06:56:00Z,37.4,-122.05,11.1,8.9,130,6,,10.0,30.070866,1018.6,,TRUE,TRUE,,,TRUE,,,,OVC,5000,,,,,,,VFR,,,,,,,,,,,,METAR,12.0
KMTW 180656Z AUTO 27008KT 10SM OVC017 M04/M06 A3026 RMK AO2 SLP273 T10391061 FZRANO,KMTW,2014-12-18T06:56:00Z,44.12,-87.67,-3.9,-6.1,270,8,,10.0,30.259842,1027.3,,TRUE,TRUE,,,,TRUE,,,OVC,1700,,,,,,,MVFR,,,,,,,,,,,,METAR,198.0
KMQY 180656Z AUTO 34004KT 9SM UP CLR 01/M01 A3028 RMK AO2 T00051011 UPB50 P0000 SLP266,KMQY,2014-12-18T06:56:00Z,36.02,-86.52,0.5,-1.1,340,4,,9.0,30.280512,1026.6,,TRUE,TRUE,,,,,,UP,CLR,,,,,,,,VFR,,,,,,0.0050,,,,,,METAR,166.0
KMOB 180656Z AUTO 00000KT 10SM CLR 06/05 A3019 RMK AO2 SLP223 T00610050,KMOB,2014-12-18T06:56:00Z,30.68,-88.25,6.1,5.0,0,0,,10.0,30.188976,1022.3,,TRUE,TRUE,,,,,,,CLR,,,,,,,,VFR,,,,,,,,,,,,METAR,63.0
KSBP 180656Z AUTO 14003KT 10SM OVC065 09/08 A3014 RMK AO2 RAE34 SLP205 P0000 T00940078,KSBP,2014-12-18T06:56:00Z,35.23,-120.63,9.4,7.8,140,3,,10.0,30.138779,1020.5,,TRUE,TRUE,,,,,,,OVC,6500,,,,,,,VFR,,,,,,0.0050,,,,,,SPECI,59.0
KSFO 180656Z 11013KT 6SM -RA BR FEW009 SCT016 OVC022 12/11 A3006 RMK AO2 SLP179 P0005 T01170106,KSFO,2014-12-18T06:56:00Z,37.62,-122.37,11.7,10.6,110,13,,6.0,30.059055,1017.9,,,TRUE,,,,,,-RA BR,FEW,900,SCT,1600,OVC,2200,,,MVFR,,,,,,0.05,,,,,,METAR,3.0
KSLE 180656Z AUTO 16009KT 10SM SCT035 BKN060 OVC085 08/07 A2998 RMK AO2 RAE03 SLP152 P0001 T00830067,KSLE,2014-12-18T06:56:00Z,44.9,-123.0,8.3,6.7,160,9,,10.0,29.97933,1015.2,,TRUE,TRUE,,,,,,,SCT,3500,BKN,6000,OVC,8500,,,VFR,,,,,,0.01,,,,,,SPECI,59.0
KWJF 180656Z 27008KT 10SM CLR 04/01 A3011 RMK AO2 SLP203 T00440011,KWJF,2014-12-18T06:56:00Z,34.72,-118.22,4.4,1.1,270,8,,10.0,30.109253,1020.3,,,TRUE,,,,,,,CLR,,,,,,,,VFR,,,,,,,,,,,,METAR,715.0
KVPZ 180656Z AUTO 27005KT 10SM OVC023 M04/M08 A3027 RMK AO2 SLP262 T10441083 TSNO,KVPZ,2014-12-18T06:56:00Z,41.45,-87.0,-4.4,-8.3,270,5,,10.0,30.268702,1026.2,,TRUE,TRUE,,,TRUE,,,,OVC,2300,,,,,,,MVFR,,,,,,,,,,,,SPECI,231.0
KUKI 180656Z AUTO 00000KT 5SM RA BR SCT004 OVC024 09/08 A3006 RMK AO2 SLP175 P0002 T00890078,KUKI,2014-12-18T06:56:00Z,39.12,-123.2,8.9,7.8,0,0,,5.0,30.059055,1017.5,,TRUE,TRUE,,,,,,RA BR,SCT,400,OVC,2400,,,,,MVFR,,,,,,0.02,,,,,,SPECI,187.0
KUCP 180656Z AUTO 24010KT 10SM M02/M06 A3016 RMK AO2 TSNO T10221061 SNE50 P0000 SLP239 $,KUCP,2014-12-18T06:56:00Z,41.03,-80.42,-2.2,-6.1,240,10,,10.0,30.159449,1023.9,,TRUE,TRUE,TRUE,,TRUE,,,,,,,,,,,,,,,,,,0.0050,,,,,,SPECI,327.0
KY50 180656Z AUTO 32004KT 10SM OVC020 M06/M09 A3029 RMK AO2 TSNO T10551094 SLP269,KY50,2014-12-18T06:56:00Z,44.03,-89.3,-5.5,-9.4,320,4,,10.0,30.28937,1026.9,,TRUE,TRUE,,,TRUE,,,,OVC,2000,,,,,,,MVFR,,,,,,,,,,,,SPECI,262.0
KHFF 180656Z AUTO 01002KT 10SM CLR 01/00 A3010 RMK AO2 SLP196 T00090004,KHFF,2014-12-18T06:56:00Z,35.02,-79.5,0.9,0.4,10,2,,10.0,30.100393,1019.6,,TRUE,TRUE,,,,,,,CLR,,,,,,,,VFR,,,,,,,,,,,,METAR,115.0
KFEW 180656Z AUTO 28009KT 10SM FEW050 M04/M08 A2990 RMK AO2 SLP139 T10421082 400781074 $,KFEW,2014-12-18T06:56:00Z,41.13,-104.87,-4.2,-8.2,280,9,,10.0,29.899607,1013.9,,TRUE,TRUE,TRUE,,,,,,FEW,5000,,,,,,,VFR,,,,7.8,-7.4,,,,,,,METAR,1878.0
TJSJ 180656Z 01009KT 10SM SCT060 25/19 A3000 RMK AO2 SLP159 T02500189,TJSJ,2014-12-18T06:56:00Z,18.43,-66.02,25.0,18.9,10,9,,10.0,30.0,1015.9,,,TRUE,,,,,,,SCT,6000,,,,,,,VFR,,,,,,,,,,,,SPECI,21.0
KLWS 180656Z AUTO 00000KT 10SM OVC060 03/02 A2998 RMK AO2 SLP161 T00330022,KLWS,2014-12-18T06:56:00Z,46.37,-117.02,3.3,2.2,0,0,,10.0,29.97933,1016.1,,TRUE,TRUE,,,,,,,OVC,6000,,,,,,,VFR,,,,,,,,,,,,METAR,438.0
KLNR 180656Z AUTO 28003KT 10SM CLR M06/M11 A3031 RMK AO2 SLP269 T10611106,KLNR,2014-12-18T06:56:00Z,43.22,-90.18,-6.1,-10.6,280,3,,10.0,30.31004,1026.9,,TRUE,TRUE,,,,,,,CLR,,,,,,,,VFR,,,,,,,,,,,,METAR,217.0
KLAS 180656Z 16004KT 10SM BKN070 OVC100 09/07 A3005 RMK AO2 SLP175 T00940067,KLAS,2014-12-18T06:56:00Z,36.07,-115.17,9.4,6.7,160,4,,10.0,30.050198,1017.5,,,TRUE,,,,,,,BKN,7000,OVC,10000,,,,,VFR,,,,,,,,,,,,METAR,636.0
KJXN 180656Z 29007KT 10SM OVC021 M02/M07 A3019 RMK AO2 SLP236 T10221067,KJXN,2014-12-18T06:56:00Z,42.27,-84.47,-2.2,-6.7,290,7,,10.0,30.188976,1023.6,,,TRUE,,,,,,,OVC,2100,,,,,,,MVFR,,,,,,,,,,,,METAR,305.0
KJAX 180656Z 00000KT 10SM FEW250 06/06 A3014 RMK AO2 SLP207 T00610056,KJAX,2014-12-18T06:56:00Z,30.5,-81.68,6.1,5.6,0,0,,10.0,30.138779,1020.7,,,TRUE,,,,,,,FEW,25000,,,,,,,VFR,,,,,,,,,,,,METAR,10.0
KITH 180656Z AUTO 29010KT 6SM -SN BR SCT007 OVC016 M01/M02 A2995 RMK AO2 T10111022 P0000 SLP152,KITH,2014-12-18T06:56:00Z,42.47,-76.45,-1.1,-2.2,290,10,,6.0,29.949802,1015.2,,TRUE,TRUE,,,,,,-SN BR,SCT,700,OVC,1600,,,,,MVFR,,,,,,0.0050,,,,,,METAR,335.0
KISP 180656Z AUTO 31011G21KT 10SM FEW039 OVC065 05/M02 A2983 RMK AO2 SLP102 T00501017,KISP,2014-12-18T06:56:00Z,40.8,-73.1,5.0,-1.7,310,11,21,10.0,29.828741,1010.2,,TRUE,TRUE,,,,,,,FEW,3900,OVC,6500,,,,,VFR,,,,,,,,,,,,METAR,43.0
KINW 180656Z AUTO 00000KT 10SM BKN075 01/M01 A3011 RMK AO2 SLP195 T00111006 400780011,KINW,2014-12-18T06:56:00Z,35.03,-110.72,1.1,-0.6,0,0,,10.0,30.109253,1019.5,,TRUE,TRUE,,,,,,,BKN,7500,,,,,,,VFR,,,,7.8,1.1,,,,,,,METAR,1490.0
KIGX 180656Z AUTO 00000KT 10SM CLR 02/00 A3010 RMK AO2 SLP191 T00220000,KIGX,2014-12-18T06:56:00Z,35.93,-79.07,2.2,0.0,0,0,,10.0,30.100393,1019.1,,TRUE,TRUE,,,,,,,CLR,,,,,,,,VFR,,,,,,,,,,,,METAR,155.0
KHWV 180656Z AUTO 31011KT 10SM SCT060 04/M02 A2985 RMK AO2 SLP106 T00441017 TSNO,KHWV,2014-12-18T06:56:00Z,40.82,-72.87,4.4,-1.7,310,11,,10.0,29.84941,1010.6,,TRUE,TRUE,,,TRUE,,,,SCT,6000,,,,,,,VFR,,,,,,,,,,,,METAR,21.0
KMDT 180656Z 31015G21KT 10SM BKN045 02/M07 A3005 RMK AO2 SLP178 T00171067,KMDT,2014-12-18T06:56:00Z,40.2,-76.77,1.7,-6.7,310,15,21,10.0,30.050198,1017.8,,,TRUE,,,,,,,BKN,4500,,,,,,,VFR,,,,,,,,,,,,METAR,95.0
PAKH 180656Z AUTO 06020KT 10SM 05/M01 A2924 RMK AO2 TSNO T00501005 PK WND 06028/0558 SLP905 $,PAKH,2014-12-18T06:56:00Z,56.93,-154.18,5.0,-0.5,60,20,,10.0,29.241142,990.5,,TRUE,TRUE,TRUE,,TRUE,,,,,,,,,,,,,,,,,,,,,,,,METAR,14.0
PAIG 180656Z AUTO 05013KT 10SM CLR 02/M01 A2945 RMK AO2 TSNO T00161011 SLP977 $,PAIG,2014-12-18T06:56:00Z,59.32,-155.9,1.6,-1.1,50,13,,10.0,29.450787,997.7,,TRUE,TRUE,TRUE,,TRUE,,,,CLR,,,,,,,,VFR,,,,,,,,,,,,SPECI,28.0
PAHC 180656Z AUTO 02006KT 10SM CLR M07/M09 A2958 RMK AO2 TSNO T10721088 SLP023 $,PAHC,2014-12-18T06:56:00Z,62.18,-159.78,-7.2,-8.8,20,6,,10.0,29.58071,1002.3,,TRUE,TRUE,TRUE,,TRUE,,,,CLR,,,,,,,,VFR,,,,,,,,,,,,SPECI,21.0
PAGN 180656Z AUTO VRB04KT 10SM FEW050 SCT075 02/00 A2967 RMK AO2 TSNO T00220000 SLP051 $,PAGN,2014-12-18T06:56:00Z,57.5,-134.58,2.2,0.0,0,4,,10.0,29.66929,1005.1,,TRUE,TRUE,TRUE,,TRUE,,,,FEW,5000,SCT,7500,,,,,VFR,,,,,,,,,,,,METAR,2.0
PAFS 180656Z AUTO 00000KT 10SM OVC005 M09/M11 A2963 RMK AO2 TSNO T10941111 SNB14E22 P0000 SLP047 $,PAFS,2014-12-18T06:56:00Z,63.02,-154.35,-9.4,-11.1,0,0,,10.0,29.630905,1004.7,,TRUE,TRUE,TRUE,,TRUE,,,,OVC,500,,,,,,,IFR,,,,,,0.0050,,,,,,SPECI,126.0
PADM 180656Z AUTO 06022KT 10SM CLR M07/M09 A2956 RMK AO2 TSNO T10721094 SLP999 $,PADM,2014-12-18T06:56:00Z,61.87,-162.03,-7.2,-9.4,60,22,,10.0,29.56004,999.9,,TRUE,TRUE,TRUE,,TRUE,,,,CLR,,,,,,,,VFR,,,,,,,,,,,,SPECI,31.0
PACM 180656Z AUTO 10SM CLR M06/M08 A2953 RMK AO2 FZRANO TSNO T10611077 SLP996 $,PACM,2014-12-18T06:56:00Z,61.85,-165.57,-6.1,-7.7,,,,10.0,29.530512,999.6,,TRUE,TRUE,TRUE,,TRUE,TRUE,,,CLR,,,,,,,,VFR,,,,,,,,,,,,SPECI,4.0
PHNY 180656Z AUTO 04009KT 10SM CLR 21/19 A3020 RMK AO2 TSNO T02050194 SLP207 $,PHNY,2014-12-18T06:56:00Z,20.77,-156.93,20.5,19.4,40,9,,10.0,30.200787,1020.7,,TRUE,TRUE,TRUE,,TRUE,,,,CLR,,,,,,,,VFR,,,,,,,,,,,,METAR,399.0
KEED 180656Z AUTO 00000KT 10SM OVC090 11/08 A3011 RMK AO2 SLP187 T01060083,KEED,2014-12-18T06:56:00Z,34.77,-114.62,10.6,8.3,0,0,,10.0,30.109253,1018.7,,TRUE,TRUE,,,,,,,OVC,9000,,,,,,,VFR,,,,,,,,,,,,METAR,302.0
KWMC 180656Z AUTO 13003KT 10SM BKN048 OVC060 00/M02 A3004 RMK AO2 SLP183 T00001022,KWMC,2014-12-18T06:56:00Z,40.9,-117.8,0.0,-2.2,130,3,,10.0,30.041338,1018.3,,TRUE,TRUE,,,,,,,BKN,4800,OVC,6000,,,,,VFR,,,,,,,,,,,,METAR,1310.0
KDUG 180656Z AUTO 36006KT 9SM -RA BKN045 OVC070 06/05 A3016 RMK AO2 RAB40 SLP192 P0002 T00610050 401330061,KDUG,2014-12-18T06:56:00Z,31.47,-109.58,6.1,5.0,360,6,,9.0,30.159449,1019.2,,TRUE,TRUE,,,,,,-RA,BKN,4500,OVC,7000,,,,,VFR,,,,13.3,6.1,0.02,,,,,,METAR,1265.0
KDIJ 180656Z AUTO 14006KT 10SM OVC046 M03/M04 A3004 RMK AO2 T10331038 UPB0558E10SNE0558B0559E02B03E06B07E09B10E12 P0000 SLP174,KDIJ,2014-12-18T06:56:00Z,43.75,-111.1,-3.3,-3.8,140,6,,10.0,30.041338,1017.4,,TRUE,TRUE,,,,,,,OVC,4600,,,,,,,VFR,,,,,,0.0050,,,,,,METAR,1899.0
KCXY 180656Z AUTO 31011G19KT 10SM OVC045 02/M07 A3005 RMK AO2 SLP180 T00221067,KCXY,2014-12-18T06:56:00Z,40.22,-76.85,2.2,-6.7,310,11,19,10.0,30.050198,1018.0,,TRUE,TRUE,,,,,,,OVC,4500,,,,,,,VFR,,,,,,,,,,,,METAR,106.0
KCTB 180656Z AUTO 34004KT 10SM SCT090 M10/M12 A2986 RMK AO2 SLP166 T11001122 410611139 $,KCTB,2014-12-18T06:56:00Z,48.6,-112.37,-10.0,-12.2,340,4,,10.0,29.861221,1016.6,,TRUE,TRUE,TRUE,,,,,,SCT,9000,,,,,,,VFR,,,,-6.1,-13.9,,,,,,,METAR,1175.0
KCHS 180656Z 00000KT 10SM FEW250 07/05 A3010 RMK AO2 SLP193 T00670050,KCHS,2014-12-18T06:56:00Z,32.9,-80.03,6.7,5.0,0,0,,10.0,30.100393,1019.3,,,TRUE,,,,,,,FEW,25000,,,,,,,VFR,,,,,,,,,,,,METAR,13.0
KCEC 180656Z AUTO 15012KT 10SM OVC035 12/08 A2997 RMK AO2 SLP150 T01220083,KCEC,2014-12-18T06:56:00Z,41.77,-124.22,12.2,8.3,150,12,,10.0,29.970472,1015.0,,TRUE,TRUE,,,,,,,OVC,3500,,,,,,,VFR,,,,,,,,,,,,METAR,17.0
KCAE 180656Z 00000KT 10SM CLR 02/M01 A3009 RMK AO2 SLP188 T00171006,KCAE,2014-12-18T06:56:00Z,33.93,-81.12,1.7,-0.6,0,0,,10.0,30.088583,1018.8,,,TRUE,,,,,,,CLR,,,,,,,,VFR,,,,,,,,,,,,METAR,70.0
KBJJ 180656Z AUTO 30014KT 10SM OVC020 M03/M06 A3018 RMK AO2 SLP234 T10281061 TSNO,KBJJ,2014-12-18T06:56:00Z,40.87,-81.88,-2.8,-6.1,300,14,,10.0,30.180119,1023.4,,TRUE,TRUE,,,TRUE,,,,OVC,2000,,,,,,,MVFR,,,,,,,,,,,,METAR,343.0
KBIH 180656Z AUTO 00000KT 10SM CLR 00/M02 A3007 RMK AO2 SLP177 T00001017,KBIH,2014-12-18T06:56:00Z,37.37,-118.35,0.0,-1.7,0,0,,10.0,30.070866,1017.7,,TRUE,TRUE,,,,,,,CLR,,,,,,,,VFR,,,,,,,,,,,,METAR,1253.0
KAND 180656Z AUTO 00000KT 5SM BR CLR 02/01 A3009 RMK AO2 SLP188 T00170006,KAND,2014-12-18T06:56:00Z,34.5,-82.72,1.7,0.6,0,0,,5.0,30.088583,1018.8,,TRUE,TRUE,,,,,,BR,CLR,,,,,,,,MVFR,,,,,,,,,,,,METAR,239.0
KAJO 180656Z AUTO 00000KT 10SM CLR 09/06 A3013 RMK AO2 T00880055 SLP201 $,KAJO,2014-12-18T06:56:00Z,33.9,-117.6,8.8,5.5,0,0,,10.0,30.129921,1020.1,,TRUE,TRUE,TRUE,,,,,,CLR,,,,,,,,VFR,,,,,,,,,,,,METAR,163.0
K1M4 180656Z AUTO 00000KT 10SM FEW100 02/00 A3022 RMK AO2 T00160000 SLP243 $,K1M4,2014-12-18T06:56:00Z,34.28,-87.6,1.6,0.0,0,0,,10.0,30.221457,1024.3,,TRUE,TRUE,TRUE,,,,,,FEW,10000,,,,,,,VFR,,,,,,,,,,,,METAR,284.0
KNXF 180656Z AUTO 08004KT 8SM CLR 12/08 A3013 RMK AO2 SLP288 T01220083 $,KNXF,2014-12-18T06:56:00Z,33.28,-117.45,12.2,8.3,80,4,,8.0,30.129921,1028.8,,TRUE,TRUE,TRUE,,,,,,CLR,,,,,,,,VFR,,,,,,,,,,,,METAR,27.0
KM63 180656Z AUTO 13008KT 10SM FEW055 08/02 A3013 RMK AO2 SLP170 T00750016 401460006,KM63,2014-12-18T06:56:00Z,32.05,-106.15,7.5,1.6,130,8,,10.0,30.129921,1017.0,,TRUE,TRUE,,,,,,,FEW,5500,,,,,,,VFR,,,,14.6,0.6,,,,,,,METAR,1283.0
KGXF 180656Z AUTO 17003KT 10SM CLR 09/08 A3013 RMK AO2 SLP200 T00850081 401600077,KGXF,2014-12-18T06:56:00Z,32.87,-112.72,8.5,8.1,170,3,,10.0,30.129921,1020.0,,TRUE,TRUE,,,,,,,CLR,,,,,,,,VFR,,,,16.0,7.7,,,,,,,METAR,262.0
K4MR 180656Z AUTO 24013G18KT 10SM CLR 04/M01 A3005 RMK AO2 SLP164 T00391012 401311019,K4MR,2014-12-18T06:56:00Z,34.3,-103.8,3.9,-1.2,240,13,18,10.0,30.050198,1016.4,,TRUE,TRUE,,,,,,,CLR,,,,,,,,VFR,,,,13.1,-1.9,,,,,,,METAR,1326.0
KNQI 180656Z AUTO 09004KT 10SM FEW024 BKN034 OVC065 21/20 A3004 RMK AO2 DZE01 SLP169 P0000 T02060200,KNQI,2014-12-18T06:56:00Z,27.5,-97.82,20.6,20.0,90,4,,10.0,30.041338,1016.9,,TRUE,TRUE,,,,,,,FEW,2400,BKN,3400,OVC,6500,,,VFR,,,,,,0.0050,,,,,,METAR,15.0
KD07 180656Z AUTO 15010KT M06/M09 A3005 RMK AO1 SLP222 T10611089 410611089,KD07,2014-12-18T06:56:00Z,45.03,-102.02,-6.1,-8.9,150,10,,,30.050198,1022.2,,TRUE,TRUE,,,,,,,,,,,,,,,,,,,-6.1,-8.9,,,,,,,METAR,784.0
KPRN 180656Z AUTO 00000KT 10SM CLR 03/02 A3017 RMK AO2 SLP215 T00330017,KPRN,2014-12-18T06:56:00Z,31.85,-86.62,3.3,1.7,0,0,,10.0,30.171259,1021.5,,TRUE,TRUE,,,,,,,CLR,,,,,,,,VFR,,,,,,,,,,,,METAR,138.0
KQEA 180655Z AUTO VRB02KT 31/21 A2977 RMK AO2 SLP080 T03140214 PWINO TSNO $,KQEA,2014-12-18T06:55:00Z,100.65,-1000.65,31.4,21.4,0,2,,,29.769686,1008.0,,TRUE,TRUE,TRUE,,TRUE,,TRUE,,,,,,,,,,,,,,,,,,,,,,METAR,999.0
KQL5 180655Z VRB02KT 4400 HZ SCT150 14/M05 A3021 RMK SLP245 T01381053,KQL5,2014-12-18T06:55:00Z,100.65,-1000.65,13.8,-5.3,0,2,,2.73,30.209646,1024.5,,,,,,,,,HZ,SCT,15000,,,,,,,IFR,,,,,,,,,,,,METAR,999.0
KQFQ 180655Z AUTO VRB03KT 8SM CLR M05/M16 A3050 RMK AO2 SLP334 T10541158 $,KQFQ,2014-12-18T06:55:00Z,100.65,-1000.65,-5.4,-15.8,0,3,,8.0,30.499016,1033.4,,TRUE,TRUE,TRUE,,,,,,CLR,,,,,,,,VFR,,,,,,,,,,,,METAR,999.0
LIRS 180655Z /////KT CAVOK 06/05 Q1017,LIRS,2014-12-18T06:55:00Z,42.75,11.07,6.0,5.0,,,,6.21,30.029528,,,,,,,,,,,CAVOK,,,,,,,,VFR,,,,,,,,,,,,METAR,7.0
LIRM 180655Z 04005KT CAVOK 05/03 Q1016,LIRM,2014-12-18T06:55:00Z,41.03,14.07,5.0,3.0,40,5,,6.21,30.0,,,,,,,,,,,CAVOK,,,,,,,,VFR,,,,,,,,,,,,METAR,10.0
LIRL 180655Z 34001KT 9999 FEW060 06/05 Q1015,LIRL,2014-12-18T06:55:00Z,41.53,12.9,6.0,5.0,340,1,,6.21,29.970472,,,,,,,,,,,FEW,6000,,,,,,,VFR,,,,,,,,,,,,METAR,26.0
LIRH 180655Z 28002KT 0800 FG FEW003 03/00 Q1016,LIRH,2014-12-18T06:55:00Z,41.65,13.3,3.0,0.0,280,2,,0.5,30.0,,,,,,,,,,FG,FEW,300,,,,,,,LIFR,,,,,,,,,,,,METAR,181.0
LIRG 180655Z 01003KT CAVOK 05/04 Q1016,LIRG,2014-12-18T06:55:00Z,42.0,12.72,5.0,4.0,10,3,,6.21,30.0,,,,,,,,,,,CAVOK,,,,,,,,VFR,,,,,,,,,,,,METAR,89.0
LIPF 180655Z 00000KT 0250 FG OVC004 04/02 Q1018 RMK OVC VIS MIN 0250,LIPF,2014-12-18T06:55:00Z,44.82,11.62,4.0,2.0,0,0,,0.16,30.059055,,,,,,,,,,FG,OVC,400,,,,,,,LIFR,,,,,,,,,,,,METAR,10.0
LIPC 180655Z 29005KT 2300 BR SCT005 BKN010 07/04 Q1019 RMK OVC VIS MIN 2300 WIND THR11 28003KT YLO,LIPC,2014-12-18T06:55:00Z,44.22,12.3,7.0,4.0,290,5,,1.43,30.088583,,,,,,,,,,BR,SCT,500,BKN,1000,,,,,IFR,,,,,,,,,,,,METAR,10.0
LIMS 180655Z 24004KT 9999 SCT080 03/02 Q1016 RMK SCT VIS MIN 9999 WIND THR30 23004KT BLU,LIMS,2014-12-18T06:55:00Z,44.92,9.72,3.0,2.0,240,4,,6.21,30.0,,,,,,,,,,,SCT,8000,,,,,,,VFR,,,,,,,,,,,,METAR,138.0
NZWD 180655Z 04006KT 9999 FEW010 FEW030 M06/M09 A2945 RMK SLP974 GRID21006KT SDG/HDG,NZWD,2014-12-18T06:55:00Z,-77.87,167.07,-6.0,-9.0,40,6,,6.21,29.450787,997.4,,,,,,,,,,FEW,1000,FEW,3000,,,,,VFR,,,,,,,,,,,,METAR,22.0
MUHA 180655Z VRB02KT 7000 FEW040 11/10 Q1020,MUHA,2014-12-18T06:55:00Z,22.97,-82.42,11.0,10.0,0,2,,4.35,30.11811,,,,,,,,,,,FEW,4000,,,,,,,MVFR,,,,,,,,,,,,METAR,64.0
KQTH 180655Z 35009G15KT 9999 CLR 21/08 A3026 RMK AO2A SLP235 T02110078,KQTH,2014-12-18T06:55:00Z,100.65,-1000.65,21.1,7.8,350,9,15,6.21,30.259842,1023.5,,,TRUE,,,,,,,CLR,,,,,,,,VFR,,,,,,,,,,,,METAR,999.0
KQSA 180655Z VRB02KT 5000 HZ FEW180 08/M11 A3023 RMK AO2A SLP206 T00801110 $,KQSA,2014-12-18T06:55:00Z,100.65,-1000.65,8.0,-11.0,0,2,,3.11,30.230314,1020.6,,,TRUE,TRUE,,,,,HZ,FEW,18000,,,,,,,MVFR,,,,,,,,,,,,METAR,999.0
KQRH 180655Z AUTO VRB05KT 9999 FEW028 SCT033 29/19 A3010 RMK AO2 SLP191 T02880191 $,KQRH,2014-12-18T06:55:00Z,100.65,-1000.65,28.8,19.1,0,5,,6.21,30.100393,1019.1,,TRUE,TRUE,TRUE,,,,,,FEW,2800,SCT,3300,,,,,VFR,,,,,,,,,,,,METAR,999.0
KQRB 180655Z AUTO 03002KT M0400 FG SCT150 BKN210 24/24 A2987 RMK AO2 SLP115 T02370235,KQRB,2014-12-18T06:55:00Z,100.65,-1000.65,23.7,23.5,30,2,,0.25,29.870079,1011.5,,TRUE,TRUE,,,,,,FG,SCT,15000,BKN,21000,,,,,LIFR,,,,,,,,,,,,METAR,999.0
KQAJ 180655Z 31006KT 9999 SKC 15/09 A3030 RMK SLP262 T01540090,KQAJ,2014-12-18T06:55:00Z,100.65,-1000.65,15.4,9.0,310,6,,6.21,30.301182,1026.2,,,,,,,,,,SKC,,,,,,,,VFR,,,,,,,,,,,,METAR,999.0
K9L2 180655Z AUTO 01004KT 10SM CLR 05/01 A3008 RMK AO2 SLP194 T00500006 TSNO $,K9L2,2014-12-18T06:55:00Z,34.97,-117.87,5.0,0.6,10,4,,10.0,30.079725,1019.4,,TRUE,TRUE,TRUE,,TRUE,,,,CLR,,,,,,,,VFR,,,,,,,,,,,,SPECI,701.0
RJOI 180655Z 29007KT 9999 FEW020 BKN040 04/M06 A3038 RMK SLP288 T00391056,RJOI,2014-12-18T06:55:00Z,34.13,132.22,3.9,-5.6,290,7,,6.21,30.380905,1028.8,,,,,,,,,,FEW,2000,BKN,4000,,,,,VFR,,,,,,,,,,,,METAR,2.0
KQTC 180655Z AUTO 11003KT 10SM CLR RMK AO2 SLPNO $,KQTC,2014-12-18T06:55:00Z,100.65,-1000.65,,,110,3,,10.0,,,,TRUE,TRUE,TRUE,,,,,,CLR,,,,,,,,VFR,,,,,,,,,,,,METAR,999.0
LIMK 180655Z 00000KT CAVOK 07/03 Q1016 RMK BKN BKN150 VAL NIL VIS MIN 9999,LIMK,2014-12-18T06:55:00Z,45.02,7.72,7.0,3.0,0,0,,6.21,30.0,,,,,,,,,,,CAVOK,,,,,,,,VFR,,,,,,,,,,,,METAR,710.0
LIVP 180655Z 02010KT CAVOK M01/M08 Q1014 RMK SKC MON LIB VAL NIL VIS MIN 9999,LIVP,2014-12-18T06:55:00Z,46.15,11.03,-1.0,-8.0,20,10,,6.21,29.940945,,,,,,,,,,,CAVOK,,,,,,,,VFR,,,,,,,,,,,,METAR,2129.0
LICT 180655Z 14005KT 090V170 9999 FEW016TCU SCT018 12/11 Q1015 RMK BKN BKN100 VIS MIN 9999 WIND THR13 /////KT BLU,LICT,2014-12-18T06:55:00Z,37.92,12.5,12.0,11.0,140,5,,6.21,29.970472,,,,,,,,,,,FEW,1600,SCT,1800,,,,,VFR,,,,,,,,,,,,METAR,7.0
LICG 180655Z /////KT 9999 BKN009 13/13 Q1016 RMK BKN VIS MIN 9999 WIND THR08 27014KT WIND THR21 28012KT GRN,LICG,2014-12-18T06:55:00Z,36.82,11.97,13.0,13.0,,,,6.21,30.0,,,,,,,,,,,BKN,900,,,,,,,IFR,,,,,,,,,,,,METAR,191.0
LIMN 180655Z 36005KT CAVOK 01/00 Q1017 RMK BKN BKN080 VIS MIN 9999 BLU,LIMN,2014-12-18T06:55:00Z,45.52,8.67,1.0,0.0,360,5,,6.21,30.029528,,,,,,,,,,,CAVOK,,,,,,,,VFR,,,,,,,,,,,,METAR,169.0
LIPA 180655Z 06005KT 9999 FEW050 03/02 Q1017 RMK FEW VIS MIN 9999 A3006 BLU,LIPA,2014-12-18T06:55:00Z,46.02,12.58,3.0,2.0,60,5,,6.21,30.029528,,,,,,,,,,,FEW,5000,,,,,,,VFR,,,,,,,,,,,,METAR,126.0
LIPL 180655Z /////KT 0100 R31/0050N FG BKN001 SCT002 03/02 Q1017 RMK BKN VIS MIN 0100 WIND THR31 00000KT RED,LIPL,2014-12-18T06:55:00Z,45.42,10.27,3.0,2.0,,,,0.06,30.029528,,,,,,,,,,FG,BKN,100,SCT,200,,,,,LIFR,,,,,,,,,,,,METAR,92.0
LIPS 180655Z 00000KT 6000 MIFG SCT015 07/05 Q1017 RMK SCT VIS MIN 6000 WIND THR26 00000KT WIND THR08 00000KT WHT,LIPS,2014-12-18T06:55:00Z,45.67,12.08,7.0,5.0,0,0,,3.73,30.029528,,,,,,,,,,MIFG,SCT,1500,,,,,,,MVFR,,,,,,,,,,,,METAR,41.0
LIVC 180655Z 02025KT CAVOK M00/M05 Q1016 RMK SKC MON LIB VAL NI,LIVC,2014-12-18T06:55:00Z,44.2,10.68,0.0,-5.0,20,25,,6.21,30.0,,,,,,,,,,,CAVOK,,,,,,,,VFR,,,,,,,,,,,,SPECI,2173.0
LIBA 180655Z /////KT 9999 FEW030 SCT060 08/05 Q1016 RMK BKN VIS MIN 9999 WIND THR29 29005KT BLU,LIBA,2014-12-18T06:55:00Z,41.52,15.72,8.0,5.0,,,,6.21,30.0,,,,,,,,,,,FEW,3000,SCT,6000,,,,,VFR,,,,,,,,,,,,METAR,60.0
LIQW 180655Z 33005KT CAVOK 07/07 Q1018,LIQW,2014-12-18T06:55:00Z,44.07,9.97,7.0,7.0,330,5,,6.21,30.059055,,,,,,,,,,,CAVOK,,,,,,,,VFR,,,,,,,,,,,,METAR,10.0
LIBN 180655Z VRB01KT 6000 FEW025CB 05/05 Q1015 RMK BKN BKN080 VIS MIN 6000 WIND THR14 VRB01KT WHT,LIBN,2014-12-18T06:55:00Z,40.22,18.13,5.0,5.0,0,1,,3.73,29.970472,,,,,,,,,,,FEW,2500,,,,,,,MVFR,,,,,,,,,,,,METAR,61.0
LIBQ 180655Z 07006KT 9999 SCT040 02/01 Q1013 RMK SCT MON LIB VAL NIL VIS MIN 9999,LIBQ,2014-12-18T06:55:00Z,39.32,16.38,2.0,1.0,70,6,,6.21,29.911417,,,,,,,,,,,SCT,4000,,,,,,,VFR,,,,,,,,,,,,METAR,1720.0
LIBV 180655Z 01004KT CAVOK 07/07 Q1014 RMK BKN BKN070 VIS MIN 9999 WIND THR32 01006KT WIND THR14 05003KT BLU,LIBV,2014-12-18T06:55:00Z,40.77,16.92,7.0,7.0,10,4,,6.21,29.940945,,,,,,,,,,,CAVOK,,,,,,,,VFR,,,,,,,,,,,,METAR,350.0
LICZ 180655Z 31003KT 9999 SCT110 10/10 Q1015 RMK SCT VIS MIN 9999 WIND THR28 28005KT A2999 BLU,LICZ,2014-12-18T06:55:00Z,37.38,14.92,10.0,10.0,310,3,,6.21,29.970472,,,,,,,,,,,SCT,11000,,,,,,,VFR,,,,,,,,,,,,METAR,22.0
KQHN 180655Z VRB03KT 9000 HZ FEW150 15/M19 A3015 RMK SLP188 Q1021 DA3877,KQHN,2014-12-18T06:55:00Z,100.65,-1000.65,15.0,-19.0,0,3,,5.59,30.15059,1018.8,,,,,,,,,HZ,FEW,15000,,,,,,,VFR,,,,,,,,,,,,METAR,999.0
KQGV 180655Z 30010G14KT 9999 CLR 15/08 A3031 RMK SLPN QNH1027 PA +107,KQGV,2014-12-18T06:55:00Z,100.65,-1000.65,15.0,8.0,300,10,14,6.21,30.31004,,,,,,,,,,,CLR,,,,,,,,VFR,,,,,,,,,,,,METAR,999.0
LIPI 180655Z 01005KT 9999 SCT030 05/03 Q1018 RMK SCT VIS MIN 9999 WIND THR06 35007KT 320V040 BLU,LIPI,2014-12-18T06:55:00Z,45.97,13.05,5.0,3.0,10,5,,6.21,30.059055,,,,,,,,,,,SCT,3000,,,,,,,VFR,,,,,,,,,,,,METAR,53.0
KGXA 180655Z AUTO VRB03KT 10SM BKN160 05/01 A3010 RMK AO2 SLP218 T00490006 TSNO $,KGXA,2014-12-18T06:55:00Z,34.57,-117.67,4.9,0.6,0,3,,10.0,30.100393,1021.8,,TRUE,TRUE,TRUE,,TRUE,,,,BKN,16000,,,,,,,VFR,,,,,,,,,,,,METAR,923.0
KQTZ 180655Z 30003KT 6000 BR BKN190 12/09 A3030 RMK SLP261 WND/ALSTG/SLP ESTMD,KQTZ,2014-12-18T06:55:00Z,100.65,-1000.65,12.0,9.0,300,3,,3.73,30.301182,1026.1,,,,,,,,,BR,BKN,19000,,,,,,,MVFR,,,,,,,,,,,,SPECI,999.0
OPMT 180655Z 00000KT 0200 FG VV/// 10/10 Q1022 NOSIG,OPMT,2014-12-18T06:55:00Z,30.18,71.42,10.0,10.0,0,0,,0.12,30.177166,,,,,,TRUE,,,,FG,OVX,0,,,,,,,LIFR,,,,,,,,,,,,METAR,123.0
FAEO 180654Z 27005KT 9999 BKN015 18/14 Q1022,FAEO,2014-12-18T06:54:00Z,-26.5,29.97,18.0,14.0,270,5,,6.21,30.177166,,,,,,,,,,,BKN,1500,,,,,,,MVFR,,,,,,,,,,,,SPECI,1737.0
KNKT 180654Z 00000KT 10SM SCT200 07/04 A3008 RMK SLP181 T00670044,KNKT,2014-12-18T06:54:00Z,34.9,-76.88,6.7,4.4,0,0,,10.0,30.079725,1018.1,,,,,,,,,,SCT,20000,,,,,,,VFR,,,,,,,,,,,,METAR,9.0
KMQE 180654Z AUTO 28017G23KT 02/M01 A2969 RMK AO1 SLP069 T00221011,KMQE,2014-12-18T06:54:00Z,42.22,-71.12,2.2,-1.1,280,17,23,,29.68996,1006.9,,TRUE,TRUE,,,,,,,,,,,,,,,,,,,,,,,,,,,METAR,199.0
KDMH 180654Z AUTO 03/M06 A3004 RMK AO1 SLP173 T00281061,KDMH,2014-12-18T06:54:00Z,39.28,-76.62,2.8,-6.1,,,,,30.041338,1017.3,,TRUE,TRUE,,,,,,,,,,,,,,,,,,,,,,,,,,,METAR,5.0
K1V4 180654Z AUTO 01/01 A2969 RMK AO1 SLP061 P0001 T00110006,K1V4,2014-12-18T06:54:00Z,44.42,-72.02,1.1,0.6,,,,,29.68996,1006.1,,TRUE,TRUE,,,,,,,,,,,,,,,,,,,,,0.01,,,,,,METAR,210.0
TISX 180653Z 01006KT 10SM CLR 23/19 A2999 RMK AO2 SLP152 T02280189 $,TISX,2014-12-18T06:53:00Z,17.7,-64.8,22.8,18.9,10,6,,10.0,29.991142,1015.2,,,TRUE,TRUE,,,,,,CLR,,,,,,,,VFR,,,,,,,,,,,,SPECI,19.0
PAWI 180653Z AUTO 07017KT 1 3/4SM -SN OVC070 M21/M24 A2984 RMK UPE44SNB44 SLP107 P0000 T12111244 TSNO VIA AUTODIAL,PAWI,2014-12-18T06:53:00Z,70.62,-159.85,-21.1,-24.4,70,17,,1.75,29.840551,1010.7,,TRUE,,,,TRUE,,,-SN,OVC,7000,,,,,,,IFR,,,,,,0.0050,,,,,,METAR,27.0
KRYT 180653Z AUTO 28009G14KT 240V350 10SM OVC037 01/M06 A3002 RMK AO2 SLP175 T00111061 $,KRYT,2014-12-18T06:53:00Z,39.73,-77.43,1.1,-6.1,280,9,14,10.0,30.02067,1017.5,,TRUE,TRUE,TRUE,,,,,,OVC,3700,,,,,,,VFR,,,,,,,,,,,,METAR,274.0
KNQX 180653Z AUTO 01005KT 10SM CLR 18/16 A3015 RMK AO2 SLP207 T01780156,KNQX,2014-12-18T06:53:00Z,24.57,-81.67,17.8,15.6,10,5,,10.0,30.15059,1020.7,,TRUE,TRUE,,,,,,,CLR,,,,,,,,VFR,,,,,,,,,,,,SPECI,2.0
KMWN 180652Z 33038KT 1/16SM -SN FZFG BLSN VV000 M09/M09 RMK VRY LGT ICG,KMWN,2014-12-18T06:52:00Z,44.27,-71.3,-9.0,-9.0,330,38,,0.06,,,,,,,,,,,-SN FZFG BLSN,OVX,0,,,,,,,LIFR,,,,,,,,,,,0,METAR,1910.0
KGDP 180651Z AUTO 25028G35KT 10SM CLR 07/M01 A3010 RMK AO2 PK WND 27037/0621 SLP164 T00671006 401330028,KGDP,2014-12-18T06:51:00Z,31.83,-104.82,6.7,-0.6,250,28,35,10.0,30.100393,1016.4,,TRUE,TRUE,,,,,,,CLR,,,,,,,,VFR,,,,13.3,2.8,,,,,,,METAR,1692.0
MUCU 180651Z 36009KT 9000 FEW020 23/19 Q1016,MUCU,2014-12-18T06:51:00Z,19.97,-75.83,23.0,19.0,360,9,,5.59,30.0,,,,,,,,,,,FEW,2000,,,,,,,VFR,,,,,,,,,,,,METAR,76.0
MUHG 180651Z 05004KT 9000 FEW025 21/18 Q1017,MUHG,2014-12-18T06:51:00Z,20.77,-76.32,21.0,18.0,50,4,,5.59,30.029528,,,,,,,,,,,FEW,2500,,,,,,,VFR,,,,,,,,,,,,METAR,106.0
MUCC 180651Z 06011KT 9000 FEW020 22/17 Q1018,MUCC,2014-12-18T06:51:00Z,22.47,-78.33,22.0,17.0,60,11,,5.59,30.059055,,,,,,,,,,,FEW,2000,,,,,,,VFR,,,,,,,,,,,,METAR,4.0
OOSA 180650Z AUTO 01018G30KT 6000 27/06 Q1019,OOSA,2014-12-18T06:50:00Z,17.02,54.07,27.0,6.0,10,18,30,3.73,30.088583,,,TRUE,,,,,,,,,,,,,,,,,,,,,,,,,,,,METAR,20.0
LIRU 180650Z 00000KT 0500 FG NSC 04/04 Q1016,LIRU,2014-12-18T06:50:00Z,41.95,12.5,4.0,4.0,0,0,,0.31,30.0,,,,,,,,,,FG,,,,,,,,,,,,,,,,,,,,,METAR,24.0
LIPY 180650Z 18003KT 140V210 9999 SCT025 08/07 Q1018,LIPY,2014-12-18T06:50:00Z,43.62,13.37,8.0,7.0,180,3,,6.21,30.059055,,,,,,,,,,,SCT,2500,,,,,,,VFR,,,,,,,,,,,,METAR,10.0
LIPO 180650Z 23002KT 0150 R32/0300N FG VV/// 02/02 Q1018,LIPO,2014-12-18T06:50:00Z,45.42,10.33,2.0,2.0,230,2,,0.09,30.059055,,,,,,,,,,FG,OVX,0,,,,,,,LIFR,,,,,,,,,,,,METAR,109.0
LIMZ 180650Z 25003KT 9999 BKN060 02/01 Q1017,LIMZ,2014-12-18T06:50:00Z,44.53,7.62,2.0,1.0,250,3,,6.21,30.029528,,,,,,,,,,,BKN,6000,,,,,,,VFR,,,,,,,,,,,,METAR,380.0
LIMP 180650Z VRB01KT 9999 3000N NSC 02/02 Q1018,LIMP,2014-12-18T06:50:00Z,44.82,10.3,2.0,2.0,0,1,,6.21,30.059055,,,,,,,,,,,,,,,,,,,,,,,,,,,,,,,METAR,50.0
ENSN 180650Z 30003KT 0900 FZFG VV001 M02/M02 Q0992,ENSN,2014-12-18T06:50:00Z,59.17,9.57,-2.0,-2.0,300,3,,0.56,29.291338,,,,,,,,,,FZFG,OVX,0,,,,,,,LIFR,,,,,,,,,,,100,METAR,14.0
EGDM 180650Z 26016KT 9999 BKN010 11/10 Q1011 GRN,EGDM,2014-12-18T06:50:00Z,51.17,-1.75,11.0,10.0,260,16,,6.21,29.852362,,,,,,,,,,,BKN,1000,,,,,,,MVFR,,,,,,,,,,,,METAR,124.0
OOMS 180650Z VRB03KT 9999 SCT025 25/16 Q1021 NOSIG,OOMS,2014-12-18T06:50:00Z,23.57,58.27,25.0,16.0,0,3,,6.21,30.147638,,,,,,TRUE,,,,,SCT,2500,,,,,,,VFR,,,,,,,,,,,,METAR,8.0
VNKT 180650Z 16003KT 7000 FEW020 17/05 Q1023 NOSIG,VNKT,2014-12-18T06:50:00Z,27.68,85.37,17.0,5.0,160,3,,4.35,30.206694,,,,,,TRUE,,,,,FEW,2000,,,,,,,MVFR,,,,,,,,,,,,METAR,1337.0
VEPT 180650Z 25005KT 1800 FU NSC 21/13 Q1019 NOSIG,VEPT,2014-12-18T06:50:00Z,25.6,85.08,21.0,13.0,250,5,,1.12,30.088583,,,,,,TRUE,,,,FU,,,,,,,,,,,,,,,,,,,,,METAR,60.0
ENBL 180650Z 21005KT 3500 -SNRA SCT005 BKN014 01/00 Q0985,ENBL,2014-12-18T06:50:00Z,61.4,5.77,1.0,0.0,210,5,,2.17,29.084646,,,,,,,,,,-SN -RA,SCT,500,BKN,1400,,,,,IFR,,,,,,,,,,,,METAR,150.0
MUCM 180650Z 06010KT 9000 SKC 20/18 Q1018,MUCM,2014-12-18T06:50:00Z,21.42,-77.85,20.0,18.0,60,10,,5.59,30.059055,,,,,,,,,,,SKC,,,,,,,,VFR,,,,,,,,,,,,METAR,122.0
MUSC 180650Z VRB02KT 8000 NSC 13/11 Q1020,MUSC,2014-12-18T06:50:00Z,22.5,-79.95,13.0,11.0,0,2,,4.97,30.11811,,,,,,,,,,,,,,,,,,,,,,,,,,,,,,,METAR,103.0
MUVR 180650Z 15004KT 7000 NSC 13/11 Q1020,MUVR,2014-12-18T06:50:00Z,23.03,-81.43,13.0,11.0,150,4,,4.35,30.11811,,,,,,,,,,,,,,,,,,,,,,,,,,,,,,,SPECI,65.0
LTFH 180650Z 08004KT 9999 SCT036 15/03 Q1016 NOSIG,LTFH,2014-12-18T06:50:00Z,41.27,36.55,15.0,3.0,80,4,,6.21,30.0,,,,,,TRUE,,,,,SCT,3600,,,,,,,VFR,,,,,,,,,,,,METAR,5.0
LTDA 180650Z VRB01KT 7000 BKN035 10/10 Q1024,LTDA,2014-12-18T06:50:00Z,36.37,36.28,10.0,10.0,0,1,,4.35,30.236221,,,,,,,,,,,BKN,3500,,,,,,,MVFR,,,,,,,,,,,,METAR,82.0
LTCF 180650Z 00000KT 7000 BKN035 OVC070 M04/M04 Q1024,LTCF,2014-12-18T06:50:00Z,40.57,43.12,-4.0,-4.0,0,0,,4.35,30.236221,,,,,,,,,,,BKN,3500,OVC,7000,,,,,MVFR,,,,,,,,,,,,METAR,1795.0
LTCD 180650Z 00000KT 5000 BR FEW040 BKN100 02/00 Q1022 BECMG TL0800 9999 NSW,LTCD,2014-12-18T06:50:00Z,39.72,39.5,2.0,0.0,0,0,,3.11,30.177166,,,,,,,,,,BR,FEW,4000,BKN,10000,,,,,MVFR,,,,,,,,,,,,METAR,1215.0
LTCA 180650Z 30003KT 270V330 7000 SCT020 BKN100 04/03 Q1024 TEMPO 2500 BR,LTCA,2014-12-18T06:50:00Z,38.6,39.27,4.0,3.0,300,3,,4.35,30.236221,,,,,,,,,,,SCT,2000,BKN,10000,,,,,MVFR,,,,,,,,,,,,METAR,882.0
LTBY 180650Z 11005KT 6000 SCT030 BKN100 04/03 Q1018 RERA,LTBY,2014-12-18T06:50:00Z,39.82,30.52,4.0,3.0,110,5,,3.73,30.059055,,,,,,,,,,,SCT,3000,BKN,10000,,,,,MVFR,,,,,,,,,,,,METAR,789.0
LTAY 180650Z 06003KT 9999 SCT033 BKN090 08/06 Q1018 RESHRA,LTAY,2014-12-18T06:50:00Z,37.77,29.68,8.0,6.0,60,3,,6.21,30.059055,,,,,,,,,,,SCT,3300,BKN,9000,,,,,VFR,,,,,,,,,,,,METAR,849.0
LTAR 180650Z 17005KT 140V200 9999 SCT040 BKN100 04/M02 Q1021,LTAR,2014-12-18T06:50:00Z,39.8,36.9,4.0,-2.0,170,5,,6.21,30.147638,,,,,,,,,,,SCT,4000,BKN,10000,,,,,VFR,,,,,,,,,,,,METAR,1271.0
LTBQ 180650Z VRB02KT 8000 SCT032 BKN080 10/09 Q1016 TEMPO 27012KT,LTBQ,2014-12-18T06:50:00Z,40.72,30.07,10.0,9.0,0,2,,4.97,30.0,,,,,,,,,,,SCT,3200,BKN,8000,,,,,MVFR,,,,,,,,,,,,METAR,50.0
LTBF 180650Z 00000KT 9999 SCT035 SCT100 11/09 Q1017 NOSIG,LTBF,2014-12-18T06:50:00Z,39.62,27.92,11.0,9.0,0,0,,6.21,30.029528,,,,,,TRUE,,,,,SCT,3500,SCT,10000,,,,,VFR,,,,,,,,,,,,METAR,102.0
LTFG 180650Z 12004KT 080V160 9999 BKN035 14/10 Q1018,LTFG,2014-12-18T06:50:00Z,36.3,32.3,14.0,10.0,120,4,,6.21,30.059055,,,,,,,,,,,BKN,3500,,,,,,,VFR,,,,,,,,,,,,METAR,95.0
LTFD 180650Z 07005KT 9999 SCT035 BKN100 11/10 Q1016,LTFD,2014-12-18T06:50:00Z,39.55,27.02,11.0,10.0,70,5,,6.21,30.0,,,,,,,,,,,SCT,3500,BKN,10000,,,,,VFR,,,,,,,,,,,,METAR,16.0
LTCV 180650Z 03003KT 010V080 9999 FEW040 BKN180 07/05 Q1025,LTCV,2014-12-18T06:50:00Z,37.37,42.07,7.0,5.0,30,3,,6.21,30.265747,,,,,,,,,,,FEW,4000,BKN,18000,,,,,VFR,,,,,,,,,,,,METAR,621.0
LTCU 180650Z 28005KT 9999 FEW035 BKN100 03/01 Q1025,LTCU,2014-12-18T06:50:00Z,38.87,40.58,3.0,1.0,280,5,,6.21,30.265747,,,,,,,,,,,FEW,3500,BKN,10000,,,,,VFR,,,,,,,,,,,,METAR,1061.0
LTCT 180650Z VRB01KT 9999 SCT035 BKN070 04/M00 Q1026,LTCT,2014-12-18T06:50:00Z,39.98,43.87,4.0,0.0,0,1,,6.21,30.295275,,,,,,,,,,,SCT,3500,BKN,7000,,,,,VFR,,,,,,,,,,,,METAR,946.0
LTCR 180650Z 07004KT 9999 SCT040 BKN100 09/08 Q1024,LTCR,2014-12-18T06:50:00Z,37.22,40.63,9.0,8.0,70,4,,6.21,30.236221,,,,,,,,,,,SCT,4000,BKN,10000,,,,,VFR,,,,,,,,,,,,METAR,527.0
LTCP 180650Z 11008KT 9999 SCT040 BKN100 08/05 Q1024,LTCP,2014-12-18T06:50:00Z,37.73,38.47,8.0,5.0,110,8,,6.21,30.236221,,,,,,,,,,,SCT,4000,BKN,10000,,,,,VFR,,,,,,,,,,,,METAR,676.0
LTCO 180650Z 00000KT 8000 FEW030 BKN130 01/M03 Q1025,LTCO,2014-12-18T06:50:00Z,39.65,43.03,1.0,-3.0,0,0,,4.97,30.265747,,,,,,,,,,,FEW,3000,BKN,13000,,,,,MVFR,,,,,,,,,,,,METAR,1665.0
LTCN 180650Z VRB01KT 6000 SCT035 BKN100 08/06 Q1023,LTCN,2014-12-18T06:50:00Z,37.53,36.95,8.0,6.0,0,1,,3.73,30.206694,,,,,,,,,,,SCT,3500,BKN,10000,,,,,MVFR,,,,,,,,,,,,METAR,526.0
LTCM 180650Z 18004KT 9999 FEW030 SCT100 09/04 Q1014,LTCM,2014-12-18T06:50:00Z,42.02,35.07,9.0,4.0,180,4,,6.21,29.940945,,,,,,,,,,,FEW,3000,SCT,10000,,,,,VFR,,,,,,,,,,,,METAR,8.0
LTCL 180650Z 20005KT 9000 FEW015 SCT035 BKN100 05/05 Q1025,LTCL,2014-12-18T06:50:00Z,37.98,41.83,5.0,5.0,200,5,,5.59,30.265747,,,,,,,,,,,FEW,1500,SCT,3500,BKN,10000,,,VFR,,,,,,,,,,,,METAR,610.0
LTCK 180650Z VRB02KT 2500 BR FEW010 SCT040 BKN080 00/M00 Q1025,LTCK,2014-12-18T06:50:00Z,38.75,41.67,0.0,0.0,0,2,,1.55,30.265747,,,,,,,,,,BR,FEW,1000,SCT,4000,BKN,8000,,,IFR,,,,,,,,,,,,METAR,1266.0
LTBO 180650Z 08003KT 9999 -SHRA BKN035 BKN080 07/06 Q1018,LTBO,2014-12-18T06:50:00Z,38.67,29.47,7.0,6.0,80,3,,6.21,30.059055,,,,,,,,,,-SHRA,BKN,3500,BKN,8000,,,,,VFR,,,,,,,,,,,,METAR,919.0
LTBH 180650Z 00000KT 9999 BKN035 09/09 Q1016,LTBH,2014-12-18T06:50:00Z,40.13,26.42,9.0,9.0,0,0,,6.21,30.0,,,,,,,,,,,BKN,3500,,,,,,,VFR,,,,,,,,,,,,METAR,3.0
LIBP 180650Z VRB03KT 9999 FEW070 06/03 Q1018,LIBP,2014-12-18T06:50:00Z,42.42,14.18,6.0,3.0,0,3,,6.21,30.059055,,,,,,,,,,,FEW,7000,,,,,,,VFR,,,,,,,,,,,,METAR,11.0
LIBC 180650Z 34006KT CAVOK 09/06 Q1015 RMK VIS MIN 9999,LIBC,2014-12-18T06:50:00Z,39.0,17.07,9.0,6.0,340,6,,6.21,29.970472,,,,,,,,,,,CAVOK,,,,,,,,VFR,,,,,,,,,,,,METAR,161.0
LIRZ 180650Z 36007KT 0100 R01/0650U VV/// 06/06 Q1018,LIRZ,2014-12-18T06:50:00Z,43.1,12.5,6.0,6.0,360,7,,0.06,30.059055,,,,,,,,,,,OVX,0,,,,,,,LIFR,,,,,,,,,,,,METAR,205.0
LICD 180650Z 29013KT 9999 SCT030 15/10 Q1018,LICD,2014-12-18T06:50:00Z,35.5,12.62,15.0,10.0,290,13,,6.21,30.059055,,,,,,,,,,,SCT,3000,,,,,,,VFR,,,,,,,,,,,,METAR,20.0
LICA 180650Z 09005KT 9999 FEW020 07/06 Q1016,LICA,2014-12-18T06:50:00Z,38.88,16.25,7.0,6.0,90,5,,6.21,30.0,,,,,,,,,,,FEW,2000,,,,,,,VFR,,,,,,,,,,,,METAR,15.0
LIPU 180650Z VRB02KT 0100 FG OVC002 08/08 Q1018,LIPU,2014-12-18T06:50:00Z,45.38,11.83,8.0,8.0,0,2,,0.06,30.059055,,,,,,,,,,FG,OVC,200,,,,,,,LIFR,,,,,,,,,,,,METAR,14.0
KEFD 180650Z 07004KT 10SM SCT012 BKN020 OVC060 17/16 A3010,KEFD,2014-12-18T06:50:00Z,29.6,-95.17,17.0,16.0,70,4,,10.0,30.100393,,,,,,,,,,,SCT,1200,BKN,2000,OVC,6000,,,MVFR,,,,,,,,,,,,METAR,10.0
LTAS 180650Z VRB02KT 8000 SCT035 BKN100 07/05 Q1016 RESHRA,LTAS,2014-12-18T06:50:00Z,41.52,32.08,7.0,5.0,0,2,,4.97,30.0,,,,,,,,,,,SCT,3500,BKN,10000,,,,,MVFR,,,,,,,,,,,,METAR,136.0
LTAL 180650Z 00000KT 1800 R18/1600D BR SCT008 BKN023 BKN070 M01/M01 Q1017,LTAL,2014-12-18T06:50:00Z,41.32,33.8,-1.0,-1.0,0,0,,1.12,30.029528,,,,,,,,,,BR,SCT,800,BKN,2300,BKN,7000,,,IFR,,,,,,,,,,,,METAR,1066.0
LTCI 180650Z VRB02KT 7000 SCT035 BKN070 02/M00 Q1025 NOSIG,LTCI,2014-12-18T06:50:00Z,38.45,43.32,2.0,0.0,0,2,,4.35,30.265747,,,,,,TRUE,,,,,SCT,3500,BKN,7000,,,,,MVFR,,,,,,,,,,,,METAR,1661.0
KNQA 180650Z 02005KT 8SM -RA SCT049 BKN060 OVC080 02/02 A3026,KNQA,2014-12-18T06:50:00Z,35.35,-89.87,2.0,2.0,20,5,,8.0,30.259842,,,,,,,,,,-RA,SCT,4900,BKN,6000,OVC,8000,,,VFR,,,,,,,,,,,,METAR,86.0
FHAW 180650Z 15014KT 9999 FEW022 23/19 Q1014 BLU NOSIG,FHAW,2014-12-18T06:50:00Z,-7.97,-14.4,23.0,19.0,150,14,,6.21,29.940945,,,,,,TRUE,,,,,FEW,2200,,,,,,,VFR,,,,,,,,,,,,METAR,79.0
LICB 180650Z 09004KT 030V120 9999 FEW040 08/07 Q1016,LICB,2014-12-18T06:50:00Z,37.0,14.62,8.0,7.0,90,4,,6.21,30.0,,,,,,,,,,,FEW,4000,,,,,,,VFR,,,,,,,,,,,,METAR,220.0
EGYM 180650Z AUTO 22013KT 9999 BKN010/// SCT030/// 11/10 Q1006,EGYM,2014-12-18T06:50:00Z,52.63,0.57,11.0,10.0,220,13,,6.21,29.704725,,,TRUE,,,,,,,,,,,,,,,,,,,,,,,,,,,,SPECI,23.0
EGXZ 180650Z AUTO 16006KT 9000 BR BKN006/// BKN013/// 11/11 Q1001,EGXZ,2014-12-18T06:50:00Z,54.2,-1.38,11.0,11.0,160,6,,5.59,29.557087,,,TRUE,,,,,,,BR,,,,,,,,,,,,,,,,,,,,,SPECI,28.0
EGXT 180650Z AUTO 23018KT 9999 FEW009/// BKN028/// 12/11 Q1005,EGXT,2014-12-18T06:50:00Z,52.62,-0.47,12.0,11.0,230,18,,6.21,29.675198,,,TRUE,,,,,,,,,,,,,,,,,,,,,,,,,,,,SPECI,84.0
EGXS 180650Z AUTO 21022KT 9999 // BKN033/// BKN200/// 12/10 Q1003,EGXS,2014-12-18T06:50:00Z,53.48,0.15,12.0,10.0,210,22,,6.21,29.616142,,,TRUE,,,,,,,,,,,,,,,,,,,,,,,,,,,,METAR,3.0
EGXP 180650Z AUTO 23014KT 9999 // SCT014/// BKN021/// BKN028/// 12/11 Q1003,EGXP,2014-12-18T06:50:00Z,53.3,-0.55,12.0,11.0,230,14,,6.21,29.616142,,,TRUE,,,,,,,,,,,,,,,,,,,,,,,,,,,,METAR,61.0
EGQK 180650Z AUTO 24013KT 9999 FEW034/// BKN140/// 08/03 Q0990,EGQK,2014-12-18T06:50:00Z,57.65,-3.57,8.0,3.0,240,13,,6.21,29.232283,,,TRUE,,,,,,,,,,,,,,,,,,,,,,,,,,,,SPECI,7.0
EGOP 180650Z AUTO 25027KT 4300 // OVC004/// 11/11 Q1010,EGOP,2014-12-18T06:50:00Z,51.72,-4.32,11.0,11.0,250,27,,2.67,29.822834,,,TRUE,,,,,,,,,,,,,,,,,,,,,,,,,,,,SPECI,6.0
EGOM 180650Z AUTO 24025KT 4400 -SHRA ///////// 09/09 Q0996,EGOM,2014-12-18T06:50:00Z,55.05,-2.55,9.0,9.0,240,25,,2.73,29.409449,,,TRUE,,,,,,,-SHRA,,,,,,,,,,,,,,,,,,,,,SPECI,325.0
EGDX 180650Z AUTO 26018KT 7000 BR OVC002/// 11/11 Q1011 RERA,EGDX,2014-12-18T06:50:00Z,51.4,-3.43,11.0,11.0,260,18,,4.35,29.852362,,,TRUE,,,,,,,BR,,,,,,,,,,,,,,,,,,,,,SPECI,50.0
BGBW 180650Z 08003KT 9999 SKC M16/M23 Q0999,BGBW,2014-12-18T06:50:00Z,61.17,-45.42,-16.0,-23.0,80,3,,6.21,29.498032,,,,,,,,,,,SKC,,,,,,,,VFR,,,,,,,,,,,,METAR,26.0
LICR 180650Z 05006KT 9999 SCT020 14/10 Q1015 RMK VIS MIN 9999,LICR,2014-12-18T06:50:00Z,38.07,15.65,14.0,10.0,50,6,,6.21,29.970472,,,,,,,,,,,SCT,2000,,,,,,,VFR,,,,,,,,,,,,METAR,21.0
EGYD 180650Z 23019KT 9999 -DZ FEW010 BKN017 OVC030 12/10 Q1004 WHT TEMPO SCT010 GRN,EGYD,2014-12-18T06:50:00Z,53.03,-0.5,12.0,10.0,230,19,,6.21,29.64567,,,,,,,,,,-DZ,FEW,1000,BKN,1700,OVC,3000,,,MVFR,,,,,,,,,,,,METAR,67.0
EGXW 180650Z 22012KT 9999 -RA BKN011 12/10 Q1004 GRN,EGXW,2014-12-18T06:50:00Z,53.18,-0.52,12.0,10.0,220,12,,6.21,29.64567,,,,,,,,,,-RA,BKN,1100,,,,,,,MVFR,,,,,,,,,,,,METAR,70.0
EGXV 180650Z AUTO 21011KT 7000 BR BKN005/// SCT014/// 11/11 Q1001,EGXV,2014-12-18T06:50:00Z,53.87,-0.45,11.0,11.0,210,11,,4.35,29.557087,,,TRUE,,,,,,,BR,,,,,,,,,,,,,,,,,,,,,METAR,6.0
EGXU 180650Z 22010KT 6000 -RADZ SCT008 OVC015 12/11 Q1001 GRN TEMPO 23015G25KT FEW008 WHT,EGXU,2014-12-18T06:50:00Z,54.05,-1.25,12.0,11.0,220,10,,3.73,29.557087,,,,,,,,,,-RA -DZ,SCT,800,OVC,1500,,,,,MVFR,,,,,,,,,,,,METAR,16.0
EGXE 180650Z 23009KT 9999 OVC018 12/10 Q1000 WHT,EGXE,2014-12-18T06:50:00Z,54.28,-1.52,12.0,10.0,230,9,,6.21,29.52756,,,,,,,,,,,OVC,1800,,,,,,,MVFR,,,,,,,,,,,,METAR,40.0
EGXD 180650Z 24011KT 7000 -RADZ OVC011 11/10 Q1001 GRN,EGXD,2014-12-18T06:50:00Z,54.13,-1.42,11.0,10.0,240,11,,4.35,29.557087,,,,,,,,,,-RA -DZ,OVC,1100,,,,,,,MVFR,,,,,,,,,,,,METAR,35.0
EGXC 180650Z 22013KT 9999 SCT015 BKN035 12/10 Q1004 WHT TEMPO FEW015 WHT,EGXC,2014-12-18T06:50:00Z,53.1,-0.17,12.0,10.0,220,13,,6.21,29.64567,,,,,,,,,,,SCT,1500,BKN,3500,,,,,VFR,,,,,,,,,,,,METAR,7.0
EGVP 180650Z 25013KT 9999 BKN009 12/11 Q1011 GRN,EGVP,2014-12-18T06:50:00Z,51.13,-1.57,12.0,11.0,250,13,,6.21,29.852362,,,,,,,,,,,BKN,900,,,,,,,IFR,,,,,,,,,,,,METAR,91.0
EGVO 180650Z 24015KT 9999 OVC008 12/10 Q1010 GRN,EGVO,2014-12-18T06:50:00Z,51.23,-0.95,12.0,10.0,240,15,,6.21,29.822834,,,,,,,,,,,OVC,800,,,,,,,IFR,,,,,,,,,,,,METAR,123.0
EGUW 180650Z 24011KT 9999 BKN012 12/10 Q1007 GRN NOSIG,EGUW,2014-12-18T06:50:00Z,52.12,0.97,12.0,10.0,240,11,,6.21,29.734253,,,,,,TRUE,,,,,BKN,1200,,,,,,,MVFR,,,,,,,,,,,,METAR,87.0
EGUB 180650Z 24014KT 9999 BKN015 13/10 Q1009 WHT TEMPO BKN014 GRN,EGUB,2014-12-18T06:50:00Z,51.62,-1.07,13.0,10.0,240,14,,6.21,29.793306,,,,,,,,,,,BKN,1500,,,,,,,MVFR,,,,,,,,,,,,METAR,63.0
EGQS 180650Z 26013KT 9999 FEW040 BKN140 BKN200 08/03 Q0990 BLU,EGQS,2014-12-18T06:50:00Z,57.72,-3.32,8.0,3.0,260,13,,6.21,29.232283,,,,,,,,,,,FEW,4000,BKN,14000,BKN,20000,,,VFR,,,,,,,,,,,,METAR,13.0
EGQM 180650Z AUTO 23012KT 9999 OVC016/// 11/11 Q0996,EGQM,2014-12-18T06:50:00Z,55.42,-1.6,11.0,11.0,230,12,,6.21,29.409449,,,TRUE,,,,,,,,,,,,,,,,,,,,,,,,,,,,METAR,23.0
EGQL 180650Z 26016KT 9999 FEW030 BKN160 09/07 Q0993 BLU,EGQL,2014-12-18T06:50:00Z,56.38,-2.87,9.0,7.0,260,16,,6.21,29.320866,,,,,,,,,,,FEW,3000,BKN,16000,,,,,VFR,,,,,,,,,,,,METAR,12.0
EGOV 180650Z 21025KT 9999 BKN007 12/11 Q1003 GRN TEMPO FEW007 BKN023 WHT,EGOV,2014-12-18T06:50:00Z,53.25,-4.53,12.0,11.0,210,25,,6.21,29.616142,,,,,,,,,,,BKN,700,,,,,,,IFR,,,,,,,,,,,,METAR,11.0
EGOS 180650Z 23017KT 9999 -DZ BKN012 BKN015 12/10 Q1005 GRN NOSIG,EGOS,2014-12-18T06:50:00Z,52.8,-2.67,12.0,10.0,230,17,,6.21,29.675198,,,,,,TRUE,,,,-DZ,BKN,1200,BKN,1500,,,,,MVFR,,,,,,,,,,,,METAR,76.0
EGDY 180650Z 25011KT 9999 FEW009 BKN012 13/11 Q1012 GRN NOSIG,EGDY,2014-12-18T06:50:00Z,51.0,-2.62,13.0,11.0,250,11,,6.21,29.88189,,,,,,TRUE,,,,,FEW,900,BKN,1200,,,,,MVFR,,,,,,,,,,,,METAR,23.0
EGDR 180650Z 25014G29KT 6000 -RADZ FEW003 BKN004 OVC006 11/10 Q1016 YLO2 NOSIG,EGDR,2014-12-18T06:50:00Z,50.08,-5.25,11.0,10.0,250,14,29,3.73,30.0,,,,,,TRUE,,,,-RA -DZ,FEW,300,BKN,400,OVC,600,,,LIFR,,,,,,,,,,,,METAR,82.0
LCRA 180650Z 04007KT CAVOK 17/12 Q1018 NOSIG,LCRA,2014-12-18T06:50:00Z,34.57,32.97,17.0,12.0,40,7,,6.21,30.059055,,,,,,TRUE,,,,,CAVOK,,,,,,,,VFR,,,,,,,,,,,,METAR,23.0
ENNK 180650Z VRB02KT CAVOK M03/M08 Q0990,ENNK,2014-12-18T06:50:00Z,68.47,17.38,-3.0,-8.0,0,2,,6.21,29.232283,,,,,,,,,,,CAVOK,,,,,,,,VFR,,,,,,,,,,,,METAR,23.0
ENBS 180650Z VRB03KT 9999 -SHSN SCT013 BKN033 M03/M07 Q0991,ENBS,2014-12-18T06:50:00Z,70.62,29.72,-3.0,-7.0,0,3,,6.21,29.26181,,,,,,,,,,-SHSN,SCT,1300,BKN,3300,,,,,VFR,,,,,,,,,,,,METAR,10.0
DGAA 180647Z 27009KT 5000 BR NSC 25/24 Q1012,DGAA,2014-12-18T06:47:00Z,5.58,-0.17,25.0,24.0,270,9,,3.11,29.88189,,,,,,,,,,BR,,,,,,,,,,,,,,,,,,,,,METAR,69.0
LHBC 180645Z 17001KT 0300 FZFG SCT083 M00/M01 Q1018,LHBC,2014-12-18T06:45:00Z,46.68,21.17,0.0,-1.0,170,1,,0.19,30.059055,,,,,,,,,,FZFG,SCT,8300,,,,,,,LIFR,,,,,,,,,,,,METAR,86.0
MMDO 180645Z 21004KT 10SM SCT035 BKN200 11/02 A3027 RMK 8/504 ISOL AC RTS,MMDO,2014-12-18T06:45:00Z,24.12,-104.52,11.0,2.0,210,4,,10.0,30.268702,,,,,,,,,,,SCT,3500,BKN,20000,,,,,VFR,,,,,,,,,,,,METAR,1857.0
